provider_name,phone,address,latitude,longitude,monitoring_reports
Mi Pequeño Mundo I,787-934-6098 / 787-871-5324,"Extensión Muñoz Rivera # 57 Florida, PR 00650",17.9648876,-66.4026563,"[{'year': '2021', 'url': '/../docproveedores/REPORTE-Mi-Pequeno-Mundo-I.pdf'}, {'year': '2022', 'url': '/../docproveedores/Resultado-Mi-Pequeño-Mundo-I-2022.pdf'}, {'year': '2023', 'url': '/../docproveedores/Resultado-Mi-pequeño-mundo-I-2023.pdf'}]"
New York Foundling John O' Connor,787-268-1753,"Calle Santa Elena 2372 Esq. Constitución San Juan, PR 00915",18.42467,-66.04294,"[{'year': '2022', 'url': '/../docproveedores/NY-Foundling-John-O-Connor.pdf'}, {'year': '2023', 'url': '/../docproveedores/John-O-Connor-NY-Foundling-2023.pdf'}]"
New York Foundling Santa Ana NY Foundling,787-621-9160 / 787-270-3533,"Carr Estatal #2 Bo. Espinosa Vega Alta, PR 00692",18.41523,-66.31878,"[{'year': '2022', 'url': '/../docproveedores/NY-Foundling-Santa-Ana.pdf'}, {'year': '2023', 'url': '/../docproveedores/Santa-Ana-NY-Foundling-2023.pdf'}]"
New York Foundling Paraiso Infantil NY Foundling,787-782-8507,"Urb Puerto Nuevo NE-348 Calle 13 San Juan, PR 00920",15.14273,120.98614,"[{'year': '2022', 'url': '/../docproveedores/NY-Foundling-Paraiso-Infantil.pdf'}, {'year': '2023', 'url': '/../docproveedores/Paraiso-Infantil-NY-Foundling-2023.pdf'}]"
New York Foundling Paseo Alegre,787-414-3976,"Calle Paseo Alegre 2da Sección Levittown Toa Baja, PR 00949",18.44995,-66.18156,"[{'year': '2023', 'url': '/../docproveedores/NY-Foundling-Paseo-Alegre.pdf'}]"
Semillitas De Amor 2,939-609-6153 / 787-464-2859,"#74 Calle Méndez Vigo Mayagüez, PR 00680",18.201607,-67.138021,"[{'year': '2022', 'url': '/../docproveedores/Semillitas-de-Amor-2-2022.pdf'}, {'year': '2023', 'url': '/../docproveedores/Semillitas-de-Amor-2.pdf'}]"
CCD Los Bebes Del Milenio,787-385-1714 / 939-337-0184,"Urb La Rosaleda, 110 Calle Rosa De Te Toa Baja, PR 00949",18.44384,-66.25961,"[{'year': '2023', 'url': '/../docproveedores/Los-Bebes-del-Milenio.pdf'}, {'year': '2024', 'url': '/../docproveedores/2024 Los Bebes del Milenio.pdf'}]"
Roble Mun De Carolina,787-752-0489,"BO Buenaventura Calle Azucena 183 Carolina, PR 00987",18.402122,-65.953376,"[{'year': '2021', 'url': '/../docproveedores/Resultado-El-Roble-Mun-de-Carolina.pdf'}, {'year': '2022', 'url': '/../docproveedores/Resultado-RobleMun-Carolina-2022.pdf'}, {'year': '2023', 'url': '/../docproveedores/Roble-Mun-Carolina.pdf'}, {'year': '2024', 'url': '/../docproveedores/2024 El Roble-Mun. Carolina.pdf'}]"
Piesitos Centro De Desarrollo,787-297-3309 / 939-417-6478,"Urb Lomas Verdes 4R-7 Calle Zinnia Bayamón, PR 00956",18.39856,-66.15572,"[{'year': '2023', 'url': '/../docproveedores/Piesitos.pdf'}, {'year': '2024', 'url': '/../docproveedores/2024-piesitos-centro-de-desarrollo.pdf'}]"
Rincon Christian Academy,787-362-0005,"Bo. Pueblo Carr 115 Km 11.4 Rincon, PR 00677",32.29603,-81.23539,"[{'year': '2021', 'url': '/../docproveedores/Resultado-Rincón-Christian-Academy-2021.pdf'}, {'year': '2022', 'url': '/../docproveedores/Resultado-Rincón-Christian-Academy-2022.pdf'}, {'year': '2023', 'url': '/../docproveedores/Rincon-Christian-Academy.pdf'}, {'year': '2024', 'url': '/../docproveedores/03-2024 Rincon Christian Academy.pdf'}]"
Techno Inventors Inc,787-233-5736 / 787-628-2766,"Calle Alhambra #55 San Juan, PR 00917",18.4235439,-66.0549423,"[{'year': '2023', 'url': '/../docproveedores/Techno-Inventors-Inc.pdf'}]"
El Pequeño Principe,939-777-9986,"Urb Jardines De Carolina Ave Rosendo Vela Acosta A-5 Carolina, PR 00987",18.377267,-65.973547,"[{'year': '2021', 'url': '/../docproveedores/El-Pequeno-Principe-2021.pdf'}, {'year': '2022', 'url': '/../docproveedores/El-Pequeno-Principe-2022.pdf'}, {'year': '2023', 'url': '/../docproveedores/El-Pequeno-Principe-2023.pdf'}, {'year': '2024', 'url': '/../docproveedores/2024-EL PEQUEÑO PRINCIPE.pdf'}]"
CCD Divino Niño Day Care,787-635-7616,"116 Calle Ismael Rivera San Juan, PR 00911",14.6,121.0333,"[{'year': '2021', 'url': '/../docproveedores/Resultado-Divino-Niño-Day-Care-2021.pdf'}, {'year': '2022', 'url': '/../docproveedores/Divino-Nino-Day-Care-2022.pdf'}, {'year': '2023', 'url': '/../docproveedores/Divino-Nino-2023.pdf'}, {'year': '2024', 'url': '/../docproveedores/2024-Divino Niño.pdf'}]"
Anyela Obando Caicedo,,"Guayanilla, PR 00656",18.0177118,-66.7899651,"[{'year': '2021', 'url': '/../docproveedores/Anyela-Obando-Caicedo-2021.pdf'}, {'year': '2022', 'url': '/../docproveedores/Anyela-Obando-Caicedo-2022.pdf'}, {'year': '2023', 'url': '/../docproveedores/Anyela-Obando-Caicedo-2023.pdf'}]"
Bright Beginnings,787-505-9007,"Urb. El Paraiso #5 Calle Ganges San Juan, PR 00926",14.6,121.0333,"[{'year': '2021', 'url': '/../docproveedores/Resultado-Bright-Beginnings-2021.pdf'}, {'year': '2022', 'url': '/../docproveedores/Bright-Beginnings-2022.pdf'}, {'year': '2023', 'url': '/../docproveedores/Bright-Beginnings-2023.pdf'}]"
Caritas Felices,787-649-8717 / 939-384-4142,"Urb Mariani 3008 Calle Roosevelt, Ponce, PR 00717",18.44389,-66.077695,"[{'year': '2021', 'url': '/../docproveedores/Caritas-Felices-2021.pdf'}, {'year': '2022', 'url': '/../docproveedores/Caritas-Felices-2022.pdf'}, {'year': '2023', 'url': '/../docproveedores/Caritas-Felices-2023.pdf'}]"
Flamboyan Mun. Carolina,787-276-7260,"Carr 860 Km 1.1 BO Martín González Carolina, PR 00983",18.371559,-65.980879,"[{'year': '2022', 'url': '/../docproveedores/Resultado-Flamboyan-Mun-de-Carolina-2022.pdf'}, {'year': '2023', 'url': '/../docproveedores/Flamboyan-2023.pdf'}, {'year': '2024', 'url': '/../docproveedores/2024 Flamboyan Mun. Carolina.pdf'}]"
Child Care Fajardo,787-863-4013,"Urb Veve Calzada Calle 17 Lote 48 Fajardo, PR 00738",18.32579,-65.65238,"[{'year': '2021', 'url': '/../docproveedores/Centro-Child-Care-Fajardo-2021.pdf'}, {'year': '2022', 'url': '/../docproveedores/Resultado-Child-Care-Fajardo-2022.pdf'}, {'year': '2023', 'url': '/../docproveedores/Fajardo-Child-Care-2023.pdf'}]"
Centro De Cuido Ilán Ilán,787-257-1690,"Calle San Francisco Esq Bernardo García Edif Portales Carolina, PR 00986",18.3830589,-65.9584561,"[{'year': '2021', 'url': '/../docproveedores/Centro-de-Cuido-Ilan-Ilan-2021.pdf'}, {'year': '2022', 'url': '/../docproveedores/Centro-de-Cuido-Ilan-Ilan-2022.pdf'}, {'year': '2023', 'url': '/../docproveedores/Ilan-Ilan-2023.pdf'}, {'year': '2024', 'url': '/../docproveedores/2024 Ilan Ilan Mun. Carolina.pdf'}, {'year': '2024', 'url': '/../docproveedores/2024-ILAN_ILAN_CCD_MUN_CAROLINA.pdf'}]"
CCDN Chikitines,787-356-5710 / 787-878-4880,"Carr 492 Km 4.2 BO Hato Tejas Arecibo, PR 00612",18.47245,-66.71573,"[{'year': '2022', 'url': '/../docproveedores/Resultado-Chikitines-2022-Arecibo.pdf'}, {'year': '2023', 'url': '/../docproveedores/Chikitines-2023.pdf'}]"
"Centro Educativo Juego, Exploro y Aprendo",787-395-7918,"Calle Dr. Pio Rechani Final Aguas Buenas, PR 00703",18.2569,-66.10294,"[{'year': '2022', 'url': '/../docproveedores/Juego-Exploro-y-Aprendo-2022.pdf'}, {'year': '2023', 'url': '/../docproveedores/Juego-Exploro-y-Aprendo-2023.pdf'}, {'year': '2024', 'url': '/../docproveedores/2024-CENTRO EDUCATIVO JUEGO EXPLORO Y APRENDO.pdf'}]"
Jardín Infantil 1,787-732-5811,"Calle Del Carmen Final Aguas Buenas, PR 00703",18.2569,-66.10294,"[{'year': '2021', 'url': '/../docproveedores/Centro-Jardin-Infantil-I-2021.pdf'}, {'year': '2022', 'url': '/../docproveedores/Jardin-Infantil-I-2022.pdf'}, {'year': '2023', 'url': '/../docproveedores/Jardin-Infantil-I-2023.pdf'}, {'year': '2024', 'url': '/../docproveedores/2024-CENTRO JARDIN INFANTIL I.pdf'}]"
Jardín Infantil 2,787-732-5810,"Carr #173 Km 7.8 BO Sumidero Aguas Buenas, PR 00703",18.21857,-66.12878,"[{'year': '2021', 'url': '/../docproveedores/Centro-Jardin-Infantil-II-2021.pdf'}, {'year': '2022', 'url': '/../docproveedores/Jardin-Infantil-II-2022.pdf'}, {'year': '2023', 'url': '/../docproveedores/Jardin-Infantil-II-2023.pdf'}]"
Leopoldo Figueroa Cotto,,"Bayamón, PR 00961",0,0,"[{'year': '2021', 'url': '/../docproveedores/Leopoldo-Figueroa-Cotto-2021.pdf'}, {'year': '2023', 'url': '/../docproveedores/Leopoldo-Figueroa-Cotto-2023.pdf'}]"
CCD Aprendizaje My First School,787-530-6790,"Carr 860 Km 1.1 Bo. Martín González Carolina, PR 00978",18.371885,-65.98105,"[{'year': '2021', 'url': '/../docproveedores/CCD-Aprendizaje-My-First-School-2021.pdf'}, {'year': '2022', 'url': '/../docproveedores/My-First-School-2022.pdf'}, {'year': '2023', 'url': '/../docproveedores/Resultado-CCD-Aprendizaje-My-First-School-2023.pdf'}]"
Carmen Rivera Villedas,,"Fajardo, PR 00738",18.3313173,-65.6550257,"[{'year': '2022', 'url': '/../docproveedores/Carmen-Rivera-Villedas-2022.pdf'}, {'year': '2023', 'url': '/../docproveedores/Carmen-Rivera-Villedas-2023.pdf'}]"
Centro De Cuido y Desarrollo Infantil San Patricio,787-775-0088,"Urb Parkside B-20 Calle 2 Guaynabo, PR 00968",18.41576,-66.105852,"[{'year': '2022', 'url': '/../docproveedores/CCD-Infantil-San-Patricio-2022.pdf'}, {'year': '2023', 'url': '/../docproveedores/Centro-de-Cuido-y-Desarrollo-Infantil-San-Patricio-2023.pdf'}, {'year': '2024', 'url': '/../docproveedores/2024-DesarrolloInfantil_San_Patricio_-_San_Juan.pdf'}]"
Centro Querubines,787-558-2014 / 787-845-2981,"Bda. Felicia Calle Elifaz Ostaloza #1 Santa Isabel, PR 00757",17.966613,-66.400542,"[{'year': '2021', 'url': '/../docproveedores/Centro-Querubines-2021.pdf'}, {'year': '2022', 'url': '/../docproveedores/Centro-Querubines-2022.pdf'}, {'year': '2023', 'url': '/../docproveedores/Resultado-Mis-Querubines-Day-Care-and-Learning-Center-Corp-2023.pdf'}]"
Sueño De Amor,787-558-2014,"BO Peñuelas Calle Homero Ortiz #81 Santa Isabel, PR 00757",18.009457,-66.351002,"[{'year': '2021', 'url': '/../docproveedores/Centro-Sueno-de-Amor-2021.pdf'}, {'year': '2022', 'url': '/../docproveedores/Centro-Sueno-de-Amor-2022.pdf'}, {'year': '2023', 'url': '/../docproveedores/Resultado-Sueño-de-Amor-Santa-Isabel-2023.pdf'}]"
Ciudad Del Niño,787-730-1910 / 787-730-0808,"Carr. 840 Km 4.1 Sec. La Aldea Bayamón, PR 00960",18.366772,-66.175604,"[{'year': '2021', 'url': '/../docproveedores/Ciudad-del-Niño-2021.pdf'}, {'year': '2022', 'url': '/../docproveedores/Ciudad-del-Nino-2022.pdf'}, {'year': '2023', 'url': '/../docproveedores/Resultado-CIUDAD-DEL-NIÑO-2023.pdf'}]"
Colegio Sonifel,787-801-6498 / 787-863-3553,"Calle Diego Zalduardo 312 Fajardo, PR 00738",18.317765,-65.66454,"[{'year': '2021', 'url': '/../docproveedores/Colegio-Sonifel-2021.pdf'}, {'year': '2022', 'url': '/../docproveedores/Colegio-Sonifel-2022.pdf'}, {'year': '2023', 'url': '/../docproveedores/Colegio-Sonifel-2023.pdf'}, {'year': '2024', 'url': '/../docproveedores/2024-COLEGIO SONIFEL.pdf'}]"
Cuido Corazoncito,787-731-7838 / 787-453-0430,"BO Caimito Carr 842 Km 4.9 San Juan, PR 00926",18.321249,-66.072272,"[{'year': '2021', 'url': '/../docproveedores/Resultado-Corazoncito-2021.pdf'}, {'year': '2022', 'url': '/../docproveedores/Cuido-Corazoncito-2022.pdf'}, {'year': '2023', 'url': '/../docproveedores/Resultado-Corazoncito-2023.pdf'}, {'year': '2024', 'url': '/../docproveedores/2024-Cuido Corazoncito.pdf'}]"
Escuela Mariposa Montesorri,787-883-1884 / 787-792-6596,"Urb Santa Rita Calle 3 Bloq A Vega Alta, PR 00692",18.411168,-66.323444,"[{'year': '2022', 'url': '/../docproveedores/Esc-Mariposa-Montessori-2022.pdf'}]"
Flamingo Hills Mun. Bayamón,787-779-2157 / 787-730-1910,"Urb Flamingo Hills II Calle 6 Final Bayamón, PR 00957",18.392385,-66.18441,"[{'year': '2021', 'url': '/../docproveedores/Flamingo-Hills-Mun-Bayamon-2021.pdf'}, {'year': '2022', 'url': '/../docproveedores/Flamingo-Hills-Mun-Bay-2022.pdf'}, {'year': '2023', 'url': '/../docproveedores/FLAMINGO-HILLS-2023.pdf'}]"
Fundesco,787-502-8638,"BO Honduras Carr 14 Ramal 7730 Km 1.5 Cidra, PR 00739",18.154921,-66.209885,"[{'year': '2021', 'url': '/../docproveedores/Caritas-FUNDESCO-2021.pdf'}, {'year': '2022', 'url': '/../docproveedores/Fundesco-2022.pdf'}, {'year': '2023', 'url': '/../docproveedores/Caritas-FUNDESCO-2023.pdf'}, {'year': '2024', 'url': '/../docproveedores/2024-FUNDESCO.pdf'}]"
CCDN Little Einstein,787-454-4489 / 787-554-8604,"Ave Diego 456 Esq Andres García Arecibo, PR 00612",18.4507,-66.6983,"[{'year': '2022', 'url': '/../docproveedores/Little-Einstein-2022.pdf'}, {'year': '2023', 'url': '/../docproveedores/Resultado-Little-Einstein-Arecibo-2023.pdf'}]"
Mundo Mágico,787-552-8180 / 787-205-7782,"Carr 153 Km 9.6 Local 1 Santa Isabel, PR 00757",17.9912,-66.3955,"[{'year': '2021', 'url': '/../docproveedores/REPORTE-Mundo-Magico.pdf'}, {'year': '2022', 'url': '/../docproveedores/Mundo-Magico-2022.pdf'}, {'year': '2023', 'url': '/../docproveedores/Mundo-Magico-2023.pdf'}]"
Nilsa Sánchez Meléndez,,"Rio Grande, PR 00745",0,0,"[{'year': '2021', 'url': '/../docproveedores/Resultado-Ronda de Niños-2021.pdf'}, {'year': '2022', 'url': '/../docproveedores/Nilsa-Sanchez-Melendez-2022.pdf'}]"
Ronda De Niños,787-862-4116,"Carr 155 Km 47.9 Ave Buena Vista Morovis, PR 00687",18.32578,-66.40656,"[{'year': '2023', 'url': '/../docproveedores/Ronda-de-Ninos-2023.pdf'}, {'year': '2024', 'url': '/../docproveedores/2024 Ronda de Niños - Morovis.pdf'}]"
Sonia Beyley Rosario,,"Luquillo, PR 00773",18.3388,-65.7172171,"[{'year': '2022', 'url': '/../docproveedores/Sonia-Beyley-Rosario-2022.pdf'}, {'year': '2023', 'url': '/../docproveedores/Sonia-Beyley-Rosario-2023.pdf'}]"
Wise People School Day Care,787-457-0764,"Urb Hermanas Davila Ave Betancces #199 Bayamon, PR 00959",18.3871,-66.159,"[{'year': '2022', 'url': '/../docproveedores/Wise-People-School-2022.pdf'}, {'year': '2023', 'url': '/../docproveedores/WISE-PEOPLE-SCHOOL-2023.pdf'}]"
Giselle Morales Rodriguez,,"Gurabo, PR 00778",18.2591,-65.9746,"[{'year': '2022', 'url': '/../docproveedores/Giselle-Morales-Rodriguez-2022.pdf'}, {'year': '2023', 'url': '/../docproveedores/Gisel-Morales-Rodriguez-2023.pdf'}, {'year': '2024', 'url': '/../docproveedores/2024-Giselle Morales-H.L..pdf'}]"
"Maternelle, INC",787-777-1107,"Cond Atrium Plaza Local 2 San Juan, PR 00926",18.4191,-66.0623,"[{'year': '2021', 'url': '/../docproveedores/Maternelle-Inc-2021.pdf'}, {'year': '2023', 'url': '/../docproveedores/Maternelle-2023.pdf'}, {'year': '2024', 'url': '/../docproveedores/5-2024- MATERNELLE.pdf'}, {'year': '2024', 'url': '/../docproveedores/2024-Maternelle.pdf'}]"
Stephanie Nicol Guzmán Dávila,,"Bayamón, PR 00961",0,0,"[{'year': '2023', 'url': '/../docproveedores/Stephanie-N-Guzman-Davila-2023.pdf'}]"
Col Puertorriqueño Marinel Inc,787-795-7130,"Calle Jose Schwarthzkoff HG-64, 65 y 66, Levitown Toa Baja, PR 00949",18.4508307,-66.1809679,"[{'year': '2021', 'url': '/../docproveedores/Resultado-Col-Puertorriqueno-Marinel-Inc-2021.pdf'}, {'year': '2023', 'url': '/../docproveedores/Colegio-Puertorriqueno-Marinel-2023.pdf'}, {'year': '2024', 'url': '/../docproveedores/2024 Colegio Puertorriqueño Marinel.pdf'}]"
Angelitos Brillantes I,787-736-0695,"Calle Luis Muños Rivera #164 San Lorenzo, PR 00754",18.1876,-65.9624,"[{'year': '2021', 'url': '/../docproveedores/Resultado-Mis-Angelitos-Brillantes-I-2021.pdf'}, {'year': '2022', 'url': '/../docproveedores/REPORTE-MIS-ANGELITOS-BRILLANTES-I.pdf'}, {'year': '2023', 'url': '/../docproveedores/Angelitos-Brillantes-I-2023.pdf'}, {'year': '2024', 'url': '/../docproveedores/2024-Angelitos Brillantes I-San Lorenzo.pdf'}]"
Angelitos Brillantes II,787-943-3291,"BO Espino Carr 181 Ramal 745 San Lorenzo, PR 00754",18.4319,-66.1997,"[{'year': '2021', 'url': '/../docproveedores/Resultado-Mis-Angelitos-Brillantes-II-2021.pdf'}, {'year': '2022', 'url': '/../docproveedores/REPORTE-MIS-ANGELITOS-BRILLANTES-II.pdf'}, {'year': '2023', 'url': '/../docproveedores/Angelitos-Brillantes-II-2023.pdf'}, {'year': '2024', 'url': '/../docproveedores/2024-ANGELITOS BRILLANTES  II San Lorenzo.pdf'}]"
Ana A Galarza Cordero,,"Moca, PR 00676",18.0352547,-66.8487055,"[{'year': '2021', 'url': '/../docproveedores/Resultado-Ana-A-Galarza-Cordero-2021.pdf'}, {'year': '2022', 'url': '/../docproveedores/Ana-A-Galarza-Cordero-2022.pdf'}, {'year': '2023', 'url': '/../docproveedores/Ana-A-Galarza-Cordero-2023.pdf'}]"
Lil Explorer Academia La Milagrosa,787-738-4545,"Carr 171 Km 7.4 BO Rincón Cayey, PR 00736",18.11191,-66.166,"[{'year': '2021', 'url': '/../docproveedores/Resultado-Lil-Explorer-Academia-La-Milagrosa-2021.pdf'}, {'year': '2022', 'url': '/../docproveedores/Resultado-Lil-Explorer-Academia-La-Milagrosa-2022.pdf'}, {'year': '2023', 'url': '/../docproveedores/Lil-Explorer-2023.pdf'}]"
Montessori House LLC,787-294-6471 / 787-905-0730,"Urb. El Paraiso Calle Parana #1611 San Juan, PR 00926",18.3694,-66.0628,"[{'year': '2022', 'url': '/../docproveedores/Resultado-Montessori-House-LLC-2022.pdf'}, {'year': '2023', 'url': '/../docproveedores/Montessori-House-LLC-2023.pdf'}]"
CCD Mi Pequeño Corazón,787-261-6473 / 787-616-9249,"Urb. Levittown HN-39 Ave Gregorio Ledesma, Toa Baja, PR 00949",18.4319,-66.1997,"[{'year': '2023', 'url': '/../docproveedores/Mi-Pequeno-Corazon-2023.pdf'}]"
CCD Mi Paraíso Infantil,787-784-0769,"Levittown, 7ma Sección, HF-8 Calle Antonio Paoli Toa Baja, PR 00949",18.4319,-66.1997,"[{'year': '2021', 'url': '/../docproveedores/REPORTE-CCD-Mi-Paraiso-Infantil.pdf'}, {'year': '2023', 'url': '/../docproveedores/Resultado-Paraiso-Infantil-2023-Aguadilla.pdf'}]"
Mi Sueño,787-898-3601,"Carr. 119 Bo. Puente Sector Zanjas Camuy, PR 00627",18.4779,-66.8548,"[{'year': '2021', 'url': '/../docproveedores/REPORTE-Mi-Sueno.pdf'}, {'year': '2023', 'url': '/../docproveedores/Resultado-Mi Sueño-Camuy 2023.pdf'}]"
Esquilin Mangual,787-743-7336,"Urb. Bairoa BZ-4 Calle 1 Caguas, PR 00725",18.213,-66.058,"[{'year': '2021', 'url': '/../docproveedores/REPORTE-Esquilin-Mangual.pdf'}, {'year': '2023', 'url': '/../docproveedores/Resultado-Mi-Sueño-Camuy-2023.pdf'}, {'year': '2024', 'url': '/../docproveedores/2024-ESQUILIN MANGUAL 2024.pdf'}]"
Leslie V. Cruz Pacheco,,"Santa Isabel, PR 00757",0,0,"[{'year': '2021', 'url': '/../docproveedores/REPORTE-Leslie-V.-Cruz-Pacheco.pdf'}, {'year': '2022', 'url': '/../docproveedores/Resultado-Leslie-V-Cruz-Pacheco-2022.pdf'}, {'year': '2023', 'url': '/../docproveedores/Informe-de-Resultados-de-Hallazgos-Leslie-V.-Cruz-2023-1.pdf'}]"
Ruaj’s Day Care &amp; Preschool,787-529-7843,"Bo. Ortiz Plaza Los Palacios Local E6 Toa Alta, PR 00953",0,0,"[{'year': '2021', 'url': '/../docproveedores/REPORTE-Ruajs-Day-Care-and-Pre-School.pdf'}, {'year': '2024', 'url': ""/../docproveedores/2024-ruaj's-day-care.pdf""}]"
Mi pequeño Angelito,787-292-1842,"Ciudad Universitaria U-27 Carr 846 Trujillo Alto, PR 00976",18.3542408,-66.007377,"[{'year': '2021', 'url': '/../docproveedores/REPORTE-Mi-Pequeno-Angelito.pdf'}, {'year': '2023', 'url': '/../docproveedores/CCD-MI-PEQUENO-ANGELITO-2023.pdf'}]"
CDI Emmanuel -Roosevelt,787-763-7704,Urb. Roosevelt #370 Calle Rafael Lamar Hato Rey,18.3852,-66.072,"[{'year': '2021', 'url': '/../docproveedores/REPORTE-Centro-Desarrollo-Inf.-Emmanuel.pdf'}, {'year': '2024', 'url': '/../docproveedores/2024-Centro Desarrollo Inf Emmanuel.pdf'}, {'year': '2024', 'url': '/../docproveedores/2024-cdi-emmanuel-roosvelt.pdf'}]"
Colegio Mi Segundo Hogar,787-754-7682,"Urb. El Vedado 404 Ave. Hostos San Juan, Puerto Rico 00918",18.46633,-66.10572,"[{'year': '2021', 'url': '/../docproveedores/REPORTE-Colegio-Mi-Segundo-Hogar.pdf'}, {'year': '2023', 'url': '/../docproveedores/Resultado-Colegio-Mi-Segundo-Hogar-2023.pdf'}]"
Mi nueva casita inc,787-793-4112 / 787-642-7880,"Urb. Altamesa 1427 Calle San Ignacio San Juan, PR 00921",18.3904,-66.0661,"[{'year': '2021', 'url': '/../docproveedores/REPORTE-Mi-Nueva-Casita.pdf'}, {'year': '2022', 'url': '/../docproveedores/MI-NUEVA-CASITA-INC-2022.pdf'}, {'year': '2024', 'url': '/../docproveedores/2024-Mi_Nueva_Casita.pdf'}]"
Little Hands Day Care,787-415-2574 / 939-625-4505,"Urb. El Vedado #514 Ave. Hostos Hato Rey, San Juan, PR 00917",18.4191,-66.0623,"[{'year': '2021', 'url': '/../docproveedores/REPORTE-Little-Hands-Day-Care.pdf'}, {'year': '2024', 'url': '/../docproveedores/2024-Little Hands Day Care.pdf'}]"
Nathalia Méndez Sosa,,"Carolina, PR 00985",18.3808516,-65.9570244,"[{'year': '2021', 'url': '/../docproveedores/REPORTE-Nathalia-Mendez-Sosa.pdf'}]"
Lourdes Ortiz Roldan,,"Cidra, PR 00739",18.176424,-66.158947,"[{'year': '2021', 'url': '/../docproveedores/REPORTE-Lourdes-Ortiz-Roldan.pdf'}, {'year': '2023', 'url': '/../docproveedores/Resultado-Lourdes-Ortiz-Roldan-2023.pdf'}]"
Puerto Rico Steam Learning Center,787-503-8791,"Urb. San Gerardo Calle Atlanta Carr. 176 Km 1.2 San Juan, PR 00926",18.3694,-66.0628,"[{'year': '2021', 'url': '/../docproveedores/REPORTE-Puerto-Rico-Steam-Learning-Center.pdf'}, {'year': '2024', 'url': '/../docproveedores/2024-PR Steam Learning.pdf'}]"
Watch Me Grow,787-720-4940,"Ave. Bucaré 2052 Calle Turquesa, Guaynabo, PR 00969",18.379898,-66.056491,"[{'year': '2021', 'url': '/../docproveedores/REPORTE-Watch-Me-Grow.pdf'}, {'year': '2022', 'url': '/../docproveedores/Resultado-Watch-Me-Grow-2022.pdf'}, {'year': '2023', 'url': '/../docproveedores/Watch-Me-Grow-2023.pdf'}, {'year': '2024', 'url': '/../docproveedores/2024-watch-me-grow.pdf'}]"
Trópico,787-780-3463,"Urb. Los Almendros EA- 22 Calle Tilo, Bayamon, PR 00961",18.419368,66.160223,"[{'year': '2021', 'url': '/../docproveedores/REPORTE-Tropico.pdf'}, {'year': '2023', 'url': '/../docproveedores/Resultado- Tropico 2023.pdf'}]"
Evelyn Ortiz Concepción,,"Arecibo, PR 00612",18.470294,-66.72916,"[{'year': '2021', 'url': '/../docproveedores/REPORTE-Evelyn-E.-Ortiz-Concepcion.pdf'}, {'year': '2022', 'url': '/../docproveedores/REPORTE-Evelyn-Ortiz-Concepcion.pdf'}]"
Pasemisin Kids,787-201-3033,"Urb. Santa Juanita WR-1 Bayamon, PR 00956",18.357979,-66.164136,"[{'year': '2021', 'url': '/../docproveedores/REPORTE-Pasemisin-Kids.pdf'}, {'year': '2023', 'url': '/../docproveedores/Pasemisin-Kids-2023.pdf'}]"
Mommy s Day Care,787-251-5928,"Haciendas Del Norte Ave. Don Pelayo BB-21 Toa Baja, PR 00949",18.403132,-66.201368,"[{'year': '2021', 'url': '/../docproveedores/REPORTE-Mommys-Day-Care.pdf'}, {'year': '2022', 'url': '/../docproveedores/Resultado- Mommys Day Care 2022.pdf'}, {'year': '2023', 'url': '/../docproveedores/Resultado-Mommy s Day Care 2023.pdf'}, {'year': '2024', 'url': '/../docproveedores/2024-mommys-day-care.pdf'}]"
Shalom School,787-768-9047,"Villa Carolina Bloq. 174 Casa 9 Calle 435 Carolina, PR 00983",18.408723,-65.956127,"[{'year': '2021', 'url': '/../docproveedores/REPORTE-Shalom-School.pdf'}, {'year': '2023', 'url': '/../docproveedores/Resultado-Shalom School 2023.pdf'}]"
Estación Infantil,787-602-3845,"Ave. Ana G. Méndez Carr. 176 Km. 1.1 San Juan, PR 00926",18.383126,-66.057211,"[{'year': '2021', 'url': '/../docproveedores/REPORTE-Estacion-Infantil.pdf'}, {'year': '2022', 'url': '/../docproveedores/Resultado- Estacion Infantil 2022.pdf'}, {'year': '2023', 'url': '/../docproveedores/RESULTADOS-MONITORIA-DE-SALUD-Y-SEGURIDAD-ESTACION-INFANTIL-MAYO-DE-2023-1.pdf'}]"
Walking Kids Home Center,787-598-4341,"Urb. Pérez Morris 56 Calle Mayaguez Hato Rey, San Juan, PR 00917",18.412509,-66.049171,"[{'year': '2021', 'url': '/../docproveedores/REPORTE-Walking-Kids-Home-Center.pdf'}]"
Iazaira Otero Feliciano,939-456-3945,"Arecibo, PR 00612",18.449858,-66.753,"[{'year': '2021', 'url': '/../docproveedores/REPORTE-Desarrollo-del-Nino-Amanecer.pdf'}]"
CCD Pequeñas Manitas I,787-413-5762,"Urb. Los Maestro 485 Calle Luis Muñoz Souffornt San Juan, PR 00923",18.404634,-66.033272,"[{'year': '2021', 'url': '/../docproveedores/REPORTE-CCD-Pequenas-Manitas-I.pdf'}, {'year': '2022', 'url': '/../docproveedores/Resultado-  Pequeñas Manitas I 2022.pdf'}, {'year': '2023', 'url': '/../docproveedores/CCD PEQUEÑAS MANITAS 2023.pdf'}]"
Choo Choo Train Day Care,787-526-3074 / 787-261-6666,"Urb. Levittown 2da Sección 2670 Ave. Boulevard Toa Baja, PR 00949",18.445603,-66.172068,"[{'year': '2021', 'url': '/../docproveedores/REPORTE-Choo-Choo-Train-Day-Care-_-More-Inc.pdf'}, {'year': '2022', 'url': '/../docproveedores/Resultado-Choo Choo Train Day Care 2022.pdf'}, {'year': '2023', 'url': '/../docproveedores/Resultado- Choo Choo Train Day Care 2023.pdf'}]"
Kids Castle Inc.,787-246-4738,"Carr. 111 Km 3.5 Edif. Vale Colón, Moca, PR 00676",18.472125,-66.268938,"[{'year': '2021', 'url': '/../docproveedores/REPORTE-Kids-Castle-Inc.pdf'}, {'year': '2023', 'url': '/../docproveedores/Resultado-Kids Castle Inc. 2023.pdf'}, {'year': '2024', 'url': '/../docproveedores/2024-kids-castle-inc.pdf'}]"
Crayolas Centro de Aprendizaje y Servicios Psicológicos Inc,787-789-0160,"Sec. Los Báez Calle Principal # 6 Guaynabo, PR 00969",18.361327,-66.099285,"[{'year': '2021', 'url': '/../docproveedores/REPORTE-Crayolas-Centro-de-Aprendizaje-y-Servicios-Psicologicos-Inc.pdf'}, {'year': '2023', 'url': '/../docproveedores/Resultado-  Crayolas 2023.pdf'}, {'year': '2024', 'url': '/../docproveedores/2024-Crayola Centro de Aprendizaje.pdf'}]"
CCD Healthy Kids World,787-730-1727,"Urb. Flamingo Terrace Calle Marginal B-6 Bayamón, PR 00957",18.371761,-66.179905,"[{'year': '2021', 'url': '/../docproveedores/REPORTE-CCD-Healthy-Kids-World.pdf'}, {'year': '2022', 'url': '/../docproveedores/Resultado-CCD Healthy Kids World 2022.pdf'}, {'year': '2023', 'url': '/../docproveedores/Resultado-  Healthy Kids World 2023.pdf'}]"
CCD Kid s Planet,787-701-3013,"Urb. Montecarlo 1267 Sabana Llana, San Juan, PR 00924",0,0,"[{'year': '2021', 'url': '/../docproveedores/REPORTE-CCD-Kids-Planets.pdf'}, {'year': '2022', 'url': '/../docproveedores/KID PLANET 2022.pdf'}, {'year': '2024', 'url': '/../docproveedores/5-2024 Kids Planet.pdf'}, {'year': '2024', 'url': '/../docproveedores/2024-Kids_Planets.pdf'}]"
CCDN Chiquillos,787-736-0015,"Urb. Los Tamarindos B-9 Calle 2 San Lorenzo, PR 00754",18.186772,-65.960878,"[{'year': '2021', 'url': '/../docproveedores/REPORTE-CCDN-Chiquillos.pdf'}, {'year': '2024', 'url': '/../docproveedores/2024-CCDN Chuiquillos.pdf'}]"
Centro de Desarrollo Infantil AEIOU,787-782-7408,"Urb. Villa Caparra, 204 Carretera 2 Guaynabo, PR 00966",18.404647,-66.114301,"[{'year': '2021', 'url': '/../docproveedores/REPORTE-Centro-de-Desarrollo-Infantil-AEIOU.pdf'}, {'year': '2023', 'url': '/../docproveedores/Resultado- Desarrollo AEIOU 2023.pdf'}, {'year': '2024', 'url': '/../docproveedores/2024-CENTRO DE DESARROLLO INFANTIL AEIOU.pdf'}]"
Nissis Day Care,939-278-5848,"Joaquin Vega # 51 Sec. Cerritos Las Piedras, PR 00771",18.183752,-65.865945,"[{'year': '2021', 'url': '/../docproveedores/REPORTE-Nissis-Day-Care.pdf'}, {'year': '2022', 'url': '/../docproveedores/Resultado-  Nissis Day Care 2022.pdf'}, {'year': '2023', 'url': '/../docproveedores/Resultado-  Nissis Day Care 2023.pdf'}]"
Chimikuines Day Care & Learning Center,787-675-9200,"Urb. Royal Town A-32 Calle 13 Bayamon, PR 00956",18.365312,-66.172831,"[{'year': '2021', 'url': '/../docproveedores/REPORTE-Chimikuines-Day-Care-_-Learning-Center.pdf'}, {'year': '2023', 'url': '/../docproveedores/CHIMIKUINES 2023.pdf'}]"
My Little Adventure Day Care,787-438-1554,"Villa Carolina Ave. Dr Sanchez Castano Bloq 122 Casa 30 Carolina, PR 00985",18.391414,-65.962735,"[{'year': '2021', 'url': '/../docproveedores/REPORTE-My-Little-Adventure-Day-Care.pdf'}, {'year': '2022', 'url': '/../docproveedores/Resultado-My Little Adventure Day Care 2022.pdf'}, {'year': '2023', 'url': '/../docproveedores/Resultado- My Little Adventure 2023.pdf'}, {'year': '2024', 'url': '/../docproveedores/2024-MY LITTLE ADVENTURE DAY CARE CAROLINA.pdf'}]"
CCD Educactivo ABC,787-407-5527,"Urb. Baldrich 260 Calle Coll y Toste San Juan, PR 00918",18.409975,-66.061028,"[{'year': '2021', 'url': '/../docproveedores/REPORTE-CCD-Educativo-ABC.pdf'}, {'year': '2023', 'url': '/../docproveedores/CCD  EDUCATIVO ABC 2023.pdf'}, {'year': '2024', 'url': '/../docproveedores/2024-Educativo_ABC.pdf'}]"
Hogar de Cuido Carmen,,"San Juan, PR 00911",0,0,"[{'year': '2021', 'url': '/../docproveedores/REPORTE-Hogar-de-cuido-Carmen.pdf'}, {'year': '2022', 'url': '/../docproveedores/Resultado - Hogar de Cuido Carmen 2022.pdf'}]"
Luz I Morales Alers,,"Aguada, PR 00602",18.381337,-67.183058,"[{'year': '2021', 'url': '/../docproveedores/REPORTE-HCD-Luz-I.-Morales-Alers.pdf'}, {'year': '2022', 'url': '/../docproveedores/Resultado-Luz I. Morales Alers 2022.pdf'}, {'year': '2023', 'url': '/../docproveedores/Resultado-Luz I. Morales Alers 2023.pdf'}]"
A la Limón Day Care,787-884-2256 / 787-635-5670,"Reparto Marista #3 Manatí, PR 00674",18.441126,-66.455649,"[{'year': '2021', 'url': '/../docproveedores/REPORTE-A-la-Limon-Day-Care.pdf'}, {'year': '2022', 'url': '/../docproveedores/Resultado - A La limón Day Care 2022.pdf'}, {'year': '2023', 'url': '/../docproveedores/Resultado - A LA Limón Day Care 2023.pdf'}]"
Guardería Infantil Chiquitos,787-218-3981 / 787-592-7335,"Urb. Villa Seral F-18 Lares, PR 00669",18.298573,-66.882312,"[{'year': '2021', 'url': '/../docproveedores/REPORTE-Guarderia-Infantil-Chiquitos.pdf'}, {'year': '2022', 'url': '/../docproveedores/Resultado-Guarderia Infantil Chiquitos 2022.pdf'}, {'year': '2023', 'url': '/../docproveedores/Resultado-Guarderia Infantil Chiquitos 2023.pdf'}, {'year': '2024', 'url': '/../docproveedores/5-2024 Guarderia Infantil Chiquitos.pdf'}]"
CCDN Mi Pequeño Mundo Infantil,787-607-7663,"Carr. 493 Km 1.0 Bo. Carrizales Hatillo, PR 00659",18.47779,-66.7744,"[{'year': '2021', 'url': '/../docproveedores/REPORTE-Mi-Pequeno-Mundo-Infantil.pdf'}, {'year': '2022', 'url': '/../docproveedores/Resultado- Mi Pequeño Mundo Infantil 2022 (Hatillo).pdf'}, {'year': '2023', 'url': '/../docproveedores/Resultado- Mi Pequeño Mundo Infantil 2023 (Hatillo).pdf'}, {'year': '2024', 'url': '/../docproveedores/4-2024 Mi Pequeño Mundo Infantil.pdf'}]"
CCD Nanas Learning Center 1,787-769-4206,"Urb. Country Club PB-32 Calle 220 Carolina, PR 00982",18.41004,-65.991549,"[{'year': '2021', 'url': '/../docproveedores/REPORTE-CCD-Nanas-Learning-Center.pdf'}, {'year': '2022', 'url': '/../docproveedores/Resultado - Nanas Learning Center 2022.pdf'}, {'year': '2023', 'url': '/../docproveedores/Resultado - Nanas Learning Center 2023.pdf'}, {'year': '2024', 'url': '/../docproveedores/2024-nanas-learning-i.pdf'}]"
Potokytos Cuido Infantil,787-615-6566,"Urb. Flamboyán Calle B-17 Manatí, PR 00674",18.43205,-66.480384,"[{'year': '2021', 'url': '/../docproveedores/REPORTE-Potokytos-Cuido-Infantil.pdf'}, {'year': '2022', 'url': '/../docproveedores/Resultado- POTOKYTOS 2022.pdf'}, {'year': '2023', 'url': '/../docproveedores/Resultado- Potokytos 2023.pdf'}]"
ccd abc infantil inc,787-932-2418 / 787-868-7758,"Urb. Alturas de Aguada D-24 Calle 4 Aguada, PR 00602",18.380205,-67.194975,"[{'year': '2021', 'url': '/../docproveedores/REPORTE-ABC-Infantil-Inc.pdf'}, {'year': '2022', 'url': '/../docproveedores/Resultado-CCD ABC Infantil Inc 2022.pdf'}]"
CCD Pre-Escolar Montesori,787-342-1882 / 787-730-5685,"Sec. La Aldea, Carr. 840 K 0.8 Bayamón, PR 00956",18.371442,-66.175454,"[{'year': '2021', 'url': '/../docproveedores/REPORTE-CCD-Pre-Escolar-Montessori.pdf'}, {'year': '2023', 'url': '/../docproveedores/Resultado-  Pre-escolar Montesori 2023.pdf'}]"
Blooming Happy Hearts,787-662-0038,"Urb. El Paraiso 132 Calle Ganges San Juan, PR 00926",18.382241,-66.063704,"[{'year': '2021', 'url': '/../docproveedores/REPORTE-Blooming-Happy-Hearts.pdf'}, {'year': '2023', 'url': '/../docproveedores/Resultado- Blooming Happy Hearts 2023.pdf'}, {'year': '2024', 'url': '/../docproveedores/2024-Blooming Happy Hearts.pdf'}]"
Centro Montessori Vipamar,787-461-8885,"Ave. Boulevard EE-17 Levittown Toa Baja, PR 00949",18.445416,-66.169,"[{'year': '2021', 'url': '/../docproveedores/REPORTE-Centro-Montessori-Vipamar.pdf'}]"
Caritas Alegres Learning Care,787-455-0727 / 787-244-1000,"Urb. Toa Alta Heights, E-51 Calle 12 Toa Alta, PR 00953",18.363924,-66.210878,"[{'year': '2021', 'url': '/../docproveedores/REPORTE-Caritas-Alegres-Learning-Care.pdf'}, {'year': '2023', 'url': '/../docproveedores/Resultado - Caritas Alegres 2023.pdf'}]"
CCD Alelí,787-547-4595,"Urb. Santa Juanita B-21 Calle Visalia Bayamón, PR 00956",18.367617,-66.15388,"[{'year': '2021', 'url': '/../docproveedores/REPORTE-CCD-Aleli.pdf'}, {'year': '2023', 'url': '/../docproveedores/Resultado- Aleli 2023.pdf'}]"
Mun. Lajas BM (Bosquecito Mágico),787-450-4205,"Carr. 101 Km. 10.1 Bo. Palmarejo Lajas, PR 00667",18.029231,-67.088491,"[{'year': '2021', 'url': '/../docproveedores/REPORTE-BOSQUECITO-MAGICO.pdf'}, {'year': '2022', 'url': '/../docproveedores/Resultado- Bosquecito Mágico 2022.pdf'}, {'year': '2023', 'url': '/../docproveedores/Resultado- Bosquecito Mágico 2023.pdf'}]"
Karisma,787-279-6320 / 787-702-6790,"Marginal Magnolia Gardens A-27 Calle 1 Bayamón, PR 00959",18.366568,-66.187338,"[{'year': '2021', 'url': '/../docproveedores/REPORTE-Karisma.pdf'}, {'year': '2023', 'url': '/../docproveedores/Resultado- Karisma 2023.pdf'}]"
Kokopelli Pre & Elementary School,787-785-6178,"Flamboyán Gardens R-5 Calle 18 Bayamón, PR 00959",18.390123,-66.159579,"[{'year': '2021', 'url': '/../docproveedores/REPORTE-Kokopelli-Pre-_-Elementary-School.pdf'}, {'year': '2023', 'url': '/../docproveedores/2023-Kokopelli Pre & Elementary School.pdf'}, {'year': '2024', 'url': '/../docproveedores/2024-kokopelli-pre-elementary-school-bayamon.pdf'}]"
Nuestro Bebé Inc.,787-365-8181,"Urb. Huyke 163 Calle Juan B Huyke San Juan, PR 00918",18.421296,-66.061044,"[{'year': '2021', 'url': '/../docproveedores/REPORTE-Nuestro-Bebe-Inc.pdf'}, {'year': '2022', 'url': '/../docproveedores/Resultado-Nuestro Bebe Inc 2022.pdf'}, {'year': '2024', 'url': '/../docproveedores/2024-nuestro-bebe.pdf'}]"
Centro de Aprendizaje Amor y Pintura,939-246-2496,"Calle Barbosa #12 Norte Cayey, PR 00736",18.114025,-66.167266,"[{'year': '2021', 'url': '/../docproveedores/REPORTE-Amor-y-Pintura.pdf'}, {'year': '2022', 'url': '/../docproveedores/Resultado- Amor y Pintura 2022.pdf'}, {'year': '2023', 'url': '/../docproveedores/Resultado- Amor y Pintura 2023.pdf'}, {'year': '2024', 'url': '/../docproveedores/2024-amor-y-pintura.pdf'}]"
Centro Educativo Pasitos del Saber,787-533-1643,"Bo. Maizales Carr. 31 Km 4.4 Sec. Cecilia Naguabo, PR 00718",18.214678,-65.743234,"[{'year': '2021', 'url': '/../docproveedores/REPORTE-Centro-Educativo-Pasitos-del-Saber.pdf'}, {'year': '2022', 'url': '/../docproveedores/Resultado- Pasitos del Saber 2022.pdf'}, {'year': '2023', 'url': '/../docproveedores/Resultado- Pasitos del Saber 2023.pdf'}, {'year': '2024', 'url': '/../docproveedores/2024-pasitos-del-saber-naguabo-4-de-junio-de-2024-.pdf'}]"
CCDN MPJV Learning Center (Mi Pequeño Jardín Victoria),787-717-8638 / 787-881-4398,"Carr. 493 Km. 1.3 Bo. Carrizales Sec. Las Canelas Hatillo, PR 00659",18.472742,-66.774028,"[{'year': '2021', 'url': '/../docproveedores/REPORTE-Mi-Pequeno-Jardin-Victoria.pdf'}, {'year': '2022', 'url': '/../docproveedores/Resultado- Mi Pequeño Jardín de Victoria 2022.pdf'}, {'year': '2023', 'url': '/../docproveedores/Resultado- Mi Pequeño Jardín de Victoria 2023.pdf'}, {'year': '2024', 'url': '/../docproveedores/5-2024 CCDN MPJV LEARNING CENTER INC.pdf'}]"
Centro Pequeñines,787-717-8638 / 939-777-4886,"Marginal Carr. 2 Km. 85.5 Bo. Carrizales Hatillo, PR 00659",18.481984,-66.789926,"[{'year': '2021', 'url': '/../docproveedores/REPORTE-Centro-pequenines.pdf'}, {'year': '2022', 'url': '/../docproveedores/Resultado- CENTRO PEQUEÑINES 2022.pdf'}, {'year': '2023', 'url': '/../docproveedores/Resultado- CENTRO PEQUEÑINES 2023.pdf'}, {'year': '2024', 'url': '/../docproveedores/5-2024 Pequeñines.pdf'}]"
Escuelita D Fantasía,787-296-1100,"Urb. Pérez Morris Calle Mayaguez #20 San Juan, PR 00917",18.412051,-66.052989,"[{'year': '2021', 'url': '/../docproveedores/REPORTE-Escuelita-D_-Fantasia.pdf'}, {'year': '2022', 'url': ""/../docproveedores/ESCUELITA D' FANTASIA 2022.pdf""}, {'year': '2023', 'url': '/../docproveedores/Resultado-Escuelita D Fantasia 2023.pdf'}, {'year': '2024', 'url': ""/../docproveedores/2024-escuelitad'fantasia.pdf""}, {'year': '2024', 'url': '/../docproveedores/2024-Escuelita_D_Fantasia.pdf'}]"
Mis Querubines Day Care,787-431-0839,"Bo. Navarro #315 Calle 12 Gurabo, PR 00778",18.230147,-65.999554,"[{'year': '2021', 'url': '/../docproveedores/REPORTE-Mis-Querubines-Day-Care-and-Learning-Center-Corp.pdf'}, {'year': '2022', 'url': '/../docproveedores/Resultado- Mis Querubines Day Care 2022.pdf'}]"
Tania Carrasquillo Vega,,"Toa Alta, PR 00953",0,0,"[{'year': '2021', 'url': '/../docproveedores/REPORTE-Tania-Carrasquillo-Vega.pdf'}]"
CCD Pasitos Del Futuro Inc.,787-605-3209,"Urb. Los Almendros B-1 Calle 3 Juncos, PR 00777",18.228545,-65.911422,"[{'year': '2021', 'url': '/../docproveedores/REPORTE-CCD-Pasitos-del-Futuro-Inc.pdf'}, {'year': '2022', 'url': '/../docproveedores/Resultado- Pasitos del Futuro Inc 2022.pdf'}, {'year': '2023', 'url': '/../docproveedores/Resultado- Pasitos del Futuro Inc 2023.pdf'}]"
Centro Jardín Infantil Los Faroles,939-201-7447,"Urb. Mariani 6826 Calle Américo Capo, Ponce, PR 00730",18.007911,-66.614851,"[{'year': '2021', 'url': '/../docproveedores/REPORTE-Emely-Maldonado-Lagares.pdf'}, {'year': '2022', 'url': '/../docproveedores/Resultado- Jardin Infantil Los Faroles 2022.pdf'}, {'year': '2023', 'url': '/../docproveedores/Informe-de-Resultados-de-Hallazgos-Los-Faroles-2023-1.pdf'}]"
Preescolar Son Soles,787-993-5624,"Carr. 176 Km. 4.2 Esq. Pío Baroja San Juan, PR 00926",18.358722,-66.054179,"[{'year': '2021', 'url': '/../docproveedores/REPORTE-Preescolar-Son-Soles.pdf'}]"
CCD Agarraditos de la mano,787-536-8870,"Urb. Jardines de Vega Baja A-1 Calle Marginal Vega Baja, PR 00693",18.444808,-66.409447,"[{'year': '2021', 'url': '/../docproveedores/REPORTE-Agarraditos-de-la-mano.pdf'}]"
Jireh Day Care & Learning Center Inc,787-748-9899,"Carr. 175 Km. 11.6 Bo. Carraízo Trujillo Alto, PR 00976",18.348821, -66.011360,"[{'year': '2021', 'url': '/../docproveedores/REPORTE-Jireh-Day-Care-_-Learning-Center.pdf'}, {'year': '2023', 'url': '/../docproveedores/Resultado - Jireh Day Care 2023.pdf'}]"
CCD Sonrisitas De Amor Inc.,787-385-0327,"Urb. Villas de Buenaventura FF-15 Calle 4 Yabucoa, PR 00767",18.083239,-65.847998,"[{'year': '2021', 'url': '/../docproveedores/REPORTE-CCD-Sonrisitas-de-Amor-Inc.pdf'}, {'year': '2022', 'url': '/../docproveedores/Resultado -Sonrisitas de Amor Inc 2022.pdf'}, {'year': '2023', 'url': '/../docproveedores/Resultado- Sonrisitas de Amor Inc. 2023.pdf'}]"
CCDN Cero y Más,787-225-0733,"Cristóbal Colón #1 Sec. La Granja Caguas, PR 00725",18.229541,-66.038985,"[{'year': '2021', 'url': '/../docproveedores/REPORTE-CCDN-Cero-y-Mas.pdf'}, {'year': '2022', 'url': '/../docproveedores/Resultado-  Cero y Mas 2022.pdf'}, {'year': '2023', 'url': '/../docproveedores/Resultado - Cero y Mas 2023.pdf'}, {'year': '2024', 'url': '/../docproveedores/2024-cero-y-mas.pdf'}]"
Centro de Cuido Sajorí,787-995-0191 / 787-598-8579,"Urb. Royal Palm IL-19 Ave. Nogal Bayamón, PR 00956",18.38062,-66.155442,"[{'year': '2021', 'url': '/../docproveedores/REPORTE-Centro-de-Cuido-Sajori.pdf'}, {'year': '2024', 'url': '/../docproveedores/2024-centro-de-cuido-sajori.pdf'}]"
Abrazo maternal,787-909-1861,"Carr. 787 Km 0.1 Bo. Bayamon Cidra, PR 00739",18.176151,-66.146957,"[{'year': '2021', 'url': '/../docproveedores/REPORTE-CCD-Abrazo-Maternal.pdf'}, {'year': '2022', 'url': '/../docproveedores/Resultado-Abrazo Maternal 2022.pdf'}, {'year': '2023', 'url': '/../docproveedores/Resultado-CCD Abrazo Maternal 2023.pdf'}, {'year': '2024', 'url': '/../docproveedores/2024-ABRAZO MATERNAL CIDRA.pdf'}]"
Johan M Batiz Parrilla,,"Ponce, PR 00730",18.030995,-66.607369,"[{'year': '2021', 'url': '/../docproveedores/REPORTE-Johan-M.-Batiz-Parrilla.pdf'}, {'year': '2022', 'url': '/../docproveedores/Resultado -  Johan Batiz Parilla 2022.pdf'}, {'year': '2023', 'url': '/../docproveedores/Resultado-  Johan Batiz Parrilla 2023.pdf'}]"
Mi Pequeño Tesoro,787-755-3232,"Carr. 876 K 4.2 Bo. Las Cuevas Trujillo Alto, PR 00976",18.369227, -66.012585,"[{'year': '2021', 'url': '/../docproveedores/REPORTE-Mi-Pequeno-Tesoro.pdf'}, {'year': '2022', 'url': '/../docproveedores/Resultado - Mi Pequeno Tesoro 2022.pdf'}, {'year': '2023', 'url': '/../docproveedores/MI PEQUNO TESORO 2023.pdf'}, {'year': '2024', 'url': '/../docproveedores/2024-mi-pequeno-tesoro.pdf'}]"
Topee Topee Day Care,939-241-1440 / 787-276-5499,"Urb. Villa Fontana Vía 1 Bloq. 2 RR #472-473 Carolina, PR 00985",18.406289,-65.977085,"[{'year': '2021', 'url': '/../docproveedores/REPORTE-Topee-Topee-Day-Care.pdf'}, {'year': '2023', 'url': '/../docproveedores/Resultado- Topee Topee 2023.pdf'}]"
Yolanda Serrano Rivera,,"Guayama, PR 00784",0,0,"[{'year': '2021', 'url': '/../docproveedores/REPORTE-Yolanda-Serrano.pdf'}]"
Fransua Emily Jaca Quiles,,"Moca, PR 00676",18.340972,-67.120045,"[{'year': '2021', 'url': '/../docproveedores/REPORTE-Fransua-Emily-Jaca-Quiles.pdf'}]"
Pasitos Kids Care,787-900-2676,"Urb. Villa Carolina D-7 Ave Roberto Clemente Carolina, PR 00983",18.383232,-65.964281,"[{'year': '2021', 'url': '/../docproveedores/REPORTE-CCD-Pasitos-Kids-Care.pdf'}, {'year': '2022', 'url': '/../docproveedores/Resultado- Pasitos Kids Care Inc 2022.pdf'}, {'year': '2023', 'url': '/../docproveedores/Resultado- Pasitos Kids Care Inc 2023.pdf'}, {'year': '2024', 'url': '/../docproveedores/2024-pasitos-kids-care.pdf'}]"
Roses Day Care,939-218-3725,"1050 Ave. Las Palmas Cond. Puerta de la Bahía Local Comercial #1 San Juan, PR 00907",18.447052,-66.078962,"[{'year': '2021', 'url': '/../docproveedores/REPORTE-Roses-Day-Care.pdf'}, {'year': '2022', 'url': '/../docproveedores/Resultado- Roses Day Care 2022.pdf'}, {'year': '2023', 'url': '/../docproveedores/Resultado- Roses Day Care 2023.pdf'}, {'year': '2024', 'url': '/../docproveedores/2024-Roses_Day_Care.pdf'}]"
Elsa Rivera Losada,,"Lares, PR 00669",18.259154,-66.879492,"[{'year': '2021', 'url': '/../docproveedores/REPORTE-Elsa-Rivera-Lozada.pdf'}]"
Julie González Robles,,"Canóvanas, PR 00729",18.345799,-65.65906,"[{'year': '2021', 'url': '/../docproveedores/REPORTE-Julie-Ann-Gonzalez-Robles.pdf'}, {'year': '2023', 'url': '/../docproveedores/Resultado- Julie Ann Gonzalez 2023.pdf'}]"
Happy Face,787-914-0420 / 787-850-6020,"Urb. Villa Universitaria BK-7 Calle 12 Humacao, PR 00792",18.161564,-65.83153,"[{'year': '2021', 'url': '/../docproveedores/REPORTE-Happy-Face.pdf'}, {'year': '2022', 'url': '/../docproveedores/Resultado- Happy Face 2022.pdf'}, {'year': '2023', 'url': '/../docproveedores/Resultado-Happy Face 2023.pdf'}, {'year': '2024', 'url': '/../docproveedores/2024-happy-face.pdf'}]"
Norma Figueroa Ayala,,"Las Piedras, PR 00771",18.230566,-65.999121,"[{'year': '2021', 'url': '/../docproveedores/REPORTE-Norma-Figueroa-Ayala.pdf'}]"
CCDN Kids Space,787-687-0353,"Bo. Navarro Carr. 931 Km 5.2 00778 Gurabo, PR 00778",18.23021,-65.997641,"[{'year': '2021', 'url': '/../docproveedores/REPORTE-CCDN-Kids-Space.pdf'}, {'year': '2022', 'url': '/../docproveedores/Resultado- Kids Space 2022.pdf'}]"
Sol Rosa Román,,"Guayanilla, PR 00656",18.019405,-66.791772,"[{'year': '2021', 'url': '/../docproveedores/REPORTE-Sol-R.-Roman-Rosario.pdf'}, {'year': '2022', 'url': '/../docproveedores/Resultado- Sol Rosa Roman 2022.pdf'}]"
Family Christian Day Care I,787-284-7781 / 787-284-7777,"Bo. Cerrillo Hoyos Carr. 14 KM 7, Coto Laurel, PR. 00780",18.057558,-66.55826,"[{'year': '2021', 'url': '/../docproveedores/REPORTE-Family-Christian-Day-Care.pdf'}, {'year': '2022', 'url': '/../docproveedores/Resultado-  Family Christian 2022.pdf'}, {'year': '2023', 'url': '/../docproveedores/Resultado- Family Christian 2023.pdf'}]"
Kids Fun House & Pre School,787-785-7140,Calle 55 bloq 60 #1 y #2 Urb. Sierra Bayamon 00959,18.408915,-66.169838,"[{'year': '2021', 'url': '/../docproveedores/REPORTE-Kids-Fun-House-and-School.pdf'}, {'year': '2023', 'url': '/../docproveedores/Resultado- Kids Fun House & School 2023.pdf'}]"
Xavihanys Paola Castillo Pagán,,Arecibo,18.459456,-66.744215,"[{'year': '2021', 'url': '/../docproveedores/REPORTE-Xavihanys-Paola-Castillo-Pagan.pdf'}]"
Ada Rivera Quiles,,Quebradillas,18.473705,-66.938506,"[{'year': '2021', 'url': '/../docproveedores/REPORTE-Ada-Rivera-Quiles.pdf'}]"
Little Paradise Day Care,787-516-1242,Hacienda El Mayoral Calle Principal #6 Villalba,18.387015,-67.096119,"[{'year': '2021', 'url': '/../docproveedores/REPORTE-Little-Paradise-Day-Care-and-Learning-Center.pdf'}, {'year': '2022', 'url': '/../docproveedores/Resultado- Little Paradise Day Care 2022.pdf'}, {'year': '2023', 'url': '/../docproveedores/Informe-de-Hallazgos-de-Resultados-Little-Paradise-Day-Care-2023-1.pdf'}]"
superhero kids academy,77-450-1380,Parcelas Niagaras carr. 14 Calle 7 coamo,18.083914,-66.350905,"[{'year': '2021', 'url': '/../docproveedores/REPORTE-Superhero-Kids-Academy.pdf'}, {'year': '2022', 'url': '/../docproveedores/Resultado- Superhero Kids 2022.pdf'}]"
Mis Manitas en Acción,787-597-2495,"Carr. 2 km 56.8 Sector Trinidad Barceloneta , Puerto Rico",18.427138,-66.554926,"[{'year': '2021', 'url': '/../docproveedores/REPORTE-Mis-Manitas-en-Accion.pdf'}, {'year': '2022', 'url': '/../docproveedores/Resultado- Mis Manitas en Accion 2022.pdf'}, {'year': '2023', 'url': '/../docproveedores/Resultado- Mis Manitas en Accion 2023.pdf'}, {'year': '2024', 'url': '/../docproveedores/5-2024 Mis Manitas en Accion.pdf'}]"
Leida Valdivieso Costas,,,0,0,"[{'year': '2021', 'url': '/../docproveedores/REPORTE-Leida-Valdivieso-Costas.pdf'}]"
Centro Preescolar Mentes Creativas,787-487-9074,"Urb. Monte Brisa, Calle 8 #5 K7 Fajardo, PR 00738",18.333349,-65.665825,"[{'year': '2021', 'url': '/../docproveedores/REPORTE-Centro-Preescolar-Mentes-Creativas.pdf'}, {'year': '2022', 'url': '/../docproveedores/Resultado-Mentes Creativas 2022.pdf'}, {'year': '2023', 'url': '/../docproveedores/Resultado- Mentes Creativas 2023.pdf'}]"
Beleris González,,Guayanilla,0,0,"[{'year': '2021', 'url': '/../docproveedores/REPORTE-Beleris-Santiago.pdf'}, {'year': '2022', 'url': '/../docproveedores/Resultado- Beleris gonzalez 2022.pdf'}, {'year': '2023', 'url': '/../docproveedores/Resultado-  Beleris Gonzalez 2023.pdf'}]"
Marian I. Cornier Román,787-943-1659,Guayanilla,0,0,"[{'year': '2021', 'url': '/../docproveedores/REPORTE-Marian-I.-Cornier-Roman.pdf'}, {'year': '2023', 'url': '/../docproveedores/Mariam-I-Corniel-Maldonado-2023.pdf'}]"
Olga Torres Rodríguez,787-601-0698,Guayanilla,0,0,"[{'year': '2021', 'url': '/../docproveedores/REPORTE-Olga-Torres-Rodriguez.pdf'}, {'year': '2022', 'url': '/../docproveedores/Resultado- Olga Torres Rodriguez 2022.pdf'}, {'year': '2023', 'url': '/../docproveedores/Olga-Torres-Rodriguez-2023.pdf'}]"
Wanda I. Santiago Rivera,939-262-3830,Guayanilla,0,0,"[{'year': '2021', 'url': '/../docproveedores/REPORTE-Wanda-I.-Santiago-Rivera.pdf'}, {'year': '2022', 'url': '/../docproveedores/Resultado- Wanda I. Santiago 2022.pdf'}, {'year': '2023', 'url': '/../docproveedores/Wanda-I-Santiago-Rivera.pdf'}]"
Sonia López Martínez,787-615-1056,Yabucoa,0,0,"[{'year': '2021', 'url': '/../docproveedores/REPORTE-Sonia-Lopez-Martinez.pdf'}, {'year': '2022', 'url': '/../docproveedores/Resultado-Sonia Lopez 2022.pdf'}, {'year': '2023', 'url': '/../docproveedores/SONIA LOPEZ MARTINEZ 2023.pdf'}]"
Shekinah Day Care and Learning Center,(787)316-8771,Bo Certenjas 11 Carr 172 00739 Cidra,18.177156,-66.157713,"[{'year': '2021', 'url': '/../docproveedores/REPORTE-Shekinah-Day-Care-and-Learning-Center.pdf'}, {'year': '2022', 'url': '/../docproveedores/Resultado - Shekinah Day Care 2022.pdf'}]"
Centro preescolar jardines,787-949-9552,Urb jardines bb #1 c a Humacao,18.155789,-65.819069,"[{'year': '2021', 'url': '/../docproveedores/REPORTE-Centro-Preescolar-Jardines.pdf'}, {'year': '2022', 'url': '/../docproveedores/Resultado- Preescolar Jardines 2022 Humacao.pdf'}, {'year': '2023', 'url': '/../docproveedores/Resultado- Preescolar Jardines 2023 Humacao.pdf'}]"
Colegio San Juan Apostol Y Evangelista,(787)743-8266,Ave Bairoa Esquina C 27 00726 Caguas,18.253554,-66.038251,"[{'year': '2021', 'url': '/../docproveedores/REPORTE-Col.San-Juan-Apostol-y-Evangel.pdf'}, {'year': '2022', 'url': '/../docproveedores/Resultado- Col. San Juan Apostol 2022.pdf'}, {'year': '2023', 'url': '/../docproveedores/Resultado- Col. San Juan Apostol 2023.pdf'}]"
Cynthias Day Care Center,(787)278-8036 o (787)642-8153,Urb. Doradoville #371 calle madrid Dorado,18.438961,-66.282401,"[{'year': '2021', 'url': '/../docproveedores/REPORTE-Cynthias-Day-Care-Center.pdf'}, {'year': '2023', 'url': '/../docproveedores/CYNTHIAS DAY CARE 2023.pdf'}, {'year': '2024', 'url': '/../docproveedores/2024-CYNTHIAS DAY CARE.pdf'}]"
Growing Minds Early Learning Center,787-998-0970,"Urb. Cana RR14 Calle 11 Bayamón, PR 00957",18.351886,-66.188168,"[{'year': '2021', 'url': '/../docproveedores/REPORTE-Growing-Minds-Early-Learning-Center.pdf'}, {'year': '2023', 'url': '/../docproveedores/Resultado- Growing Minds Learning Center sept 2023.pdf'}, {'year': '2024', 'url': '/../docproveedores/2024-GrowingMinds-Bayamon.pdf'}]"
Better Grades,787-908-5565,Carr 693 Interseccion 6690 Plaza del Mar Shopping Center Vega Alta,18.467347,-66.332593,"[{'year': '2021', 'url': '/../docproveedores/REPORTE-Better-Grades.pdf'}]"
Chiquitos Cendi,7877353755,Bo Pasto carr 718 Km 1.0 Aibonito,18.130966,-66.270783,"[{'year': '2021', 'url': '/../docproveedores/REPORTE-Chiquititos-Cendi.pdf'}, {'year': '2023', 'url': '/../docproveedores/Resultado- Chiquitos Cendi Ponce 2023.pdf'}]"
The Piper Lighthouse (Thomas Alba Edison School,787-743-8555 ext. 26,"Alturas de Villas Del Rey, Calle 34 Final Caguas, PR 00725",18.212442,-66.06186,"[{'year': '2021', 'url': '/../docproveedores/REPORTE-The-Piper-Lighthouse.pdf'}]"
CCDN Adonai Day Care,(787)653-9898,Urb Caguas Norte F 16 Calle Oslo 00725 Caguas,18.242207,-66.024232,"[{'year': '2021', 'url': '/../docproveedores/REPORTE-CCDN-Adonai-Day-Care.pdf'}, {'year': '2022', 'url': '/../docproveedores/Resultado-  Adonai Day Care 2022.pdf'}, {'year': '2023', 'url': '/../docproveedores/Resultado- Adonai Day Care 2023.pdf'}]"
Quillet De Los Niños,787-717-7820,Urb Santa Juana Calle 2 K-26 00726 Caguas,18.249213,-66.028747,"[{'year': '2021', 'url': '/../docproveedores/REPORTE-CCD-El-Quillet-de-los-Ninos.pdf'}, {'year': '2022', 'url': '/../docproveedores/Resultado- El Quillet 2022.pdf'}, {'year': '2023', 'url': '/../docproveedores/Resultado- El Quillet 2023.pdf'}]"
Magaly Pérez González,(787)319-2056,Humacao,0,0,"[{'year': '2021', 'url': '/../docproveedores/REPORTE-Magaly-Perez-Gonzalez.pdf'}]"
Pricila Diaz Rodríguez,(787)637-3755,Juncos,0,0,"[{'year': '2021', 'url': '/../docproveedores/REPORTE-Priscilla-Diaz-Rodriguez.pdf'}]"
Yaitza Collazo Monclova,939-250-0398,Humacao,0,0,"[{'year': '2021', 'url': '/../docproveedores/REPORTE-Yaitza-Collazo-Monclova.pdf'}]"
LCS Private School,787-859-2641,"Bo. Cibuco, Carretera 818 Km. 1.6 Corozal, PR 00783",18.346154,-66.332047,"[{'year': '2021', 'url': '/../docproveedores/REPORTE-LCS-Private-School.pdf'}, {'year': '2022', 'url': '/../docproveedores/Resultado- LCS Private School 2022.pdf'}, {'year': '2023', 'url': '/../docproveedores/Resultado- LCS Private School 2023.pdf'}]"
Colegio la casita feliz,787-288-5500 / 787-209-5501,Carr 174 bloque 20 #23 urb santa rosa Bayamon 00959,18.387514,-66.146459,"[{'year': '2021', 'url': '/../docproveedores/REPORTE-Colegio-La-Casita-Feliz.pdf'}, {'year': '2023', 'url': '/../docproveedores/COLEGIO LA CASITA FELIZ 2023.pdf'}]"
Jewells of god,787-319-1888,Calle marginal f 33 urb safra isidro Fajardo P.R 00738,18.338797,-65.642278,"[{'year': '2021', 'url': '/../docproveedores/REPORTE-Jewels-of-God-Preschool-Day.pdf'}, {'year': '2022', 'url': '/../docproveedores/Resultado- Jewells of God 2022.pdf'}]"
Lydimarie Rosado Garcia,(939)279-3428,Humacao,0,0,"[{'year': '2021', 'url': '/../docproveedores/REPORTE-Lydimarie-Rosado-Garcia.pdf'}]"
Paraíso De La Niñez,787-612-7102 / 939-248-5386,"Bo. Achiote Naranjito, Carr. 884 Km 1.0 Naranjito, PR 00719",18.300865,-66.244895,"[{'year': '2021', 'url': '/../docproveedores/REPORTE-Paraiso-De-La-Ninez.pdf'}, {'year': '2022', 'url': '/../docproveedores/Resultado - Paraiso de la Ninez 2022.pdf'}]"
Ccda First Step And Learning,(939)493-6911,Urb. Bairoa Cr-5 Calle 11 B 00725 Caguas,18.255055,-66.040472,"[{'year': '2021', 'url': '/../docproveedores/REPORTE-CCDA-First-Step-And-Learning.pdf'}]"
Helping hands,787-348-2526,Car 1 rowel 796 km 0.3 Caguas P.R 00725,18.274847,-66.037549,"[{'year': '2021', 'url': '/../docproveedores/REPORTE-Helpings-Hands-Montessori-Day-Care-and-Learning-Center-Inc.pdf'}, {'year': '2022', 'url': '/../docproveedores/Resultado- Helping Hands 2022.pdf'}, {'year': '2023', 'url': '/../docproveedores/Resultado- Helping Hands 2023.pdf'}]"
Querubín Ambiente Montessori,787-203-3531,"Urb. Colimar A-13 Calle Baldorioty Guaynabo, Puerto Rico 00969",18.405592,-66.109566,"[{'year': '2021', 'url': '/../docproveedores/REPORTE-Querubin-Ambiente-Montessori.pdf'}, {'year': '2022', 'url': '/../docproveedores/Querubin Ambiente Montessori 2022 08-24-2023-095008.pdf'}, {'year': '2023', 'url': '/../docproveedores/QUERUIBIN AMBIENTE MONTESSORI 2023.pdf'}]"
"Bright Beginning, Day Care",787-478-0766,"Bda. Reparto Esperanza Calle1 #1 Yauco, PR 00698",18.383104,-66.066062,"[{'year': '2021', 'url': '/../docproveedores/REPORTE-Bright-Beginning-Day-Care.pdf'}]"
Centro de Cuido Diurno Integral Estrellitas,787-467-2255,"Calle 51, 2c-30 urb las lomas Carolina 00987",18.370987,-65.942159,"[{'year': '2021', 'url': '/../docproveedores/REPORTE-Centro-de-Cuido-Diurno-Integral-Estrellitas.pdf'}, {'year': '2022', 'url': '/../docproveedores/CENTRO DE CUIDO DIURNO INTEGRAL ESTRELLITAS 2022.pdf'}, {'year': '2023', 'url': '/../docproveedores/Resultado-CENTRO DE CUIDO DIURNO INTEGRAL ESTRELLITAS 2023.pdf'}]"
Paula A. Hernández Rodríguez,,San Sebastián,0,0,"[{'year': '2021', 'url': '/../docproveedores/REPORTE-Paula-A.-Hernandez-Rodriguez.pdf'}, {'year': '2022', 'url': '/../docproveedores/Paula A. Hernandez Rodriguez 2022.pdf'}, {'year': '2023', 'url': '/../docproveedores/Paula A. Hernandez Rodriguez 2023.pdf'}]"
ccd kima kids & SESO,787-832-2343,carr. 108 km 3.2 bo. miradero mayaguez,18.227497,-67.142642,"[{'year': '2021', 'url': '/../docproveedores/REPORTE-Kima-Kids-_-SESO.pdf'}, {'year': '2022', 'url': '/../docproveedores/Resultado- Kima Kids & SESO 2022.pdf'}, {'year': '2024', 'url': '/../docproveedores/Resultado- Kima Kids & SESO 2024.pdf'}]"
CCD World Children School,787-360-3979 / 787-237-2426,"Urb. San Agustín 1155 Calle Máximo Alomar San Juan, Puerto Rico 00923",18.404727,-66.022388,"[{'year': '2021', 'url': '/../docproveedores/REPORTE-WORLD-CHILDREN.pdf'}, {'year': '2022', 'url': '/../docproveedores/Resultado-  World Children School 2022.pdf'}]"
Jardín De La Esperanza,(787)263-3777,Bo Cantera Ave Roberto Diaz #176 Cayey 00736 Cayey,0,0,"[{'year': '2021', 'url': '/../docproveedores/REPORTE-Jardin-De-La-Esperanza.pdf'}, {'year': '2022', 'url': '/../docproveedores/JARDIN DE LA ESPERANZA 2022.pdf'}, {'year': '2023', 'url': '/../docproveedores/JARDIN DE LA ESPERANZA 2023.pdf'}]"
Centro De Desarrollo Siempre Niños,787-869-1026,"66 Calle Georgetti Naranjito, PR 00919",18.300673,-66.243223,"[{'year': '2021', 'url': '/../docproveedores/REPORTE-Centro-de-Desarrollo-Siempre-Ninos.pdf'}, {'year': '2023', 'url': '/../docproveedores/Centro de Desarrollo Siempre Niños 2023.pdf'}]"
ChiquiAmgen,787-916-6160,"Carretera 31 Km. 24.6 Juncos, PR 00777",18.228052,-65.914137,"[{'year': '2021', 'url': '/../docproveedores/REPORTE-ChiquiAmgen.pdf'}, {'year': '2023', 'url': '/../docproveedores/ChiquiAmgen 2023.pdf'}]"
Club De Niños Felices,(787)475-9119,Urb. Villa Del Rey Ave. Gautier Benitez C - 12 Caguas 00725 Caguas,18.214329,-66.044806,"[{'year': '2021', 'url': '/../docproveedores/REPORTE-Club-De-Ninos-Felices.pdf'}, {'year': '2022', 'url': '/../docproveedores/Resultado- Club Niños Felices 2022.pdf'}, {'year': '2023', 'url': '/../docproveedores/Resultado- Club de Niños Felices- 2023.pdf'}]"
Good Habits Institute,(939)265-7009,Bo. Montellano Sector Las Brumas Calle Sol 00736 Cayey,18.116587,-66.144176,"[{'year': '2021', 'url': '/../docproveedores/REPORTE-Good-Habits-Institute.pdf'}, {'year': '2023', 'url': '/../docproveedores/GOOD HABITS INSTITUTE 2023.pdf'}]"
Neida D. Aponte Muñoz,,,0,0,"[{'year': '2021', 'url': '/../docproveedores/REPORTE-Neida-D.-Aponte-Munoz.pdf'}]"
Wanda I. Feliciano Valentín,,Cabo Rojo,0,0,"[{'year': '2021', 'url': '/../docproveedores/REPORTE-Wanda-I.-Feliciano-Valentin.pdf'}, {'year': '2022', 'url': '/../docproveedores/WANDA FELICIANO VALENTIN 2022.pdf'}, {'year': '2023', 'url': '/../docproveedores/WANDA FELICIANO VALENTIN 2023.pdf'}]"
Angelina Torres Cruz,787-942-9370,Gurabo,0,0,"[{'year': '2021', 'url': '/../docproveedores/REPORTE-Angelina-Torres-Cruz.pdf'}]"
Mi Pequeño Kinder,(787)469-5902,Urb. Caguas Calle 18 I 13 00725 Caguas,18.237213,-66.015759,"[{'year': '2021', 'url': '/../docproveedores/REPORTE-Mi-Pequeno-Kinder.pdf'}, {'year': '2022', 'url': '/../docproveedores/Resultado-  Mi Pequeno Kinder 2022.pdf'}, {'year': '2023', 'url': '/../docproveedores/Mi Pequeno Kinder 2023.pdf'}]"
My Jungle Nursering And Preschool,7787-665-5137,"1412 Ave Jesús T. Piñero, San Juan",18.402502,-66.089448,"[{'year': '2021', 'url': '/../docproveedores/REPORTE-My-Jungle-Nursery-and-Preschool.pdf'}, {'year': '2022', 'url': '/../docproveedores/MY JUNGLE NURSING AND PREESCHOOL 2022.pdf'}, {'year': '2023', 'url': '/../docproveedores/MY JUNGLE NURSING AND PREESCHOOL 2023.pdf'}, {'year': '2024', 'url': '/../docproveedores/2024-myjungle-nursery.pdf'}]"
Carmen M. Caballer Roig,787-674-9009,Caguas,0,0,"[{'year': '2021', 'url': '/../docproveedores/REPORTE-Carmen-M.-Caballer-Roig.pdf'}]"
Sandra Aquino Colón,,"Guaynabo, Puerto Rico 00970",18.35481,-66.112315,"[{'year': '2021', 'url': '/../docproveedores/REPORTE-Sandra-Aquino-Colon.pdf'}]"
Aracelis Martínez Castillo,787-717-4338,Ponce,0,0,"[{'year': '2021', 'url': '/../docproveedores/REPORTE-Aracelis-Martinez-Castillo.pdf'}]"
Chiquimundi,787-783-7044,"629 Calle Hillside, Urb. Summit Hills San Juan, PR 00920",18.397335,-66.103441,"[{'year': '2021', 'url': '/../docproveedores/REPORTE-CCD-Chiquimundi.pdf'}, {'year': '2023', 'url': '/../docproveedores/Resultado-CCD CHIQUIMUNDI INC 2023.pdf'}]"
Colegio Rosabell,(787)781-4240 ext 2109,Urb. Torrimar calle oviedo 42 guaynabo 00966 Guaynabo,18.3916,-66.1146,"[{'year': '2021', 'url': '/../docproveedores/REPORTE-Colegio-Rosabell.pdf'}]"
Arielis Santiago Cartagena,(939)216-6021,Caguas,0,0,"[{'year': '2021', 'url': '/../docproveedores/REPORTE-Arielis-Santiago-Cartagena.pdf'}]"
Garbidalis Bilingual Academy,787-735-3561,Bo Llanos Adentro Carr 725 km 3.0 Int Sector Saturnino Aibonito,18.164656,-66.281706,"[{'year': '2021', 'url': '/../docproveedores/REPORTE-Garbidalis-Bilingual-Academy.pdf'}]"
Unlimited Learning Center,787-459-2304,Carr 861 km 5.8 bo piños Toa Alta 00953,18.370233,-66.215703,"[{'year': '2021', 'url': '/../docproveedores/REPORTE-Unlimited-Learning-Center.pdf'}, {'year': '2023', 'url': '/../docproveedores/UNLIMITED LEARNING CENTER 2023.pdf'}]"
Centro Maguey,787-449-1088,"Calle Haydee Castro Esq. Ignacio Arzuaga Carolina, PR 00985",18.380931,-65.959655,"[{'year': '2021', 'url': '/../docproveedores/REPORTE-Maguey-H.E.-Mun.-Carolina.pdf'}, {'year': '2023', 'url': '/../docproveedores/Resultado- Maguey Carolina 2023.pdf'}]"
Cinthia Ocasio Rivera,787-941-9970,San Juan,0,0,"[{'year': '2021', 'url': '/../docproveedores/REPORTE-Cinthia-I.-Ocasio-Rivera.pdf'}]"
María Morales Irizarry,,San Germán,0,0,"[{'year': '2021', 'url': '/../docproveedores/REPORTE-Maria-Morales-Irizarry.pdf'}, {'year': '2022', 'url': '/../docproveedores/Resultado -  Maria E. Morales Irizarry 2022.pdf'}, {'year': '2023', 'url': '/../docproveedores/Resultado- Maria E. Morales Irizarry 2023.pdf'}]"
Colegio Doribel INC,787-797-8556,"Urb. Toa Alta Heights, F-44-48 Calle 6 Toa Alta, PR 00953",18.36265,-66.208153,"[{'year': '2021', 'url': '/../docproveedores/REPORTE-CCD-Colegio-Doriber-Inc.pdf'}]"
Rosa Rodríguez Pérez,,Utuado,0,0,"[{'year': '2021', 'url': '/../docproveedores/REPORTE-Rosa-Rodriguez-Perez.pdf'}]"
Wanda Reyes Lopez,939-416-0903,,0,0,"[{'year': '2021', 'url': '/../docproveedores/REPORTE-Wanda-Reyes-Lopez.pdf'}]"
Centro Preescolar Little Brains,787-608-4812,Reparto de diego ave Ponce de león 1617 00926 San Juan,18.379444,-66.069396,"[{'year': '2021', 'url': '/../docproveedores/REPORTE-Centro-Preescolar-Little-Brains.pdf'}, {'year': '2022', 'url': '/../docproveedores/Resultado-CENTRO PREESCOLAR LITTLE BRAINS 2022.pdf'}, {'year': '2023', 'url': '/../docproveedores/CENTRO PREESCOLAR LITTLE BRAINS 2023.pdf'}]"
Colegio Marista,787-720-2186,Alturas de Torrimar 6 Marcelino Champagnet Guaynabo 00969,18.381651,-66.120989,"[{'year': '2021', 'url': '/../docproveedores/REPORTE-Colegio-Marista-de-Guaynabo.pdf'}, {'year': '2022', 'url': '/../docproveedores/Resultado - Colegio Marista de Guaynabo 2022.pdf'}]"
Tomasita Velázquez de Jesús,787-203-1289,Carolina,0,0,"[{'year': '2021', 'url': '/../docproveedores/REPORTE-Tomasita-Velazquez-De-Jesus.pdf'}]"
Castillo Infantil,(787) 255-4550,"Carretera 3311 Km. 0.6 Sector Sabana Alta Cabo Rojo, PR 00623",18.119034, -67.157861,"[{'year': '2021', 'url': '/../docproveedores/REPORTE-Castillo-Infantil-Mun.-de-Cabo-Rojo.pdf'}, {'year': '2022', 'url': '/../docproveedores/Resultado- Castillo Infantil Cabo Rojo 2022.pdf'}, {'year': '2023', 'url': '/../docproveedores/Resultado - Castillo Infantil Cabo Rojo 2023.pdf'}]"
Ramariz E. Morales Rivera,787-981-4287,Caguas,0,0,"[{'year': '2021', 'url': '/../docproveedores/REPORTE-Ramariz-E.-Morales-Rivera.pdf'}]"
Just for kids,787-743-5102 / 787-3616472,"Calle Amatista #35 Urb. Villa blanca, Caguas",18.246487,-66.035593,"[{'year': '2021', 'url': '/../docproveedores/REPORTE-JUST-FOR-KIDS.pdf'}, {'year': '2022', 'url': '/../docproveedores/Resultado-CCDN JUST FOR KIDS 2022.pdf'}, {'year': '2023', 'url': '/../docproveedores/Resultado-CCDN JUST FOR KID 2023.pdf'}]"
Maritere Ramos Betancourt,,Ponce,0,0,"[{'year': '2021', 'url': '/../docproveedores/REPORTE-Maritere-Ramos-Betancourt.pdf'}, {'year': '2022', 'url': '/../docproveedores/MARITERE RAMOS BETANCOURT 2022.pdf'}, {'year': '2023', 'url': '/../docproveedores/MARITERE RAMOS BETANCOURT 2023.pdf'}]"
Colegio Creativo,787-413-5762,"Km 1.3 Bo. Venezuela, Calle Guaracanal",18.38518,-66.05124,"[{'year': '2021', 'url': '/../docproveedores/REPORTE-Colegio-Creativo-de-Puerto-Rico.pdf'}, {'year': '2023', 'url': '/../docproveedores/Resultado- Colegio Creativo de Puerto Rico 2023.pdf'}]"
Saint Francis School INC,787-762-3141,"Villa Carolina, 400 Ave. Roberto Clemente Carolina, PR 00983",18.41798,-65.965259,"[{'year': '2021', 'url': '/../docproveedores/REPORTE-C.C.D.-Saint-Francis-School.pdf'}, {'year': '2022', 'url': '/../docproveedores/Resultado- Saint Francis School 2022.pdf'}]"
Garabatos Day Care,787-812-2023,"Ave. Emilio Fagot #353 Urb, Santa Clara Ponce, PR 00716",18.02604,-66.601537,"[{'year': '2021', 'url': '/../docproveedores/REPORTE-CCD-Garabatos-Centro-Pre-Esc.pdf'}, {'year': '2022', 'url': '/../docproveedores/Resultado-CCD GARABATOS CENTRO PRE-ESC 2022.pdf'}, {'year': '2023', 'url': '/../docproveedores/Resultado- Garabatos 2023.pdf'}]"
Evelyn Colón Ruíz,939-788-2638,Juana Díaz,0,0,"[{'year': '2022', 'url': '/../docproveedores/REPORTE-Evelyn-Colon-Ruiz.pdf'}, {'year': '2023', 'url': '/../docproveedores/Resultado- Evelyn Colon Rivera 2023.pdf'}]"
CCD Yaveh Shalom,787-878-4449,Carr 129 km 7.0 Bo. Dominguito Arecibo P.R. 00612,18.467449,-66.730605,"[{'year': '2021', 'url': '/../docproveedores/REPORTE-CCDN-Yahveh-Shalom.pdf'}, {'year': '2022', 'url': '/../docproveedores/Resultado-YAVEH SHALOM 2022.pdf'}]"
Montessori San Cristobal,787-226-6330,"Sec. Quebrada Arena Bo Rio Cañas, Km 24.7 Carr. 1 Caguas, PR 00725",18.30157,-66.057051,"[{'year': '2021', 'url': '/../docproveedores/REPORTE-Montessori-San-Cristobal.pdf'}, {'year': '2022', 'url': '/../docproveedores/Montessori San Cristobal 2022.pdf'}]"
Nalmir M. González Torres,787-501-0885,Arecibo,0,0,"[{'year': '2021', 'url': '/../docproveedores/REPORTE-Nalmir-M.-Gonzalez-Torres.pdf'}]"
HDC Marisol Echevarría Echevarría,939-639-8088,Aguada,0,0,"[{'year': '2021', 'url': '/../docproveedores/REPORTE-HCD-Marisol-Echevarria-Echevarria.pdf'}, {'year': '2022', 'url': '/../docproveedores/Resultado-   HCD Marisol Echevarria.pdf'}]"
Kiddiecare Preschool and Tutoring Center,787-284-5926,"Calle Marina 9105, Esquina Ferrocarril Suite 104 Ponce",18.005502,-66.612819,"[{'year': '2021', 'url': '/../docproveedores/Informe-de-Resultados-de-Hallazgos-KiddieCare-2022-1.pdf'}, {'year': '2023', 'url': '/../docproveedores/REPORTE-Kiddiecare-Preschool-and-Tutoring-Center.pdf'}]"
El Paraíso Infantil,787-630-8903,"Urb. Lago Alto, 4 Calle Loiza Trujillo Alto, PR 00976",18.365219,-66.006588,"[{'year': '2021', 'url': '/../docproveedores/REPORTE-El-Paraiso-Infantil.pdf'}, {'year': '2022', 'url': '/../docproveedores/Resultado- Paraíso Infantil Aguadilla 2022.pdf'}, {'year': '2023', 'url': '/../docproveedores/R 122 EL PARAISO INFANTIL 2023.pdf'}]"
Francheska Lyrette Mercado Hernádez,,Hatillo,0,0,"[{'year': '2021', 'url': '/../docproveedores/REPORTE-Francheska-Lyrette-Mercado-Hernandez.pdf'}, {'year': '2022', 'url': '/../docproveedores/Francheska Lyrette Mercado Hernádez 2022.pdf'}]"
Gladys M. Rivera Colón,787-561-3340,Manatí,0,0,"[{'year': '2021', 'url': '/../docproveedores/REPORTE-Gladys-M.-Rivera-Colon.pdf'}]"
La Casita de Mami,787-703-2064 / 787-615-8221,"Urb. Villa Criollos, A-9 Ave Muños Marín Caguas, PR 00725",18.23412,-66.0485,"[{'year': '2021', 'url': '/../docproveedores/REPORTE-La-Casita-de-Mami.pdf'}, {'year': '2022', 'url': '/../docproveedores/LA CASITA DE MAMI 2022.pdf'}, {'year': '2023', 'url': '/../docproveedores/Resultado- La Casa de Mami 2023.pdf'}]"
Luis E. Martínez Ortíz,,Coto Laurel,0,0,"[{'year': '2021', 'url': '/../docproveedores/REPORTE-Luis-E.-Martinez-Ortiz.pdf'}, {'year': '2022', 'url': '/../docproveedores/LUIS E MARTINEZ ORTIZ 2022.pdf'}]"
Marilyn Vélez Laboy,,"Gurabo, Puerto Rico 00778",18.2528251,-65.977735,"[{'year': '2021', 'url': '/../docproveedores/REPORTE-Marilyn-Velez-Laboy.pdf'}, {'year': '2023', 'url': '/../docproveedores/MARILYN VELEZ LABOY 2023.pdf'}]"
ABC Nursery & Day Care,787-586-0992 / 787-756-4074,"980 Calle 42 SE, Reparto Metropolitano San Juan, PR 00926",18.400364,0,"[{'year': '2021', 'url': '/../docproveedores/REPORTE-ABC-Nursery-_-Day-Care.pdf'}, {'year': '2022', 'url': '/../docproveedores/ABC Nursery & Day Care 2022.pdf'}, {'year': '2023', 'url': '/../docproveedores/Resultado-ABC Nursery & Day Care 2023.pdf'}, {'year': '2024', 'url': '/../docproveedores/2024-ABC Nursery.pdf'}]"
Galería Maternal,787-746-3852,"Bo. Cerdenejas, Carr. 172 Km. 1.9 Cidra, PR 00739",18.17579,-66.16128,"[{'year': '2021', 'url': '/../docproveedores/REPORTE-Galeria-Maternal.pdf'}, {'year': '2022', 'url': '/../docproveedores/Resultado-CCDN GALERIA MATERNAL 2022.pdf'}, {'year': '2023', 'url': '/../docproveedores/Resultado-CCDN GALERIA MATERNAL 2023.pdf'}]"
Torrimar Learning,787-452-1406,"Urb. Alturas de Torrimar, 5-14 Ave Santa Ana Guaynabo, PR 00969",18.381214,-66.117301,"[{'year': '2021', 'url': '/../docproveedores/REPORTE-Torrimar-Learning.pdf'}, {'year': '2022', 'url': '/../docproveedores/TORRIMAR LEARTING CENTER 2022.pdf'}, {'year': '2023', 'url': '/../docproveedores/Resultado- Torrimar Learning 2023.pdf'}]"
Rayshanil Santiago García,,Humacao,18.0502303,-65.8793571,"[{'year': '2021', 'url': '/../docproveedores/REPORTE-Rayshanil-Santiago-Garcia.pdf'}, {'year': '2023', 'url': '/../docproveedores/Resultado-CCD MI PEQUENO EDEN 2023.pdf'}]"
CCD Mi Pequeño Edén,787-855-3764 / 787-245-4674,"Urb. Reparto Sobrino, 203 Calle Forestal Vega Baja, PR 00694",18.432192,-66.414058,"[{'year': '2021', 'url': '/../docproveedores/REPORTE-CCD-Mi-Pequeno-Eden.pdf'}, {'year': '2023', 'url': '/../docproveedores/Resultado-CCD MI PEQUENO EDEN 2023.pdf'}, {'year': '2024', 'url': '/../docproveedores/2024-MiPequeno_Eden.pdf'}]"
Antonia Orengo Ruiz,939-256-0319,Yauco,0,0,"[{'year': '2021', 'url': '/../docproveedores/REPORTE-Antonia-Orengo-Ruiz.pdf'}, {'year': '2022', 'url': '/../docproveedores/Resultado- Antonia Orengo Ruiz-2022.pdf'}, {'year': '2023', 'url': '/../docproveedores/Resultado- Antonia Orengo Ruiz-Yauco 2023.pdf'}]"
Awilda Castillo Pérez,,"Carolina, Puerto Rico 00987",18.3808516,-65.9570244,"[{'year': '2021', 'url': '/../docproveedores/REPORTE-Awilda-Castillo-Perez.pdf'}]"
Centro Educativo Huellas en Colores,939-366-7480,Bda Capetillo calle vallejo #1022 S.J P. R 00924 San Juan,18.479815,-69.894582,"[{'year': '2021', 'url': '/../docproveedores/REPORTE-Centro-Educativo-Huellas-en-Colores.pdf'}, {'year': '2022', 'url': '/../docproveedores/Resultado- Centro Educativo Huellas en Colores 2022.pdf'}, {'year': '2023', 'url': '/../docproveedores/Resultado-CENTRO EDUCATIVO HUELLAS EN COLORES 2023.pdf'}]"
Maria Milagros Nazario Quinonez,,Sabana Grande,0,0,"[{'year': '2021', 'url': '/../docproveedores/REPORTE-Maria-M.-Nazario-Quinones.pdf'}, {'year': '2023', 'url': '/../docproveedores/Resultado- Maria Milagros Nazario Quiñones 2023 Sabana Grande.pdf'}, {'year': '2024', 'url': '/../docproveedores/Maria Milagros Nazario Quinones 2024.pdf'}]"
Scheila Rodríguez Quiñonez,,Yauco COSIANI,0,0,"[{'year': '2021', 'url': '/../docproveedores/REPORTE-Scheila-G.-Rodriguez-Quinones.pdf'}, {'year': '2022', 'url': '/../docproveedores/Resultado- Scheila Rodríguez Quiñones 2022.pdf'}, {'year': '2023', 'url': '/../docproveedores/Resultado- Scheila Rodriguez Quiñones 2023.pdf'}]"
Cedin Infantil Intermetro,787-250-1912 Ext 2840,Carr 177 Km3 3 Camino Alejandro Marginal Ave Lomas Vardes S.J,18.367306,66.076891,"[{'year': '2021', 'url': '/../docproveedores/REPORTE-Cedin-Infantil.pdf'}, {'year': '2024', 'url': '/../docproveedores/2024-cedin-interamericana.pdf'}]"
Centro de Desarrollo Alheli Montessori,939-645-8437,"Calle Robles #54 Local 1 San Juan, Puerto Rico 00925",18.399851,-66.050624,"[{'year': '2021', 'url': '/../docproveedores/REPORTE-Centro-de-Desarrollo-Alheli-Montessori.pdf'}, {'year': '2022', 'url': '/../docproveedores/Resultado-  ALHELI MONTESSORI 2022.pdf'}]"
Instituto Desarrollo Del Niño,787-752-8012,"Urb. Country Club 1050 Calle Demetrio Odally San Juan, Puerto Rico 00924",18.398403,-66.001581,"[{'year': '2021', 'url': '/../docproveedores/REPORTE-Instituto-Desarrollo-del-Nino.pdf'}, {'year': '2022', 'url': '/../docproveedores/Resultado- Instituto de Desarrollo del Niño 2022.pdf'}, {'year': '2023', 'url': '/../docproveedores/2023-INSTITUTO DESARROLLO DEL NIñO.pdf'}]"
Providencia Rodríguez Cáceres,,"Trujillo Alto, Puerto Rico 00976",18.3542408,-66.007377,"[{'year': '2021', 'url': '/../docproveedores/REPORTE-Providencia-Rodriguez-Caceres.pdf'}, {'year': '2023', 'url': '/../docproveedores/Resultado-  Providencia Rodriguez Caceres 2023.pdf'}]"
Ivonne Maldonado Martínez,939-418-5025,Hatillo,0,0,"[{'year': '2021', 'url': '/../docproveedores/REPORTE-Ivonne-Maldonado-Martinez.pdf'}, {'year': '2022', 'url': '/../docproveedores/Resultado-Ivonne Maldonado - Hatillo 2022.pdf'}, {'year': '2023', 'url': '/../docproveedores/IVONNE MALDONADO MARTINEZ 2023.pdf'}]"
Marangely Lopez Negron,,Yauco COSIANI,0,0,"[{'year': '2021', 'url': '/../docproveedores/REPORTE-Marangely-Lopez-Negron.pdf'}, {'year': '2022', 'url': '/../docproveedores/Resultado- Maragely López-Yauco 2022.pdf'}, {'year': '2023', 'url': '/../docproveedores/Resultado- Marangely Lopez - Yauco - 2023.pdf'}]"
Brenda Liz Sánchez Rivera,,Ponce,0,0,"[{'year': '2021', 'url': '/../docproveedores/REPORTE-Brenda-L.-Sanchez-Rivera.pdf'}]"
Minely Flores Maldonado,787-556-9650,"Ceiba, Puerto Rico 00735",18.2646445,-65.6481788,"[{'year': '2021', 'url': '/../docproveedores/REPORTE-Minely-Flores-Maldonado.pdf'}, {'year': '2022', 'url': '/../docproveedores/Resultado- Minely Flores Maldonado-Fajardo 2022.pdf'}]"
Peek A Boo Day Care Too,787-731-3322,"Urb. Ext. Parkville V-1 Calle Harding Guaynabo, Puerto Rico 00969",18.4055,-66.109238,"[{'year': '2021', 'url': '/../docproveedores/REPORTE-Peek-A-Boo-Daycare-Too.pdf'}, {'year': '2022', 'url': '/../docproveedores/Peek A Boo 2022 08-24-2023-102543.pdf'}, {'year': '2023', 'url': '/../docproveedores/Peek A Boo 2023 08-24-2023-102721.pdf'}, {'year': '2024', 'url': '/../docproveedores/2024-Peek a boo.pdf'}]"
Academia Rosabell,787-263-2694,Ave Jose De Digo 397 Oeste Cayey PR 00736,18.388245,-66.118836,"[{'year': '2021', 'url': '/../docproveedores/REPORTE-Academia-Rosabel.pdf'}]"
Mi Pequeño Paraíso Infantil,787-738-3041,"Sec. Mogote Calle Evaristo Hernández #39 Cayey, Puerto Rico 00736",18.124898,-66.170536,"[{'year': '2021', 'url': '/../docproveedores/REPORTE-Mi-Pequeno-Paraiso-Infantil.pdf'}, {'year': '2022', 'url': '/../docproveedores/Resultado-Mi Pequeño Paraiso Infantil -Cayey 2022.pdf'}, {'year': '2023', 'url': '/../docproveedores/Resultado- Mi Pequeño Paraiso Infantil-Cayey 2023.pdf'}, {'year': '2024', 'url': '/../docproveedores/2024-MiPequeno_Paraiso_Infantil_de_Cayey.pdf'}]"
Centro de Desarrollo Preescolar UPR-RCM,787-773-0091,"Carr #1 Km. 12.0 Jardín Botánico Norte San Juan, Puerto Rico 00963",18.394716,-66.064852,"[{'year': '2021', 'url': '/../docproveedores/REPORTE-Centro-de-Desarrollo-Preescolar-UPR-RCM.pdf'}, {'year': '2023', 'url': '/../docproveedores/Resultado-Centro de Desarrolo Preescolar UPR RCM 2023.pdf'}]"
Laurimaris Alberro Correa,939-217-9372,Arecibo,0,0,"[{'year': '2021', 'url': '/../docproveedores/REPORTE-Laurimaris-Alberro-Correa.pdf'}]"
Julia Vargas Castillo,787-225-4311,Caguas,0,0,"[{'year': '2021', 'url': '/../docproveedores/REPORTE-Julia-Vargas-Castillo.pdf'}]"
María Vargas Castillo,,María Vargas Castillo,0,0,"[{'year': '2021', 'url': '/../docproveedores/REPORTE-Maria-Vargas-Castillo.pdf'}]"
casa de la alegria,787-435-3281,"Bda. Clark, Calle Manuel Velazquez",0,0,"[{'year': '2021', 'url': '/../docproveedores/REPORTE-CASA-DE-LA-ALEGRIA-MUN.-DE-CULEBRA.pdf'}, {'year': '2022', 'url': '/../docproveedores/Resultado-Casa de la Alegria Culebra 2022.pdf'}]"
Deleite Infantil,939-251-9567,"Urb. Villa Cáliz II Carr. 784 Parc. 19 Caguas, Puerto Rico 00725",0,0,"[{'year': '2021', 'url': '/../docproveedores/REPORTE-Deleite-Infantil.pdf'}, {'year': '2022', 'url': '/../docproveedores/Resultado- Deleite Infantil 2022 Humacao.pdf'}]"
SALON LABORATORIO UPR,787-764-0000 EXT 86475,ANTIGUA CASA DE ECONOMIA DOMESTICA EDIFICIO 059 00921 SAN JUAN,18.393729,-66.090902,"[{'year': '2021', 'url': '/../docproveedores/REPORTE-Salon-Laboratorio-UPR.pdf'}, {'year': '2022', 'url': '/../docproveedores/Salon Laboratorio UPR 2022.pdf'}, {'year': '2024', 'url': '/../docproveedores/2024-Univ.PR_Salon_Laboratorio_Infantes_y_Maternales.pdf'}]"
campo montessori inc.,787-372-8911,carr. 155 km 31.9 interior bo. gato sector bajuras orocovis,18.366032,-66.101324,"[{'year': '2021', 'url': '/../docproveedores/REPORTE-Campo-Montessori-Inc.pdf'}, {'year': '2022', 'url': '/../docproveedores/Resultado- Campo Montessori 2022.pdf'}]"
CCD Cuna de Angeles,787-554-0007 / 787-392-6903,Rio Piedras Heights #1695 Calle Paraná Local 1 Monacillos,18.374082,-66.054363,"[{'year': '2021', 'url': '/../docproveedores/REPORTE-CCD-Cuna-de-Angeles.pdf'}, {'year': '2022', 'url': '/../docproveedores/CCD Cuna de Angeles 2022.pdf'}]"
Circulo Infantil El Despertar,787-738-2269,"340 Ave. Antonio R. Barcelo Cayey, PR 00736",18.120821,-66.145909,"[{'year': '2021', 'url': '/../docproveedores/REPORTE-Circulo-Infantil-El-Despertar.pdf'}]"
RONALD REGAN DAY CARE,787-44-1088,"Ave Chardón San Juan, PR 00936",0,0,"[{'year': '2021', 'url': '/../docproveedores/REPORTE-CCD-Ronald-Reagan-Day-Care.pdf'}, {'year': '2022', 'url': '/../docproveedores/Resultado- Ronald Regan 2022.pdf'}]"
María Santiago González,,"Caguas, Puerto Rico 00725",18.2345399,-66.0351316,"[{'year': '2021', 'url': '/../docproveedores/REPORTE-Maria-del-C.-Santiago-Gonzalez.pdf'}]"
Ruth Colón Ortiz,,"Caguas, Puerto Rico 00725",18.2345399,-66.0351316,"[{'year': '2021', 'url': '/../docproveedores/REPORTE-Ruth-Colon-Ortiz.pdf'}]"
Academia Cristo de los Milagros,787-743-4242,Ave Luis Muñoz Marin #85 Caguas PR,18.229818,-66.020328,"[{'year': '2021', 'url': '/../docproveedores/REPORTE-Academia-Cristo-de-los-Milagros.pdf'}, {'year': '2022', 'url': '/../docproveedores/Resultado-  Academia Cristo de los Milagros 2022.pdf'}]"
My Happy Little Garden,787-966-9628,"Bayamón Gardens X-14 Carr. 861 Bayamón, Puerto Rico 00956",18.381283,-66.18578,"[{'year': '2021', 'url': '/../docproveedores/REPORTE-My-Happy-Little-Garden.pdf'}, {'year': '2022', 'url': '/../docproveedores/Resultado- My Happy Little Garden 2022.pdf'}, {'year': '2023', 'url': '/../docproveedores/MY HAPPY LITTLE GARDEN 2023.pdf'}, {'year': '2024', 'url': '/../docproveedores/2024-happy-little-garden.pdf'}]"
La Casita Dulce II,787-941-7801,"Urb. Bella Vista C-9 Calle 3 Bayamón, Puerto Rico 00957",18.386776,-66.176372,"[{'year': '2021', 'url': '/../docproveedores/REPORTE-CCD-La-Casita-Dulce-II.pdf'}, {'year': '2022', 'url': '/../docproveedores/Resultado- La Casita Dulce 2022.pdf'}, {'year': '2023', 'url': '/../docproveedores/Resultado - La Casita Dulce 2023.pdf'}]"
hcd maritza lorenzo,787-219-9526,Aguada,18.339007,-67.202393,"[{'year': '2022', 'url': '/../docproveedores/REPORTE-MARITZA-LORENZO-RED-AGUADA.pdf'}, {'year': '2023', 'url': '/../docproveedores/Resultado- HCD Maritza Lorenzo-Aguada 2023.pdf'}, {'year': '2024', 'url': ""/../docproveedores/02-2024 Red Aguada HCD Maritza's Day Care.pdf""}, {'year': '2024', 'url': ""/../docproveedores/Red Aguada Maritza's Day Care Planilla y Plan 2024.pdf""}]"
centro cedros - Mun. Carolina,939-263-5921,bo. cedros carr. 183 km. 13.2 carolina,18.2883273,-65.919089,"[{'year': '2022', 'url': '/../docproveedores/REPORTE-CENTRO-CEDROS-MUN.-DE-CAROLINA.pdf'}, {'year': '2023', 'url': '/../docproveedores/Resultado- Cedros Mun Carolina 2023.pdf'}]"
Nitsa Bonilla García,787-358-9396,Juana Díaz,0,0,"[{'year': '2022', 'url': '/../docproveedores/REPORTE-Nitsa-Bonilla-Garcia.pdf'}]"
Lucia Soto Rosa,787-216-0234,Arroyo,0,0,"[{'year': '2022', 'url': '/../docproveedores/REPORTE-Lucia-Soto-Rosa-Mun.-Arroyo.pdf'}]"
CCDD Centro Infantil Educativo Bambi corp,787-505-8633,Carr 4491 km 2.6 Bo. Puente Camuy P.R. 00627,18.474538,-66.854905,"[{'year': '2022', 'url': '/../docproveedores/REPORTE-CCDD-Centro-Infantil-Educativo-Bambi-Corp.pdf'}]"
Multigeneracional,939-451-4571,"Ave. Gautier Benítez Edif Angora Office Park Local 6 Caguas, PR 00725",18.225362,-66.03972,"[{'year': '2021', 'url': '/../docproveedores/Resultado- Multigeneracional 2021.pdf'}, {'year': '2022', 'url': '/../docproveedores/REPORTE-Multigeneracional.pdf'}, {'year': '2023', 'url': '/../docproveedores/Resultado-  Multigeneracional 2023.pdf'}, {'year': '2024', 'url': '/../docproveedores/2024-MULTIGENERACIONAL.pdf'}, {'year': '2024', 'url': '/../docproveedores/2024-MULTIGENERACIONAL.pdf'}]"
Yazmin Cora García,787-216-0294,Arroyo,0,0,"[{'year': '2021', 'url': '/../docproveedores/Resultado- Yazmin Cora Gracia 2021.pdf'}, {'year': '2022', 'url': '/../docproveedores/REPORTE-Yazmin-Cora-Garcia.pdf'}, {'year': '2023', 'url': '/../docproveedores/Resultado- Yazmin Cora Gracia - 2023.pdf'}]"
CEDEPRECO Vieques,787-391-0866 / 787-618-4943,Carretera estatal 200 KM 0.4 Urb. Industrial belén castaño Vieques,18.147628,-65.4426,"[{'year': '2022', 'url': '/../docproveedores/REPORTE-CEDEPRECO-Vieques.pdf'}, {'year': '2023', 'url': '/../docproveedores/Resultado- Cedepreco Vieques 2023.pdf'}]"
AYANI MOCA,(787) 877-4213,"# 140 Calle Monseñor José Torres Moca, PR",18.390879,-67.112884,"[{'year': '2021', 'url': '/../docproveedores/Resultado-Ayani Moca-2021.pdf'}, {'year': '2022', 'url': '/../docproveedores/REPORTE-AYANI-MOCA.pdf'}, {'year': '2023', 'url': '/../docproveedores/Resultado- Ayani-Moca 2023.pdf'}]"
Inés Martínez Montañez,787-983-6051,"Caguas, Puerto Rico 00725",18.2345399,-66.0351316,"[{'year': '2022', 'url': '/../docproveedores/REPORTE-Ines-Martinez-Montanez.pdf'}]"
Angel de la Guarda,(787) 280-6524,Carretera 111 Interior 421 Hato Arriba San Sebastián,18.356324,-67.034216,"[{'year': '2021', 'url': '/../docproveedores/Resultado- Angel de la Guarda 2021.pdf'}, {'year': '2022', 'url': '/../docproveedores/REPORTE-Angel-de-la-Guarda.pdf'}, {'year': '2023', 'url': '/../docproveedores/2023-ANGEL DE LA GUARDA.pdf'}]"
Creciendo Juntos Day Care,787-638-0048,"Urb. San Antonio calle Damasco #1432 Ponce, 00730",17.981594,-66.619525,"[{'year': '2021', 'url': '/../docproveedores/Resultado- Creciendo Juntos 2021.pdf'}, {'year': '2022', 'url': '/../docproveedores/REPORTE-CRECIENDO-JUNTOS-DAY-CARE.pdf'}, {'year': '2023', 'url': '/../docproveedores/Resultado-CRECIENDO JUNTOS DAY CARE 2023.pdf'}]"
Mi Reino Infantil,,"Urb Villa Andalucía, L-4 Ave Fronteras San Juan, PR 00926",18.383778,-66.03254,"[{'year': '2021', 'url': '/../docproveedores/Resultado- MI REINO INFANTIL 2021.pdf'}, {'year': '2022', 'url': '/../docproveedores/REPORTE-Mi-Reino-Infantil.pdf'}, {'year': '2023', 'url': '/../docproveedores/Resultado- Mi Reino Infantil 2023.pdf'}, {'year': '2024', 'url': '/../docproveedores/2024-Mi_Reino_Infantil.pdf'}]"
Rajohnyari Day Care,787-604-7767,Urb. Castellana Gardens #1 H-3 Carolina PR 00985,18.420877,-65.978409,"[{'year': '2022', 'url': '/../docproveedores/REPORTE-RAJOHNYARI-DAY-CARE.pdf'}, {'year': '2023', 'url': '/../docproveedores/Resultado- Rajohnyari Day Care 2023.pdf'}]"
Castillo De Ángeles,787-876-8183,"Bo. San Isidro, 62A Calle A Canovanas, PR 00729",18.393164,-65.885407,"[{'year': '2022', 'url': '/../docproveedores/REPORTE-CCD-Castillo-de-Angeles.pdf'}, {'year': '2023', 'url': '/../docproveedores/Resultado - Castillo de Angeles 2023.pdf'}]"
Jardín Infantil preescolar YMCA,787-843-1870,Urb. Santa Maria calle Nazaret Ponce,18.004347,-66.619613,"[{'year': '2022', 'url': '/../docproveedores/REPORTE-YMCA-PONCE.pdf'}, {'year': '2023', 'url': '/../docproveedores/Informe-de-Resultados-de-Hallazgos-del-Centro-YMCA-de-Ponce-2023-1.pdf'}]"
Pablo Pablito New York Foundling,787-414-3863,Ave. Dr. Álvarez Chanca 5ta sección Levittown Ave. Dr. Álvarez Chanca 5ta sección Levittown,18.443534,-66.18756,"[{'year': '2022', 'url': '/../docproveedores/REPORTE-Pablo-Pablito-New-York-Foundling.pdf'}, {'year': '2023', 'url': '/../docproveedores/Resultado- Pablo Pablito 2023.pdf'}]"
Regalos De Amor,(787) 849-1233,"Calle Comercio #5 Urb. Verdum Hormigueros, PR 00660",18.413547,-66.092067,"[{'year': '2021', 'url': '/../docproveedores/Resultado-CCD REGALOS DE AMOR 2021.pdf'}, {'year': '2022', 'url': '/../docproveedores/REPORTE-Regalos-de-Amor.pdf'}, {'year': '2023', 'url': '/../docproveedores/Resultado -Regalos de Amor 2023.pdf'}]"
Elia C. Ortíz Mateo,,"Urb. Villa Madrid Calle 4 2-9 Coamo, PR 00769",18.080032,18.080032,"[{'year': '2021', 'url': '/../docproveedores/Resultado- Elia C. Ortiz Mateo 2021.pdf'}, {'year': '2022', 'url': '/../docproveedores/REPORTE-ELIA-C.-ORTIZ-COAMO.pdf'}, {'year': '2023', 'url': '/../docproveedores/Resultado- Elia C. Ortiz Mateo 2023.pdf'}]"
Esther A. Rivera Rodríguez,,Coamo,0,0,"[{'year': '2021', 'url': '/../docproveedores/Resultado- Esther A. Rivera Rodríguez 2021.pdf'}, {'year': '2022', 'url': '/../docproveedores/REPORTE-Esther-A.-Rivera-Rodriguez.pdf'}, {'year': '2023', 'url': '/../docproveedores/Resultado- Esther A. Rivera Rodríguez 2023.pdf'}]"
Semillitas de Amor,(787) 806-8337,"Calle Ramos Antonini # 53 Mayagüez, P.R.",18.200952,-67.143185,"[{'year': '2021', 'url': '/../docproveedores/Resultado- Semillitas de Amor 2021.pdf'}, {'year': '2022', 'url': '/../docproveedores/REPORTE-Semillitas-de-Amor.pdf'}, {'year': '2023', 'url': '/../docproveedores/Resultado -Semillitas de Amor 2023.pdf'}]"
Guadalupe De Álvarez NY Foundling,787-788-6677,"Calle Barbosa #58 Cataño, Puerto Rico",18.44134,-66.11822,"[{'year': '2022', 'url': '/../docproveedores/REPORTE-Guadalupe-De-Alvarez-NY-Foundl.pdf'}, {'year': '2023', 'url': '/../docproveedores/Resultado-Guadalupe de Alvarez NY Foundling 2023.pdf'}]"
Milagros Mercado Dasta,,Guánica,0,0,"[{'year': '2022', 'url': '/../docproveedores/REPORTE-Milagros-Mercado-Dasta.pdf'}]"
Mundo de Colores,787-414-3993,"Urb. Bajo Costo #2 Calle Dalia Cataño, Puerto Rico 00962",18.432451,-66.147212,"[{'year': '2022', 'url': '/../docproveedores/REPORTE-Mundo-de-Colores-NY-Foundling.pdf'}, {'year': '2023', 'url': '/../docproveedores/Resultado- Mundo de Colores NYF 2023.pdf'}]"
Mi Pequeño Mundo II,787-822-1358 / 939-417-4308,Ext. Muñoz Rivera Florida,0,0,"[{'year': '2021', 'url': '/../docproveedores/MI PEQUENO MUNDO II 2021.pdf'}, {'year': '2022', 'url': '/../docproveedores/REPORTE-Mi-Pequeno-Mundo-II.pdf'}, {'year': '2023', 'url': '/../docproveedores/MI PEQUENO MUNDO II 2023.pdf'}]"
Nuestra Escuela - Caguas,787-258-0636,"#73 Calle Betances Esq. Muñoz Rivera Caguas, Puerto Rico 00725",18.234224,-66.035875,"[{'year': '2021', 'url': '/../docproveedores/Resultado- Nuestra Escuela Caguas 2021.pdf'}, {'year': '2022', 'url': '/../docproveedores/REPORTE-Nuestra-Escuela-Caguas.pdf'}, {'year': '2023', 'url': '/../docproveedores/Resultado- Nuestra Escuela Caguas 2023.pdf'}]"
Nuestra Escuela - Loíza,787-966-9799,"Parc. Vieques Sec. Mediana Alta Calle 3 Esq. San Rafael Loíza, Puerto Rico 00772",18.426688,-65.834082,"[{'year': '2021', 'url': '/../docproveedores/Resultado- Nuestra Escuela Loiza 2021.pdf'}, {'year': '2022', 'url': '/../docproveedores/REPORTE-Nuestra-Escuela-Loiza.pdf'}, {'year': '2024', 'url': '/../docproveedores/2024-Nuestra Escuela Loiza.pdf'}]"
CCD Child Care De Humacao,(787)-523-3612 EXT 3301 (787)852-3066 EXT 3300,AVE FORT MARTELO ESQUINA RAFAEL ARROYO RIOS 00791 HUMACAO,18.150519,-65.829416,"[{'year': '2021', 'url': '/../docproveedores/Resultado- Child Care Humacao 2021.pdf'}, {'year': '2022', 'url': '/../docproveedores/REPORTE-CCD-CHILD-CARE-DE-HUMACAO.pdf'}, {'year': '2023', 'url': '/../docproveedores/Resultado- Child Care Humacao 2023.pdf'}]"
First Steps,(787) 896-6825,"Carretera 125 km 18.8 Bo. Guatemala San Sebastián, PR 00685",18.255059,-66.040447,"[{'year': '2021', 'url': '/../docproveedores/Resultado- First Steps San Sebastian 2021.pdf'}, {'year': '2022', 'url': '/../docproveedores/REPORTE-First-Steps-Mun.-San-Sebastian.pdf'}, {'year': '2023', 'url': '/../docproveedores/Resultado-  First Steps San Sebastian 2023.pdf'}]"
Virginia Velázquez Montañez,787-616-1426,,0,0,"[{'year': '2021', 'url': '/../docproveedores/Resultado- Virginia Velazquez Montañez 2021.pdf'}, {'year': '2022', 'url': '/../docproveedores/REPORTE-Virgina-Velazquez-Montanez-Mun.-Patillas.pdf'}]"
Borinquen Pradera,787-743-4996 / 787-739-6050,"Bo. Borinquen Sec. Atravesada Carr. 763 Km. 3.8 Caguas, Puerto Rico 00725",0,0,"[{'year': '2021', 'url': '/../docproveedores/Resultado- Centro Margarita Borinquen Pradera 2021.pdf'}, {'year': '2022', 'url': '/../docproveedores/REPORTE-Borinquen-Pradera.pdf'}]"
CCD Margarita,787-739-6030 / 787-739-6050,"Bo. Certenejas Carr 172 Km. 8.4 Cidra, Puerto Rico 00739",0,0,"[{'year': '2021', 'url': '/../docproveedores/Resultado- Centro Margarita Cidra 2021.pdf'}, {'year': '2022', 'url': '/../docproveedores/Resultado- Centro Margarita-Cidra 2022.pdf'}, {'year': '2023', 'url': '/../docproveedores/Resultado- Centro Margarita-Cidra 2023.pdf'}]"
Amanda Colón Matos,939-217-4743,Guayanilla,0,0,"[{'year': '2021', 'url': '/../docproveedores/Resultado- Amanda Colón Matos 2021.pdf'}, {'year': '2022', 'url': '/../docproveedores/REPORTE-Amanda-Colon-Matos.pdf'}, {'year': '2023', 'url': '/../docproveedores/12-2023 Amanda Colon Matos.pdf'}]"
Little Steps,787-227-0131,Carr 825 km 0.1 barrio achiote edf Gubernamental Jose archilla cabrera naranjito,18.379158,-66.069364,"[{'year': '2021', 'url': '/../docproveedores/LIITTE STEPS 2021.pdf'}, {'year': '2022', 'url': '/../docproveedores/REPORTE-Little-Steps.pdf'}, {'year': '2023', 'url': '/../docproveedores/Resultado - Little Steps 2023.pdf'}]"
Madeline Muñoz Borrero,787-677-4380,Guayanilla,0,0,"[{'year': '2021', 'url': '/../docproveedores/Resultado - Madeline Muñoz Borrero 2021.pdf'}, {'year': '2022', 'url': '/../docproveedores/REPORTE-Madeline-Munoz-Borrero.pdf'}, {'year': '2023', 'url': '/../docproveedores/12-2023 Madeline Munoz Borrero.pdf'}]"
Plaza Kids,787-633-2145,"Carr. 794 KM 0.4 camino verde aguas buenas, puerto rico 00703",18.252249,-66.100927,"[{'year': '2021', 'url': '/../docproveedores/PLAZA KIDS- 2021.pdf'}, {'year': '2022', 'url': '/../docproveedores/REPORTE-Plaza-Kids.pdf'}, {'year': '2023', 'url': '/../docproveedores/Resultado-   Plaza Kids 2023.pdf'}]"
CCD Little in Action Day Care de Learning Center,787-786-3685,"Urb. Lomas Verdes, TT-17 Ave. Lomas Verdes Bayamón, PR 00956",0,0,"[{'year': '2021', 'url': '/../docproveedores/Resultado- Little in Action 2021.pdf'}, {'year': '2022', 'url': '/../docproveedores/REPORTE-CCD-LITTLE-IN-ACTION.pdf'}, {'year': '2023', 'url': '/../docproveedores/CCD LITTLE IN ACTION  2023.pdf'}]"
Little Paradise School,(787) 818-0000,"Carretera 111 km 6.3 Bo. Voladora, Moca",18.386755,-67.096564,"[{'year': '2021', 'url': '/../docproveedores/Resultado- Little Paradise Moca 2021.pdf'}, {'year': '2022', 'url': '/../docproveedores/REPORTE-Little-Paradise-School.pdf'}, {'year': '2023', 'url': '/../docproveedores/Resultado-Little Paradise 2023.pdf'}, {'year': '2024', 'url': '/../docproveedores/2024 LITTLE PARADISE (20-03-2024).pdf'}]"
Pre-Escolar Nim,787-780-4082,"Urb. Lomas Verdes, 3 G-7 Ave. Lomas Verdes Bayamón",18.376455,-66.154126,"[{'year': '2021', 'url': '/../docproveedores/Resultado-  Preescolar NIM 2021.pdf'}, {'year': '2022', 'url': '/../docproveedores/REPORTE-CCD-Pre-Escolar-NIM.pdf'}, {'year': '2023', 'url': '/../docproveedores/Resultado- Preescolar NIM 2023.pdf'}]"
CCD Kids Gardens,787-780-3646,"Urb. Flamboyán Gardens R-18 Calle 17 Bayamón, Puerto Rico 00959",18.3871,-66.159,"[{'year': '2022', 'url': '/../docproveedores/REPORTE-CCD-Kids-Gardens.pdf'}]"
Pasitos,787-868-8212,Carr. #411 Km. 1.0 Interior Bo. Piedras Blancas Aguada,18.362194,-67.190066,"[{'year': '2021', 'url': '/../docproveedores/Resultado-  Municipio de Aguada Pasitos 2021.pdf'}, {'year': '2022', 'url': '/../docproveedores/REPORTE-PASITOS-MUN-DE-AGUADA.pdf'}, {'year': '2023', 'url': '/../docproveedores/Resultadomonitoria-Municipio-de-Aguada-2023-1.pdf'}]"
Diversión y Enseñanza,787-841-2068,Ave. Muñoz Rivera 1587 Ponce,18.00596,-66.620466,"[{'year': '2022', 'url': '/../docproveedores/REPORTE-DIVERSION-Y-ENSENANZA.pdf'}, {'year': '2023', 'url': '/../docproveedores/Resultado- Diversión y Enseñanza 2023.pdf'}, {'year': '2024', 'url': '/../docproveedores/2024-Diversion y Enseñanza.pdf'}]"
Niños En Acción,787-292-0642,GOLDEN HILLS ANICETO DIAZ B-20 TRUJILLO ALTO,18.370469,-66.017931,"[{'year': '2021', 'url': '/../docproveedores/CCD Niños en Accion Inc 2021.pdf'}, {'year': '2022', 'url': '/../docproveedores/REPORTE-NINOS-EN-ACCION.pdf'}, {'year': '2023', 'url': '/../docproveedores/Resultado- Niños en Acción 2023.pdf'}]"
Damarys González Cruz,939-239-8905,Patillas,0,0,"[{'year': '2022', 'url': '/../docproveedores/REPORTE-Damarys-Gonzalez-Cruz.pdf'}]"
Jardín De Párvulos,(787) 892-4920,"Carretera. 329 km 1.9 Bo. Minillas Valle San Germán, PR 00685",0,0,"[{'year': '2021', 'url': '/../docproveedores/Resultado-Jardin de Parvulos PR Special  2021.pdf'}, {'year': '2022', 'url': '/../docproveedores/REPORTE-Jardin-de-Parvulos.pdf'}, {'year': '2023', 'url': '/../docproveedores/Resultado- Jardin de Parvulos PR Special Community Services.pdf'}]"
Sedney Olivencia Marchany,787-849-7683,Hormigueros,0,0,"[{'year': '2021', 'url': '/../docproveedores/Resultado- Sedney Olivencia Marchany 2021.pdf'}, {'year': '2022', 'url': '/../docproveedores/REPORTE-Sedney-Olivencia-Marchany.pdf'}, {'year': '2023', 'url': '/../docproveedores/Resultado- Hogar de cuido Sedney Olivencia Marchany - 2023.pdf'}, {'year': '2024', 'url': '/../docproveedores/Sedney E. Olivencia Marchany 2024.pdf'}]"
Doris A. Rosario Hernández,,Santa Isabel,0,0,"[{'year': '2022', 'url': '/../docproveedores/REPORTE-Doris-A.-Rosario-Hernandez.pdf'}]"
Elizabeth Martínez Correa,787-397-7477,Canóvanas,0,0,"[{'year': '2022', 'url': '/../docproveedores/REPORTE-Red-de-Canovanas-Elizabeth-Martinez-Correa.pdf'}]"
Jahnyrelys Alvares Casillas,787-547-1501,Canóvanas,0,0,"[{'year': '2022', 'url': '/../docproveedores/REPORTE-Red-de-Canovanas-Jahnyrelys-Alvarez-Casillas.pdf'}]"
Los Indiecitos,787-957-1066,CARR. 962 KM 2.1 BO. CAMBALACHE CANOVANAS 00729,18.359613,-65.883276,"[{'year': '2021', 'url': '/../docproveedores/Resultado- Los Indiecitos Canovanas 2021.pdf'}, {'year': '2022', 'url': '/../docproveedores/REPORTE-LOS-INDIECITOS-MUN.-DE-CANOVANAS.pdf'}, {'year': '2023', 'url': '/../docproveedores/Resultado-  Los Indiecitos Mun Canovanas 2023.pdf'}, {'year': '2024', 'url': '/../docproveedores/2024-LOS INDIECITOS-Canovanas.pdf'}]"
My Little College New,787-553-7930,Bo. Romero carr 249 km 62-9 Villalba,18.132671,-66.505228,"[{'year': '2022', 'url': '/../docproveedores/REPORTE-MY-LITTLE-COLLEGE-NEW.pdf'}]"
Casa de la Infancia,787-677-2984,"Calle José I Quinton #123 Coamo PR, 00769",18.07996,-66.35795,"[{'year': '2021', 'url': '/../docproveedores/Resultado- Casa de la Infancia 2021-Coamo.pdf'}, {'year': '2022', 'url': '/../docproveedores/REPORTE-CASA-DE-LA-INFANCIA-COAMO.pdf'}, {'year': '2023', 'url': '/../docproveedores/Resultado- Casa de la Infancia 2023 Coamo.pdf'}, {'year': '2024', 'url': '/../docproveedores/2024 Casa de la Infancia-Coamo.pdf'}]"
Carmen L. Figueroa Guerra,,"Río Grande, Puerto Rico 00745",18.3808734,-65.8298549,"[{'year': '2021', 'url': '/../docproveedores/Resultado- Carmen L. Fugueroa Guerra 2021.pdf'}, {'year': '2022', 'url': '/../docproveedores/REPORTE-Red-de-Cuido-Luquillo-Carmen-L.-Figueroa-Guerra.pdf'}]"
María E. Escobar Rivera,,"Río Grande, Puerto Rico 00745",18.3808734,-65.8298549,"[{'year': '2022', 'url': '/../docproveedores/REPORTE-Red-de-Cuido-Luquillo-Maria-E.-Escobar-Rivera.pdf'}, {'year': '2023', 'url': '/../docproveedores/Resultado- Carmen L. Figueroa Guerra 2023.pdf'}]"
Centro De Cuidado Amor INC. 2,787-318-8581,BO QUEBRADILLA CARR 152 KM 3.9 00794 BARRANQUITAS,18.081625,-66.359864,"[{'year': '2022', 'url': '/../docproveedores/REPORTE-CENTRO-DE-CUIDADO-AMOR-INC..pdf'}, {'year': '2023', 'url': '/../docproveedores/Resultado-  Centro Cuidado Amor II 2023.pdf'}]"
Hilda Santos Confort,,"Luquillo, Puerto Rico 00773",18.3388,-65.7172171,"[{'year': '2021', 'url': '/../docproveedores/Resultado- Hilda Santos Confort 2021.pdf'}, {'year': '2022', 'url': '/../docproveedores/REPORTE-Red-de-Cuido-Luquillo-Hilda-Santos-Confort.pdf'}, {'year': '2023', 'url': '/../docproveedores/Resultado- Hilda Santos Confort 2023.pdf'}]"
Janet García Félix,939-335-3445,Arroyo,0,0,"[{'year': '2021', 'url': '/../docproveedores/Resultado- Janet Garcia Felix 2021.pdf'}, {'year': '2022', 'url': '/../docproveedores/REPORTE-Janet-Garcia-Felix-Mun.-Arroyo.pdf'}, {'year': '2023', 'url': '/../docproveedores/Resultado- Janet Garcia Felix 2023.pdf'}]"
CCD Del Valenciano,787-333-6128,"Calle Teodomiro Delfaus #3 Esq. Corchado Juncos, Puerto Rico 00777",18.228392,-65.920105,"[{'year': '2021', 'url': '/../docproveedores/Resultado- El Valenciano 2021 Juncos.pdf'}, {'year': '2022', 'url': '/../docproveedores/REPORTE-CCD-El-Valenciano.pdf'}]"
El Eden Paraíso Infantil,787-233-1689,"Carretera 3 km 99.9 Bo juan Martin Villa, Yabucoa PR 00767 Humacao",18.040405,-65.87861,"[{'year': '2021', 'url': '/../docproveedores/Resultado- El Eden Paraiso Infantil 2021.pdf'}, {'year': '2022', 'url': '/../docproveedores/REPORTE-El-Eden-Paraiso-Infantil.pdf'}, {'year': '2023', 'url': '/../docproveedores/Resultado- El Eden Paraiso Infantil 2023.pdf'}]"
"CCD Sueños Infantil, INC.",787-736-3813,BO FLORIDA CARR 183 KM 12 0 00754 SAN LORENZO,18.054897,-66.723287,"[{'year': '2022', 'url': '/../docproveedores/REPORTE-CCD-SUENO-INFANTIL.pdf'}, {'year': '2024', 'url': '/../docproveedores/2024-SUEÑO INFANTIL SAN LORENZO.pdf'}]"
Mun Maunabo,787-861-1272,"Ave. Calimano #5 Maunabo, Puerto Rico 00707",18.007,-65.8987,"[{'year': '2021', 'url': '/../docproveedores/Resultado- Child Care Maunabo 2021.pdf'}, {'year': '2022', 'url': '/../docproveedores/REPORTE-Mun-Maunabo.pdf'}]"
CCD Children Zone Inc.,787-349-9244,"Urb. El Forest View H-234 Calle Sofía Bayamón, Puerto Rico 00956",18.373014,-66.163591,"[{'year': '2021', 'url': '/../docproveedores/CCD Children Zone Inc 2021.pdf'}, {'year': '2022', 'url': '/../docproveedores/REPORTE-CHILDREN-ZONE.pdf'}, {'year': '2023', 'url': '/../docproveedores/CCD Children Zone Inc 2023.pdf'}]"
Esc. Maternal Ángeles Pastor Pérez,787-858-2300 / 787-590-1332,Ave. Trio Vegabajeno Esp. Paseo Casimiro Ramos Vega,18.442411,-66.384178,"[{'year': '2021', 'url': '/../docproveedores/Resultado- Esc. Angeles Pastor 2021 Vega Baja.pdf'}, {'year': '2022', 'url': '/../docproveedores/REPORTE-ANGELES-PASTOR-VEGA-BAJA.pdf'}, {'year': '2023', 'url': '/../docproveedores/Resultado- Angeles Pastor Mun. Vega Baja 2023.pdf'}]"
Rosa Acevedo Feliciano(Red de Cuido Gurabo),787-349-5244,,18.256648,-65.973098,"[{'year': '2021', 'url': '/../docproveedores/Resultado- Rosa Acevedo Feliciano 2021.pdf'}, {'year': '2022', 'url': '/../docproveedores/REPORTE-Rosa-Acevedo-Feliciano-Red-de-Cuido-Gurabo.pdf'}]"
Centro Educativo Kiddy,787-761-2167,URB. VIEW GARDENS C/ANGUESIS 1772-74 SAN JUAN,18.369809,-66.032178,"[{'year': '2021', 'url': '/../docproveedores/Resultado- Educativo Kiddy 2021.pdf'}, {'year': '2022', 'url': '/../docproveedores/REPORTE-PREESCOLAR-KIDDY.pdf'}, {'year': '2023', 'url': '/../docproveedores/Resultado- Centro Educativo Kiddy 2023.pdf'}, {'year': '2024', 'url': '/../docproveedores/2024-Preescolar_Kiddy.pdf'}]"
Elizabeth Diaz Molina,787-328-7037,Sec. Abra sec. Carolina Carr 639 Sabana Hoyos Arecibo P.R. 00688,18.392141,-66.597015,"[{'year': '2022', 'url': '/../docproveedores/REPORTE-Elizabeth-Diaz-Molina.pdf'}]"
Pequeñines - Centro Educativo de Aprendizajes Múltiples (CEAM),787-750-0192,"Urb. El Comandante #981 Calle Carmen Hernández San Juan, Puerto Rico 00924",18.399474,-65.993619,"[{'year': '2021', 'url': '/../docproveedores/Resultado- Pequeñines Centro de Aprendizaje Mult. 2021.pdf'}, {'year': '2022', 'url': '/../docproveedores/REPORTE-PEQUENINES-CEAM.pdf'}, {'year': '2023', 'url': '/../docproveedores/Resultado- Pequeñines Centro de Aprendizaje Multiples 2023.pdf'}]"
Síndrome Down,787-283-8210,"Urb. Altamesa 1600 Calle Santa Rosa San Juan, Puerto Rico 00921",18.380073,-66.092528,"[{'year': '2021', 'url': '/../docproveedores/Sindrome Down 2021.pdf'}, {'year': '2022', 'url': '/../docproveedores/REPORTE-SINDROME-DOWN.pdf'}, {'year': '2023', 'url': '/../docproveedores/Sindrome Down 2023.pdf'}]"
Mun. Comerio Paraíso Infantil,787-875-1210,BO PALOMAS CARR 779 K.M 7.1 COMERIO,18.231393,-66.25764,"[{'year': '2021', 'url': '/../docproveedores/Resultado- Paraiso Infantil 2021-Comerio.pdf'}, {'year': '2022', 'url': '/../docproveedores/REPORTE-MUN.-COMERIO-PARAISO-INFANTIL.pdf'}, {'year': '2023', 'url': '/../docproveedores/Resultado- Paraiso Infantil 2023- Comerio.pdf'}]"
Alternative For Kids Day Care,(787)279-7200,URB ROYAL TOWN B 2 AVE LAS CUMBRES CARR 199 00956,18.382404,-66.156877,"[{'year': '2021', 'url': '/../docproveedores/Alternative for Kids Day Care 2021.pdf'}, {'year': '2022', 'url': '/../docproveedores/REPORTE-ALTERNATIVE-FOR-KIDS-DAY-CARE.pdf'}, {'year': '2023', 'url': '/../docproveedores/Alternative For Kids Day Care 2023.pdf'}, {'year': '2024', 'url': '/../docproveedores/2024-alternative-for-kids.pdf'}]"
Paraíso Infantil - Aguadilla,(787) 890-1059,Bo. Ceiba Alta Carretera 459 km 7.7 Interior Aguadilla,18.485719,-67.096951,"[{'year': '2021', 'url': '/../docproveedores/Resultado-Paraiso Infantil 2021-Aguadilla.pdf'}, {'year': '2022', 'url': '/../docproveedores/REPORTE-Paraiso-Infantil-1.pdf'}]"
Centrotech,787-244-5430,"Calle José De Diego #32 Cidra, Puerto Rico 00739",18.175744,-66.161302,"[{'year': '2022', 'url': '/../docproveedores/REPORTE-Centrotech.pdf'}, {'year': '2023', 'url': '/../docproveedores/Resultado - CentroTech 2023.pdf'}, {'year': '2024', 'url': '/../docproveedores/2024-CENTROTECH.pdf'}]"
Naguabo Child Care,787-874-2452 / 787-228-4580,"Urb. Diplo #1 Calle 10 Esq. 6 Naguabo, Puerto Rico 00718",18.203262,-65.737549,"[{'year': '2022', 'url': '/../docproveedores/REPORTE-Naguabo-Child-Care.pdf'}, {'year': '2023', 'url': '/../docproveedores/Naguabo Child Care 2023 08-24-2023-105644.pdf'}]"
Huellitas de Amor,(787)737-7333,ESQUINA LAGO #3 CALLE MATIAS GONZALEZ GARCIA 00778 GURABO,18.25662,-65.973158,"[{'year': '2021', 'url': '/../docproveedores/Resultado- Huellitas de Amor-2021 Gurabo.pdf'}, {'year': '2022', 'url': '/../docproveedores/REPORTE-Huellitas-de-Amor.pdf'}, {'year': '2023', 'url': '/../docproveedores/Resultado- Huellitas de Amor 2023.pdf'}]"
Los Primeritos,939-208-5259,Urb. Bajo Costo Calle Crisantemo D-5 las vegas 00963 Catanño,18.431926,-66.148156,"[{'year': '2021', 'url': '/../docproveedores/Municipio de Cataño 2021.pdf'}, {'year': '2022', 'url': '/../docproveedores/REPORTE-Municipio-de-Catano-Los-Primeritos.pdf'}, {'year': '2023', 'url': '/../docproveedores/Municipio de Cataño 2023.pdf'}]"
Pininos Day Care,(787)251-5816,Urb sierra Bayamón calle 14 bloque 14 numero 13 Bayamón,18.404426,-66.167075,"[{'year': '2022', 'url': '/../docproveedores/REPORTE-Pininos-Day-Care-and-Learning-Center-Inc.pdf'}, {'year': '2023', 'url': '/../docproveedores/Resultado-  Pininos Day Care 2023.pdf'}]"
Jardín Montessori,(787)607-6833,Urb. Mariolga X-7 Ave. Luis Muñoz Marín 00725 Caguas,18.214173,-66.036342,"[{'year': '2021', 'url': '/../docproveedores/Resultado- Jardin Montessori 2021-Caguas.pdf'}, {'year': '2022', 'url': '/../docproveedores/REPORTE-Jardin-Montessori.pdf'}, {'year': '2023', 'url': '/../docproveedores/Resultado-  Jardin Montessori 2023- Caguas.pdf'}, {'year': '2024', 'url': '/../docproveedores/2024-JARDIN MONTESSORI Caguas.pdf'}]"
Heavenly Kids II,787-843-7398,Urb Morel Campos Calle Viva La Pepa # 9 Ponce,18.015047,-66.634425,"[{'year': '2021', 'url': '/../docproveedores/Resultado- Heavenly Kids II 2021.pdf'}, {'year': '2022', 'url': '/../docproveedores/Informe-sobre-los-resultados-Salud-y-Seguridad-22-23-Heavenly-Kids-2-1.pdf'}, {'year': '2023', 'url': '/../docproveedores/Resultado- Heavenly Kids II 2023.pdf'}, {'year': '2024', 'url': '/../docproveedores/2024-heavenly-kids_ii.pdf'}]"
Heavenly Kids I,787-843-7398,Urb Morell Campos Calle Viva La Pepa # 9 Ponce,18.015047,-66.634425,"[{'year': '2021', 'url': '/../docproveedores/Resultado- Heavenly kids I 2021.pdf'}, {'year': '2022', 'url': '/../docproveedores/Informe-sobre-los-resultados-Salud-y-Seguridad-22-23-Heavenly-kids-I-1.pdf'}, {'year': '2023', 'url': '/../docproveedores/Resultado- Heavenly Kids I 2023.pdf'}, {'year': '2024', 'url': '/../docproveedores/2024-heavenly-kids_i.pdf'}]"
Regazo de Amor- Sor Isolina Ferrer,787-843-1910,Ave Hostos # 46 Ponce,17.981523,-66.62045,"[{'year': '2021', 'url': '/../docproveedores/Resultado-  Regazo de amor 2021 SIF.pdf'}, {'year': '2022', 'url': '/../docproveedores/Informe-sobre-los-resultados-Salud-y-Seguridad-22-23-Regazo-de-amor_-1.pdf'}, {'year': '2023', 'url': '/../docproveedores/Resultado- Regazo Amor 2023 - SIF.pdf'}]"
Huellitas Inc.,939-297-9250,Bo Amuelas Carr 510 KM 5.2 Juana Díaz,18.031798,-66.498116,"[{'year': '2021', 'url': '/../docproveedores/Resultado- Huellitas 2021 Ponce.pdf'}, {'year': '2022', 'url': '/../docproveedores/Informe-sobre-los-resultados-Salud-y-Seguridad-22-23-Huellitas_-1.pdf'}, {'year': '2023', 'url': '/../docproveedores/Resultado- Huellitas 2023 Ponce.pdf'}, {'year': '2024', 'url': '/../docproveedores/2024-huellitas-inc_.pdf'}]"
Mundo de Juguetes,939-304-0458,"Urb. Jardines de San Rafael Arecibo, PR 00613",18.452784,-66.755409,"[{'year': '2021', 'url': '/../docproveedores/Resultado-  Mundo de Juguetes 2021.pdf'}, {'year': '2022', 'url': '/../docproveedores/REPORTE-Mundo-de-Juguetes.pdf'}, {'year': '2023', 'url': '/../docproveedores/Resultado- Mundo de Juguetes 2023.pdf'}, {'year': '2024', 'url': '/../docproveedores/04-2024 Mundo de Juguetes.pdf'}]"
Emely Maldonado Lagares,787-664-2753,Florida,0,0,"[{'year': '2022', 'url': '/../docproveedores/REPORTE-Emely-Maldonado-Lagares (1).pdf'}]"
Chiquititos Cendi Inc.,787-735-3755,Carr 718 Km 10 Pasto Aibonito,18.114174,-66.260686,"[{'year': '2021', 'url': '/../docproveedores/Resultado- Chiquititos Cendi 2021.pdf'}, {'year': '2022', 'url': '/../docproveedores/Resultado- Chiquititos Cendi 2022.pdf'}]"
Endaris Daycare,787-279-2007,Ave. Las Cumbres 026 San Souci 00956 Bayamón,18.364626,-66.180742,"[{'year': '2021', 'url': '/../docproveedores/Resultado-  Endaris Day Care 2021.pdf'}, {'year': '2022', 'url': '/../docproveedores/REPORTE-Endaris-Daycare-_-Learning-Center.pdf'}, {'year': '2023', 'url': '/../docproveedores/Resultado- Endaris 2023.pdf'}]"
Garbidalis Bilingual School,393-230-2099,Bo Llanos Adentro Carr 725 Km 30 Interior,18.164656,-66.2817,"[{'year': '2021', 'url': '/../docproveedores/Resultado-  Garbidalis 2022.pdf'}, {'year': '2022', 'url': '/../docproveedores/Informe-sobre-los-resultados-Salud-y-Seguridad-2023-garbidalis-1.pdf'}, {'year': '2023', 'url': '/../docproveedores/Resultado- Garbidalis 2023.pdf'}]"
La casa de mamita,787-740-2062,Urb. Teresita calle 43 av – 5 Bayamon 00961,18.366559,-66.216952,"[{'year': '2021', 'url': '/../docproveedores/Resultado- La Casa de Mamita 2021.pdf'}, {'year': '2022', 'url': '/../docproveedores/REPORTE-La-Casa-de-Mamita.pdf'}]"
HCD Laura M. Rivera López,787-847-1359,Urb. Vista Bella Calle 5 D3 Villaba,18.35395,-66.191958,"[{'year': '2022', 'url': '/../docproveedores/Informe-de-Resultados-de-Hallazgos-de-HC-Laura-Day-Care-2023-1.pdf'}, {'year': '2024', 'url': '/../docproveedores/2024-Laura M. Rivera López.pdf'}]"
"Titi Millie Day Care, Inc",(787) 821-8903,"Barriada Esperanza Calle 2 # 52 Guánica, P.R. 00653",17.96836,-66.9047,"[{'year': '2021', 'url': '/../docproveedores/Resultado- Titi Millie Day Care 2021.pdf'}, {'year': '2022', 'url': '/../docproveedores/INF.-RESULTADOS-MONITORIA-TITI-MILLIE-DAY-CARE-12-12-22-1.pdf'}, {'year': '2023', 'url': '/../docproveedores/Resultado- Titi Millie Day Care 2023.pdf'}]"
San Sebastián Bilingual School and Sport Development Center,(787) 896-7573,Bo. Piedras Blancas Carretera 111 km 24.0 Interior,18.32848,-66.967279,"[{'year': '2022', 'url': '/../docproveedores/Resultadomonitoria-San-Sebastian-Bilingual-School-2023-1.pdf'}]"
Centro Educativo Paraíso Infantil INC.,(787) 890-1059,Carretera 459 km 7.7 Bo. Ceiba Alta,18.527165,-69.796688,"[{'year': '2022', 'url': '/../docproveedores/Resultadomonitoria-Paraiso-Infantil-2023-1.pdf'}]"
"Centro de Cuido MD, LLC",787-576-1765,Bo. Quebrada carr. 152 km 7.8 Barranquitas,18.485823,-67.096816,"[{'year': '2021', 'url': '/../docproveedores/Resultado- Centro de Cuido MD LLC 2021.pdf'}, {'year': '2022', 'url': '/../docproveedores/Informe-de-Resultados-de-Hallazgos-del-Centro-de-Cuidado-MD.LLC_-1.pdf'}, {'year': '2024', 'url': '/../docproveedores/2024-Maestra Diana MD LL.pdf'}]"
"Ángel De La Guarda, Inc",(787) 280-6524,Carretera 111 Int. 421 Bo. Hato Arriba,18.459224,-69.944705,"[{'year': '2021', 'url': '/../docproveedores/Resultado- Angel de Guarda 2021.pdf'}, {'year': '2022', 'url': '/../docproveedores/INF-RESULTADOS-DE-MONITORIA-ANGEL-DE-LA-GUARDA-20-12-22-1.pdf'}]"
Flor de Loto Montessori,939-235-1439,Calle Atocha Esquina Victoria #87,18.015003,-66.613914,"[{'year': '2022', 'url': '/../docproveedores/RESULTADOS-MONITORIA-DE-SALUD-Y-SEGURIDAD-Flor-de-Loto-Montessori-1.pdf'}]"
Colorin Colorado,787-918-8711,Ave. Winston Churchill #285 Urb. El Señorial,18.364427,-66.058774,"[{'year': '2021', 'url': '/../docproveedores/Resultado- Colorin Colorado 2021.pdf'}, {'year': '2023', 'url': '/../docproveedores/RESULTADOS-MONITORIA-DE-SALUD-Y-SEGURIDAD-COLORIN-COLORADO-ENERO-2023-1.pdf'}, {'year': '2024', 'url': '/../docproveedores/2024-Colorin Colorado.pdf'}]"
Mundo Infantil INC.,(787)832-7311,Avenida Teresa Journet #650 Mayaguez,18.404772,-66.166257,"[{'year': '2021', 'url': '/../docproveedores/Resultado-  Mundo Infantil 2021- Mayaguez.pdf'}, {'year': '2022', 'url': '/../docproveedores/Resultado-  Mundo Infantil 2022- Mayaguez.pdf'}, {'year': '2023', 'url': '/../docproveedores/Resultadomonitoria-Mundo-Infantil-2023-1.pdf'}, {'year': '2024', 'url': '/../docproveedores/01-2024 Mundo Infantil.pdf'}]"
Centro Desarrollo Infantil AEIOU,787-782-7408 / 787-900-4884,204 Urb. Villa Caparra carr # 2 Guaynabo,18.40464,-66.11429,"[{'year': '2023', 'url': '/../docproveedores/RESULTADOS-MONITORIA-DE-SALUD-Y-SEGURIDAD-CENTRO-DESARROLLO-AEIOU-ENERO-2023-2.pdf'}, {'year': '2024', 'url': '/../docproveedores/2024-CENTRO DE DESARROLLO INFANTIL AEIOU.pdf'}, {'year': '2024', 'url': '/../docproveedores/2024-Centrode_Desarrollo_Infantil_AEIOU.pdf'}]"
Pre Escolar San Juan Evangelista,787-781-5325,Urb. Torrimar J5 calle Churchill Hill,18.386688,-66.110749,"[{'year': '2021', 'url': '/../docproveedores/Resultado- Preescolar San Juan Evangelista 2021.pdf'}, {'year': '2023', 'url': '/../docproveedores/RESULTADOS-MONITORIA-DE-SALUD-Y-SEGURIDAD-SAN-JUAN-EVANGELISTA-ENERO-2023-1.pdf'}]"
Municipio de Rincón - Rincón Infantil,(787) 823-7888,Carretera 429 km 2.2 Bo. Barrero,18.302861,-67.236993,"[{'year': '2022', 'url': '/../docproveedores/Resultado-  Rincon Infantil-Mun. de Rincón 2022.pdf'}, {'year': '2023', 'url': '/../docproveedores/Resultadomonitoria-Municipio-de-Rincon-2023-1.pdf'}, {'year': '2024', 'url': '/../docproveedores/01-2024 Municipio de Rincon  Rincon Infantil.pdf'}]"
Centro de Desarrollo Deportivo y Educativo,(787) 818-3450,Calle Ernesto Caban Esquina 110 Barrio Pueblo,18.39065,-67.114709,"[{'year': '2022', 'url': '/../docproveedores/Resultado- Deportivo y Educativo DEDI 2022.pdf'}, {'year': '2023', 'url': '/../docproveedores/Resultadomonitoria-DEDI-2023-1.pdf'}, {'year': '2024', 'url': '/../docproveedores/01-24 DEDI.pdf'}]"
ABC Huellitas INC.,787554-2012,Carretera 108 km 3.2 Sector Pitillo,18.233821,-67.140941,"[{'year': '2021', 'url': '/../docproveedores/Resultado- ABC Hueliitas 2021-Mayaguez.pdf'}, {'year': '2022', 'url': '/../docproveedores/Resultado- ABC Huellitas 2022- Mayaguez.pdf'}, {'year': '2023', 'url': '/../docproveedores/Resultadomonitoria-ABC-Huellitas-2023-1.pdf'}, {'year': '2024', 'url': '/../docproveedores/2024-ABC HUELLITAS DAY CARE CENTER.pdf'}]"
Municipio de Isabela - Pequeño Saltarines,(787)872-2100 ext. 4121,Calle Barbosa Edifico #57 Isabela Pueblo,18.50051,-67.022302,"[{'year': '2021', 'url': '/../docproveedores/Resultado-Mun. de Isabela- Pequeños Saltarines 2021.pdf'}, {'year': '2022', 'url': '/../docproveedores/Resultado-Mun. de Isabela- Pequeños Saltarines 2022.pdf'}, {'year': '2023', 'url': '/../docproveedores/Resultadomonitoria-Municipio-de-Isabela-2023-1.pdf'}, {'year': '2024', 'url': '/../docproveedores/01-2024 Municipio de Isabela Pequeños Saltarines.pdf'}]"
AYANI - Aguadilla,787-819-8009,Carr. # 2 Km. 120.7 Caimital Alto Aguadilla,18.42745,-67.15407,"[{'year': '2021', 'url': '/../docproveedores/Resultado- Ayani Aguadilla 2021.pdf'}, {'year': '2022', 'url': '/../docproveedores/Resultado- Ayani Aguadilla 2022.pdf'}, {'year': '2023', 'url': '/../docproveedores/Informe-Resultados-AYANI-Aguadilla-1.pdf'}]"
Regalos de Amor,787-849-1233,Calle Comercio # 35 Urb. Verdúm Hormigueros,18.413547,-66.092067,"[{'year': '2021', 'url': '/../docproveedores/Resultado- Regalos de Amor- Hormigueros 2021.pdf'}, {'year': '2022', 'url': '/../docproveedores/REPORTE-Regalos-de-Amor.pdf'}]"
"Academia El Principito, Inc.",(787) 849-4141,"José A. Mullet # 3 Hormigueros, P.R. 00660",18.139988,-67.127922,"[{'year': '2021', 'url': '/../docproveedores/Resultado- El Principito 2021 Hormigueros.pdf'}, {'year': '2023', 'url': '/../docproveedores/INF-RESULTADOS-DE-MONITORIA-EL-PRINCIPITO-07-02-2023-1.pdf'}, {'year': '2024', 'url': '/../docproveedores/RESULTADOS DE MONITORIA EL PRINCIPITO (7-FEB-2024) CORREGIDO.pdf'}]"
Dulces Sueños,787-828-0923,Sector Santa Clara carr 14 km 3.5 Jayuya,18.217328,-66.602835,"[{'year': '2021', 'url': '/../docproveedores/Resultado- Mun. Jayuya- Dulces Sueños 2021.pdf'}, {'year': '2022', 'url': '/../docproveedores/Resultado-  Mun Jayuya Dulces Sueños 2022.pdf'}, {'year': '2023', 'url': '/../docproveedores/Informe-de-Resultados-de-Hallazgos-del-Centro-Dulces-Suenos-Jayuya-2023-1.pdf'}]"
Municipio de Aguada - Pasitos,787868-8212,Bo. Piedras Blancas Carretera 411 km 1 Interior,0,0,"[{'year': '2021', 'url': '/../docproveedores/Resultado- Mun. de Aguada Pasitos 2022.pdf'}, {'year': '2023', 'url': '/../docproveedores/Resultadomonitoria-Municipio-de-Aguada-2023-2.pdf'}, {'year': '2024', 'url': '/../docproveedores/02-2024 Municipio de Aguada.pdf'}]"
Red de Hogares Aguada,(787) 868-8212,Aguada,0,0,"[{'year': '2022', 'url': '/../docproveedores/Resultado- Mun. de Aguada Pasitos 2022.pdf'}, {'year': '2023', 'url': '/../docproveedores/Resultadomonitoria-HCD-Luz-I-Morales-Alers-Red-Aguada-2023-1.pdf'}]"
Municipio de Hormigueros - Valle Infantil,(787) 849-4141,"Carretera 344 2.4 Int. Sector Bracero Carretera Nueva Hormigueros, P.R. 00660",0,0,"[{'year': '2021', 'url': '/../docproveedores/Resultado- Valle Infantil Mun. Hormigueros 2021.pdf'}, {'year': '2022', 'url': '/../docproveedores/Resultado- Valle Infantil Mun. Hormigueros 2022.pdf'}, {'year': '2023', 'url': '/../docproveedores/INF-RESULTADOS-MONITORIA-MUN-HORMIGUEROS-VALLE-INFANTIL-12-02-23-1.pdf'}, {'year': '2024', 'url': '/../docproveedores/RESULTADOS DE MONITORIA VALLE INFANTIL (13-FEB-2024).pdf'}]"
Mis Primeros Pasos,787-839-3500 ext. 391,Bo. Pitahaya sector cuatro calles carr 3 Int 753 Arroyo,18.376282,-65.803356,"[{'year': '2021', 'url': '/../docproveedores/Resultado - Mis Primeros Pasos Mun. Arroyo  2021.pdf'}, {'year': '2022', 'url': '/../docproveedores/Resultado- Mis Primeros Pasos  Mun. Arroyo Febrero 2022.pdf'}, {'year': '2023', 'url': '/../docproveedores/Informe-de-Resultados-de-Hallazgos-del-Centro-Mis-Primeros-Pasos-2023-1.pdf'}]"
Semillitas de Amor,787-806-8337,53 Calle Ernesto Ramos Antonini Mayagüez,18.200952,-67.143185,"[{'year': '2022', 'url': '/../docproveedores/REPORTE-Semillitas-de-Amor.pdf'}]"
"Gotitas de Amor, Inc",787-284-1414,Urb. Perla del Sur Calle Comparza 2508 Ponce,17.996791,-66.624947,"[{'year': '2021', 'url': '/../docproveedores/Resultado- Gotitas de Amor 2021.pdf'}, {'year': '2022', 'url': '/../docproveedores/Resultado-  Gotitas de Amor 2022.pdf'}, {'year': '2023', 'url': '/../docproveedores/Informe-de-Resultados-de-Hallazgos-Gotitas-de-Amor-Inc.-2023-1.pdf'}]"
CCD Arrullo Maternal,939-257-2377,Carr 155 km 25.8 salida a Coamo Orocovis,18.21602,-66.39569,"[{'year': '2021', 'url': '/../docproveedores/Resultado- Arrullo Maternal 2021.pdf'}, {'year': '2022', 'url': '/../docproveedores/Resultado - Arrullo maternal 2022.pdf'}, {'year': '2023', 'url': '/../docproveedores/Informe-sobre-los-resultados-Salud-y-Seguridad-2023-Arrullo-Maternal-1.pdf'}, {'year': '2024', 'url': '/../docproveedores/2024 ArrulloMaternal.pdf'}]"
Municipio Sabana Grande Aurea Esther Negrón,(787) 873-5247,"Avenida 5 de diciembre # 151 Sabana Grande, P.R. 00637",18.079505,-66.97343,"[{'year': '2023', 'url': '/../docproveedores/INF-RESULTADOS-DE-MONITORIA-MUN-SABANA-GRANDE-AEN-27-02-23-1.pdf'}]"
Centro Santa Maria Virgen,787-235-9209,Bda. Clausell Calle Central #15 Ponce,18.011376,-66.629833,"[{'year': '2022', 'url': '/../docproveedores/Resultado-  Santa Maria SSEI de Ponce 2022.pdf'}, {'year': '2023', 'url': '/../docproveedores/Informe-de-Resultados-de-Hallazgos-de-Santa-maria-Virgen-Care-2023-1.pdf'}, {'year': '2024', 'url': '/../docproveedores/2024-Santa Maria Virgen SSEI.pdf'}]"
"Cinderella Nursey Day Care Center, Inc.",(787) 834-3770,"Calle Coqui #720 Miradero Gardens, Mayaguez",18.225639,-67.148035,"[{'year': '2023', 'url': '/../docproveedores/INF-RESULTADOS-DE-MONITORIA-CINDERELLA-28-02-23-1.pdf'}, {'year': '2024', 'url': '/../docproveedores/2024 CINDERELLA (05-03-2024).pdf'}]"
Vicenta Rodriguez Rodriguez,787-512-2688,Bo. San Antón calle Sergio Collazo 235,18.000525,-66.603858,"[{'year': '2021', 'url': '/../docproveedores/Resultado-  Vicenta Rodriguez 2021.pdf'}, {'year': '2022', 'url': '/../docproveedores/Resultado- Vicenta Rodríguez 2022.pdf'}, {'year': '2023', 'url': '/../docproveedores/Informe-sobre-los-resultados-Salud-y-Seguridad-Vicenta-Rodriguez-Rodriguez-2023-1.pdf'}]"
HDC Marisol Echevarría Echevarría,939-639-8088,Aguada,0,0,"[{'year': '2021', 'url': '/../docproveedores/REPORTE-HCD-Marisol-Echevarria-Echevarria.pdf'}, {'year': '2022', 'url': '/../docproveedores/HCD MARISOL ECHEVARRIA 2022.pdf'}, {'year': '2023', 'url': '/../docproveedores/HCD MARISOL ECHEVARRIA 2023.pdf'}, {'year': '2024', 'url': '/../docproveedores/02-2024 Red Aguada HCD Marisol Echevarria Echevarria.pdf'}]"
Jardín de Párvulos,787-892-4920,Carr. #329 Km/ 1.9 Minillas Valle San German,0,0,"[{'year': '2021', 'url': '/../docproveedores/Resultado-Jardin de Parvulos PR Special  2021.pdf'}, {'year': '2022', 'url': '/../docproveedores/REPORTE-Jardin-de-Parvulos.pdf'}]"
Diversión y Enseñanza,787-841-2068,Ave. Muñoz Rivera 1587 Ponce,18.00596,-66.620466,"[{'year': '2022', 'url': '/../docproveedores/REPORTE-DIVERSION-Y-ENSENANZA.pdf'}]"
Asturias Little School and Nursery,787-776-3844,Villa Fontana vía Emilia CL-5,18.400531,-65.967399,"[{'year': '2023', 'url': '/../docproveedores/ASTURIAS-2023-1.pdf'}]"
Esc. Maternal Angeles Pastor,(787) 858-2300 / (787) 590-1332,Ave. Trío Vegabajeño Esq. Paseo Casimiro Ramos,18.442419,-66.384216,"[{'year': '2022', 'url': '/../docproveedores/Resultado- Escuela Angeles Pastor Vega Baja 2022.pdf'}, {'year': '2023', 'url': '/../docproveedores/MATERNAL-ANGELES-PASTOR-RESULTADOS-MONITORIA-DE-SALUD-Y-SEGURIDAD-1.pdf'}]"
Castillo Infantil,787-255-4550,Carr. # 311 Km. 0.6 Sabana Alta Cabo Rojo,18.119034, -67.157861,"[{'year': '2021', 'url': '/../docproveedores/REPORTE-Castillo-Infantil-Mun.-de-Cabo-Rojo.pdf'}]"
Wonder Kids Center,(787) 9518691,"Carretera 368 Int. 2.1 Barrio Machuchal Sabana Grande, P.R. 00637",18.065377,-66.932423,"[{'year': '2023', 'url': '/../docproveedores/INF-RESULTADOS-DE-MONITORIA-WONDER-KIDS-CENTER-15-03-23-1.pdf'}]"
My Little College,787-553-7930,Bo. Romero carretera 149 km 62.9 Villalba,18.132649,-66.505255,"[{'year': '2021', 'url': '/../docproveedores/Resultado- My Little College 2021.pdf'}, {'year': '2022', 'url': '/../docproveedores/Resultado- My Little college 2022.pdf'}, {'year': '2023', 'url': '/../docproveedores/Informe-de-Resultados-de-Hallazgos-del-Centro-Little-College-2023-1.pdf'}, {'year': '2024', 'url': '/../docproveedores/2024-My Little College.pdf'}]"
Lion King,787-826-0580,Carr. # 109 Km 1.3 Sector Pozo Hondo Añasco,18.279281,-67.145969,"[{'year': '2021', 'url': '/../docproveedores/Resultado- Lion King 2021.pdf'}, {'year': '2022', 'url': '/../docproveedores/REPORTE-CCD-Lion-King-Mun.-Anasco.pdf'}, {'year': '2023', 'url': '/../docproveedores/Resultado -Lion King Mun. Añasco 2023.pdf'}]"
"Little Paradise School and Day Care, Inc.",(787) 818-0000,"Carretera 111 Km 6.3 Barrio Voladoras Moca, P.R. 00676",18.386696,-67.096514,"[{'year': '2022', 'url': '/../docproveedores/Resultado-Little Paradise 2022.pdf'}, {'year': '2023', 'url': '/../docproveedores/INF-RESULTADOS-DE-MONITORIA-LITTLE-PARADISE-20-03-23-1.pdf'}, {'year': '2024', 'url': '/../docproveedores/2024 LITTLE PARADISE (20-03-2024).pdf'}]"
Centro Cuidado Amor 2,939-238-6468,Bo. Quebradillas carr 152 km 3.9,18.201013,-66.276264,"[{'year': '2022', 'url': '/../docproveedores/Resultado- Cuidado Amor 2 2022.pdf'}, {'year': '2023', 'url': '/../docproveedores/Informe-sobre-los-resultados-Salud-y-Seguridad-Centro-Cuidado-AMor-2-2023-1.pdf'}]"
Milagros Fernández González,(939) 286-9670,"104 Calle Simón Carlo Mayagüez, P. R. 00682-3136",0,0,"[{'year': '2021', 'url': '/../docproveedores/Resultado- Milagros Fernández González 2021.pdf'}, {'year': '2022', 'url': '/../docproveedores/REPORTE-Milagros-Fernandez-Gonzalez.pdf'}, {'year': '2023', 'url': '/../docproveedores/Resultado- Proveedor Exento Milagros Fernandez.pdf'}]"
"Centro Educativo Caritas Felices, Inc.",(787) 675-0424,"105 Calle José Calazán Lassalle Moca, P.R. 00676",18.395923,-67.113791,"[{'year': '2022', 'url': '/../docproveedores/REPORTE-Centro-Educativo-Caritas-Felices-Inc.pdf'}, {'year': '2023', 'url': '/../docproveedores/INFORME-DE-MONITORIA-CARITAS-FELICES-02-05-23-1.pdf'}]"
Red de Cuido COSIANI,,,0,0,"[{'year': '2023', 'url': '/../docproveedores/Resultadomonitoria-Hogar-de-cuido-Sedney-Olivencia-Marchany-2023-2.pdf'}]"
Johan Batiz Parrilla,,Ponce,0,0,"[{'year': '2022', 'url': '/../docproveedores/Resultado-  Johan Batiz 2022.pdf'}, {'year': '2023', 'url': '/../docproveedores/Informe-de-resulatdos-2023-Johan-Batiz-Parrilla-1.pdf'}]"
Aladdin Preschool & Day Care,(787) 951-6690,"Calle Ramon E. Betances # 114, Mayaguez",18.204195,-67.140562,"[{'year': '2022', 'url': '/../docproveedores/Resultado-  Aladdin Preschool Day Care 2022.pdf'}, {'year': '2023', 'url': '/../docproveedores/Resultadomonitoria-Aladdin-Preschool-2023-1.pdf'}, {'year': '2024', 'url': '/../docproveedores/2024-aladdin-preschool-and-day-care-center.pdf'}]"
Municipio de Guánica,787543-9552,Ramal 116 km 0.3 Guánica,0,0,"[{'year': '2021', 'url': '/../docproveedores/Resultado- Mun. de Guanica 2021.pdf'}, {'year': '2022', 'url': '/../docproveedores/Resultado- Municipio de Guanica 2022.pdf'}, {'year': '2023', 'url': '/../docproveedores/11-2023 Municipio de Guanica.pdf'}]"
Levittown Academy And Learning Center,787-399-9661,Ave. Boulevard P. 1447 Levittown Lakes Toa Baja 00949,18.449892,-66.18129,"[{'year': '2023', 'url': '/../docproveedores/Resultado- Levittown Academy and Learning Center 2023.pdf'}]"
Dream Makers Daycare & Preschool,787-630-9005 / 939-232-8634,"LL-12 Calle 30, Urb. Santa Juanita, PR 00956",18.371172,-66.162474,"[{'year': '2021', 'url': '/../docproveedores/Resultado-DREAM MAKER DAY CARE 2021.pdf'}, {'year': '2023', 'url': '/../docproveedores/Resultado-DREAM MAKER DAY CARE 2023 sept 27.pdf'}]"
Centro Guayacan Municipio de Carolina,787-757-2626,"Calle Fernandez Juncos Casa Alcaldia Piso 1 Carolina, PR 00987",18.405018,-65.953866,"[{'year': '2021', 'url': '/../docproveedores/Resultado-Centro Guayacan Municipio de Carolina 2021.pdf'}, {'year': '2023', 'url': '/../docproveedores/Resultado-Centro Guayacan Municipio de Carolina 2023.pdf'}]"
Kelvin Kids World,787-796-9277,"Comunidad Los Puertos Carr. 691 Km 3.9 Dorado, PR",18.439087,-66.303411,"[{'year': '2023', 'url': '/../docproveedores/Resultado-Kelvin Kids World 2023.pdf'}]"
Manos y Manitas,787-656-7377,carr. # 33 km 9.3 Bo. Candelario Humacao,18.104696,-65.824058,"[{'year': '2023', 'url': '/../docproveedores/Resultado- MANOS Y MANITAS - 2023.pdf'}]"
Happy Land Day Care and School 1,939-301-2837,"Carr. 164 Km. 14.4, Bo. Palmarejo",18.327026,-66.296471,"[{'year': '2021', 'url': '/../docproveedores/HAPPYLAND DAY CARE AND SCHOOL I 2022.pdf'}, {'year': '2023', 'url': '/../docproveedores/HAPPYLAND DAY CARE AND SCHOOL I 2023-ACUDENCCCE8581.pdf'}, {'year': '2024', 'url': '/../docproveedores/2024-HappyLandaDay_Care-Corozal.pdf'}]"
CCD Step By Step,787-858-1265,"Urb San Vicente, 2 Numero 22, Vega Baja, PR 00693",18.454965,-66.386165,"[{'year': '2021', 'url': '/../docproveedores/STEP BY STEP 1 2021.pdf'}, {'year': '2022', 'url': '/../docproveedores/STEP BY STEP 1 2022.pdf'}, {'year': '2023', 'url': '/../docproveedores/STEP BY STEP 1 2023.pdf'}]"
Step By Step 2,787-965-9009,"Urb San Vicente, Calle 22  Numero 243, Vega Baja, PR 00693",18.446189,-66.404022,"[{'year': '2023', 'url': '/../docproveedores/STEP BY STEP 2 2023.pdf'}]"
Karen Ortiz,787-242-0026,Guayanilla,0,0,"[{'year': '2023', 'url': '/../docproveedores/Resultado-Karen Ortiz 2023-Guayanilla.pdf'}]"
Katerina Bonilla Toro-Red Coamo,,Coamo,0,0,"[{'year': '2023', 'url': '/../docproveedores/Resultado- Katerina Bonilla Toro 2023-Coamo.pdf'}]"
Gelitz Alvarado Bermudez-Red Coamo,,Coamo,0,0,"[{'year': '2023', 'url': '/../docproveedores/Resultado-Gelitz Alvarado 2023-Coamo.pdf'}]"
CCD Tropico,787-780-3463,Calle Tilo EA-22-23-24 Urb. Los Almendros Bayamón PR 00961,18.419484,-66.161737,"[{'year': '2021', 'url': '/../docproveedores/Resultado- El Tropico 2021.pdf'}, {'year': '2023', 'url': '/../docproveedores/CCD TROPICO INC 2023.pdf'}, {'year': '2024', 'url': '/../docproveedores/2024-CCD El Tropico.pdf'}]"
Diana A Mercado Del Valle,,"Mayaguez, PR 00680",0,0,"[{'year': '2022', 'url': '/../docproveedores/Diana A. Mercado Del Valle 2022.pdf'}, {'year': '2023', 'url': '/../docproveedores/Diana A. Mercado Del Valle 2023.pdf'}, {'year': '2024', 'url': '/../docproveedores/Diana A. Mercado Del Valle 2024.pdf'}]"
Jacqueline López Feliciano,,"Hormigueros, Puerto Rico 00660",0,0,"[{'year': '2021', 'url': '/../docproveedores/Jacqueline López Feliciano 2021.pdf'}, {'year': '2022', 'url': '/../docproveedores/Jacqueline López Feliciano 2022.pdf'}, {'year': '2023', 'url': '/../docproveedores/Jacqueline López Feliciano 2023.pdf'}, {'year': '2024', 'url': '/../docproveedores/Jacqueline López Feliciano 2024.pdf'}]"
Joeli M. Mari González,,"Hormigueros, Puerto Rico 00660",0,0,"[{'year': '2021', 'url': '/../docproveedores/Joely M. Mari González 2021.pdf'}, {'year': '2022', 'url': '/../docproveedores/Joely M. Mari González 2022.pdf'}, {'year': '2023', 'url': '/../docproveedores/Joely M. Mari González 2023.pdf'}, {'year': '2024', 'url': '/../docproveedores/Joely M. Mari Gonzalez 2024.pdf'}]"
Dejando Huellas,787-881-5879,Villa Los Santos Calle 14 DD 41,18.4645033,-66.7411183,"[{'year': '2021', 'url': '/../docproveedores/2021 Dejando Huellas-Arecibo.pdf'}, {'year': '2022', 'url': '/../docproveedores/2022 Dejando Huellas.pdf'}, {'year': '2023', 'url': '/../docproveedores/2023 Dejando Huellas-Arecibo.pdf'}, {'year': '2024', 'url': '/../docproveedores/04-2024 Dejando Huellas.pdf'}]"
Generación Futura,787-331-5417,carr 371 km 14 bo. Almacigo Bajura,18.0478466,-66.8783817,"[{'year': '2024', 'url': '/../docproveedores/2024 Generación Futura.pdf'}]"
Brigth Litter Minds,787-356-1641,carr. 662 Km 1.9  Santana,18.4442158,-66.6592006,"[{'year': '2024', 'url': '/../docproveedores/4-2024 Brigth Litter Minds.pdf'}]"
Kids Paradise and Learning Center,787-607-4631,carr. 459 Bo. Jobos Sector Nieves,18.4951255,-67.0849852,"[{'year': '2024', 'url': '/../docproveedores/2024 Kids Paradise and Learning Center-Isabela.pdf'}]"
Colegio La Monserrate,787-849-1355,Bo. Jaguitas carr. 346 km 1.0,18.1382753,-67.1093574,"[{'year': '2024', 'url': '/../docproveedores/02-2024 Colegio La Monserrate.pdf'}]"
Desarrollo del Niño Amanecer,787-816-4040,carr. 129 Bo. Hato Arriba 96,18.4401385,-66.753593,"[{'year': '2024', 'url': '/../docproveedores/5-2024 Desarrollo Del Niño Amanecer.pdf'}]"
Koquimar Day Care,787-269-6768,Urb. Villa Contessa F-3 Calle Castilla,18.3823388,-66.1722767,"[{'year': '2024', 'url': '/../docproveedores/05-2024 Koquimar Day Care .pdf'}]"
Colegio Integración Educativa,787-918-8898,Urb. San Antonio Calle 9 F-12,18.2443356,-66.0323663,"[{'year': '2024', 'url': '/../docproveedores/2024 - CENTRO INTEGRACION EDUCATIVA (CIE) 2024.pdf'}]"
Centro Bo. Turabo - Caguas,787-744-1250,Carr.1 Km 40.2 Bo Turabo Abajo Sector Hacienda Ramonita,18.197511,-66.0583926,"[{'year': '2024', 'url': '/../docproveedores/2024-CENTRO BO. TURABO Caguas.pdf'}]"
Early Brain,787-486-1808,Urb La Esperanza calle 1 B-6,18.409272,-66.3083786,"[{'year': '2024', 'url': '/../docproveedores/2024-Early Brain.pdf'}]"
Academia Cristiana Hasiel,787-234-2773,Urb. Lomas Verdes Calle Coral 356,18.3765477,-66.1504953,"[{'year': '2024', 'url': '/../docproveedores/06-2024 Academia Cristiana Hasiel.pdf'}]"
San Justo Vidas SSE,787-479-9378,Carr. 848 km 1.1 Bo. Saint Just Trujillo Alto PR,18.3712002,-66.0141986,"[{'year': '2021', 'url': '/../docproveedores/2021-san-justo-vidas-sse.pdf'}, {'year': '2024', 'url': '/../docproveedores/2024-san-justo-vida-sse.pdf'}]"
CCD Mundo de Sueños-Guayanilla,787-698-1003,Carr. 132 k.m. 4.2 Bo. Macaná,18.0557397,-66.773714,"[{'year': '2024', 'url': '/../docproveedores/2024-mundo-de-suenos.pdf'}]"
COSIANI Kids,787-274-1998,Bo. Candelaria Arenas Calle Tabonuco Solar D,18.4179954,-66.2180657,"[{'year': '2024', 'url': '/../docproveedores/2024-cosiani-kids.pdf'}]"
Rayitos de Sol,787-708-8114,Urb. Muñoz Rivera calle Crisálida #23,18.3790791,-66.1056279,"[{'year': '2024', 'url': '/../docproveedores/2024-rayitos-de-sol.pdf'}]"
Tesoritos Day Care,787-677-8654,Calle Campeche #167,18.0050725,-66.6135014,"[{'year': '2024', 'url': '/../docproveedores/2024-tesoritos-day-care.pdf'}]"
Tiny Footsteps,939-545-5442,Carr. 188 Bo. San Isidro KM 1.5,18.391899,-65.8957978,"[{'year': '2024', 'url': '/../docproveedores/2024-tiny-footsteps-nuevo-proveedor.pdf'}]"
Vicentita Deliz,787-895-7783,PR 113 KM 05 Bo. Terranova,18.4799801,-66.9644172,"[{'year': '2024', 'url': '/../docproveedores/2024-vicentita-deliz.pdf'}]"
First Step Center Corp,787-210-9442,Urb. Royal Town X 14 Calle 17,18.3656414,-66.1722712,"[{'year': '2024', 'url': '/../docproveedores/2024-first-step-center.pdf'}]"
Vidi Monserrat Albelo Rosas,,"Mayaguez, PR 00680",0,0,"[{'year': '2024', 'url': '/../docproveedores/2024-Vidi_Monserrat_Albelo_Rosas.pdf'}]"
CCD Bosque Infantil Alyaner Inc.,787-615-7310,Bo. Palmer carr. 191 km 1.1,18.3617377,-65.7685834,"[{'year': '2022', 'url': '/../docproveedores/2022-CCD_Bosque_Infantil_Alyaner.pdf'}]"
El Triunfo Inc.,787-771-4420,Urb.  Del Carmen calle Los Ángeles #1020,18.3990875,-66.0406195,"[{'year': '2022', 'url': '/../docproveedores/2022-El_Triunfo.pdf'}, {'year': '2023', 'url': '/../docproveedores/2023-El_Triunfo.pdf'}, {'year': '2024', 'url': '/../docproveedores/2024-El_Triunfo.pdf'}]"
AYANI Camuy,787-544-4017,Calle Muños Rivera 58,18.4835797,-66.843181,"[{'year': '2021', 'url': '/../docproveedores/2021-Ayani_Camuy.pdf'}, {'year': '2022', 'url': '/../docproveedores/2022-Ayani_Camuy.pdf'}, {'year': '2023', 'url': '/../docproveedores/2023-Ayani_Camuy.pdf'}]"
Colegio Maria Auxiliadora - Carolina,787-762-0350,AVE SANCHEZ CASTANO BLQ 122 42A VILLA CAROLINA,18.3974272,-65.9642088,"[{'year': '2024', 'url': '/../docproveedores/2024-COLEGIO_MARIA_AUXILIADORA_CAROLINA_PR.pdf'}]"
YMCA de San Juan,787-728-7200,800 Boulevard Sagrado Corazón Esq. Angeles suite 32,18.4364731,-66.0654401,"[{'year': '2022', 'url': '/../docproveedores/2022-YMCA_SAN_JUAN.pdf'}, {'year': '2023', 'url': '/../docproveedores/2023-YMCA_San_Juan.pdf'}, {'year': '2024', 'url': '/../docproveedores/2024-YMCA_San_Juan.pdf'}]"
Andarines Day Care,787-354-4847,1107 Calle Padres Capuchinos Rio Piedras,18.3980058,-66.0472788,"[{'year': '2024', 'url': '/../docproveedores/2024-Andarines_Day_Care.pdf'}]"
CCD OT Community School,787-200-0567,Urb. San Martin 1232 calle julian bengochea,18.3934406,-66.0024795,"[{'year': '2024', 'url': '/../docproveedores/2024-CCD_OT_Community_School.pdf'}]"
Centro Esperanza Loiza,787-876-3389,Po Box 482,18.4291861,-65.8456881,"[{'year': '2024', 'url': '/../docproveedores/2024-CENTRO_ESPERANZA_LOIZA.pdf'}]"
Montessori del Valle,787-612-7072,Calle Este Solar 6 B Ext. El Verde Sur,18.22169,-66.0380219,"[{'year': '2024', 'url': '/../docproveedores/2024-Montessori_del_Valle.pdf'}]"
EsenciArt Performance Early Chilhood Center,787-368-3515,Urb. San Gerardo Calle Pasadena #320,18.3874651,-66.0895577,"[{'year': '2024', 'url': '/../docproveedores/2024-ESENCIART_PERFORMANCE.pdf'}]"
Carmen T. Ocana,,Vega Alta,0,0,"[{'year': '2024', 'url': '/../docproveedores/2024-Carmen_T_Ocana_Atiles.pdf'}]"
Saltarines,787-451-5544,Urb. Paseo Reales Calle 2 Blq. 1 Casa 751,18.4447989,-66.6481012,"[{'year': '2023', 'url': '/../docproveedores/2023-Saltarines.pdf'}, {'year': '2024', 'url': '/../docproveedores/2024-Saltarines.pdf'}]"
"Lovely Little Einstein, Inc.",787-723-1500,549 Calle Hoare,18.4552755,-66.0824187,"[{'year': '2024', 'url': '/../docproveedores/2024-LovelyLittle_Einsteins.pdf'}]"
Santa Luisa- New York Foundling,787-414-6012,Ave. Ponce de Leon 1744,18.4419425,-66.0655401,"[{'year': '2024', 'url': '/../docproveedores/2024-Santa_Luisa_NY_Foundling.pdf'}]"
Red por los Derechos de la Niñez de PR (Alegría),787-952-3302,Ave. Barbosa #608 Barrio Obrero,18.2479521,-65.9232174,"[{'year': '2024', 'url': '/../docproveedores/2024-Redpor_los_derechos_de_la_Ninez_y_la_junventud_de_PR-Alegria.pdf'}]"
Red por los Derechos de la Niñez de PR (Centro Amor,787-952-3303,Calle San Antonio Final Esq. Ave. Haydee Rexach Barrio Obrero,18.2479521,-65.9232174,"[{'year': '2024', 'url': '/../docproveedores/2024-Redpor_derechos_de_la_ninez_y_la_juventud-Centro_Amor.pdf'}]"
Red por los Derechos de la Niñez de PR (Equidad),787-952-3304,Bo. Obrero 2do piso Centro de Serv. Múltiples de Bo. Obrero Ave. Borinquen,18.2479521,-65.9232174,"[{'year': '2024', 'url': '/../docproveedores/2024-Redpor_los_derechos_de_la_Ninez_y_la_juventud_de_PR-Equidad.pdf'}]"
Little Clover Enrichment Center,787-864-7630,27 Calle Eugenio Maria de Hostos,17.9868325,-66.1132739,"[{'year': '2024', 'url': '/../docproveedores/2024-Littleclover.pdf'}]"
Academia Mundo Educativo,939-419-8862,Urb. Portal del la Reina 165 Calle Princesa,18.0149152,-66.3812851,"[{'year': '2024', 'url': '/../docproveedores/2024-Mundo_educativo_2024.pdf'}]"
