[{"uuid": "AF352A7B-E75E-4399-8A65-0F7333AE5842", "name": "2 Grandma's House", "number": "PV109736", "street": "**********", "state": "MT", "city": "Helena", "zip": "59602"}, {"uuid": "2E3D1822-BBF1-46F5-BBA5-C533D53982F7", "name": "3 R's Early Education Center, LLC", "number": "PV76639", "street": "*******************", "state": "MT", "city": "Helena", "zip": "59601"}, {"uuid": "E5B2E4BA-2689-49AC-8124-22420EA9825D", "name": "3R's Kids Academy", "number": "PV110390", "street": "********************", "state": "MT", "city": "Helena", "zip": "59601"}, {"uuid": "8984D5DA-DCE4-4D0E-BFC4-A8FC99FE5870", "name": "A Andersen / BRB Preschool", "number": "PV109060", "street": "****************", "state": "MT", "city": "Great Falls", "zip": "59404"}, {"uuid": "A78F57AB-8E43-405A-84A8-50F92EDB1BFD", "name": "A Angell / Reading to Leading Childcare", "number": "PV108731", "street": "***************", "state": "MT", "city": "Billings", "zip": "59105"}, {"uuid": "70F9A35A-4004-4BA5-8FE2-BEFF4F45B153", "name": "A Kids Nest Childcare LLC", "number": "PV109893", "street": "*************", "state": "MT", "city": "Great Falls", "zip": "59405"}, {"uuid": "1B21D62E-9EB7-4705-B2B1-5696B81F925F", "name": "A Little Journey Montessori School", "number": "PV108948", "street": "******************", "state": "MT", "city": "Bozeman", "zip": "59718"}, {"uuid": "8DF8A60F-D1FA-423E-9E6C-816DAD7A9A9D", "name": "AAKids Creations", "number": "PV110296", "street": "********************", "state": "MT", "city": "Lewistown", "zip": "59457"}, {"uuid": "E1B484F4-9783-4093-B538-E866CA8231CE", "name": "ABC Academy/ Tasha Van Nice", "number": "PV105396", "street": "******************", "state": "MT", "city": "Helena", "zip": "59602"}, {"uuid": "E0DA481C-A193-48A9-B921-0C6A9D79E8A8", "name": "ABCDino Academy Bozeman", "number": "PV110037", "street": "**************", "state": "MT", "city": "Bozeman", "zip": "59715"}, {"uuid": "A3BA006E-0878-4817-A13B-06929D8F8923", "name": "Action Head Start Glendive", "number": "PV108847", "street": "******************", "state": "MT", "city": "Glendive", "zip": "59330"}, {"uuid": "E08C1C9D-637A-4A4B-B61D-CA446F6E14BE", "name": "Ada Freison / Rising Lotus Childcare", "number": "PV108439", "street": "*******************", "state": "MT", "city": "Billings", "zip": "59102"}, {"uuid": "5D56BF6D-45D0-43F5-844F-F3087AA1C629", "name": "AEM Head Start Glasgow", "number": "PV107770", "street": "*************", "state": "MT", "city": "Glasgow", "zip": "59230"}, {"uuid": "01F667F0-AAD0-46FE-8E55-8CD1BA666983", "name": "AEM Malta Head Start", "number": "PV107746", "street": "***********************", "state": "MT", "city": "Malta", "zip": "59538"}, {"uuid": "8E4504A9-B429-44EA-BAA7-DFF4295017B2", "name": "AEM Miles City Head Start", "number": "PV108726", "street": "*************************", "state": "MT", "city": "Miles City", "zip": "59301"}, {"uuid": "B26B6EFE-DF17-40CC-8D9B-01779B211B22", "name": "After the Bell", "number": "PV108926", "street": "*****************", "state": "MT", "city": "Butte", "zip": "59701"}, {"uuid": "885BB9D3-8C58-41D3-8263-F319A1615E86", "name": "Aimee Wunderlich / Aimee's Child Care", "number": "PV95715", "street": "***********************", "state": "MT", "city": "Ronan", "zip": "59864"}, {"uuid": "1BE7D1F3-1211-46CF-9F33-666666D6BB00", "name": "Alder Eaglets Childcare", "number": "PV109661", "street": "******************", "state": "MT", "city": "Alder", "zip": "59710"}, {"uuid": "AAA07AC7-2110-42C9-9263-43027B958143", "name": "Alisa Clarke / Lisa's Kids", "number": "PV82109", "street": "*****************", "state": "MT", "city": "Billings", "zip": "59102"}, {"uuid": "4DC5E031-899D-4FA3-8E44-B2714239E965", "name": "Alison Dopp / Dibble Dopp Daycare", "number": "PV107974", "street": "***************", "state": "MT", "city": "Plentywood", "zip": "59254"}, {"uuid": "A769D318-2A60-4869-95E8-F272058723A2", "name": "Alison Gappmayer Daycare", "number": "PV79585", "street": "**************", "state": "MT", "city": "Bozeman", "zip": "59718"}, {"uuid": "22E7761E-81B5-4101-B3D9-AE2789D797DD", "name": "Alissa Lorraine Abraham", "number": "PV110104", "street": "***************", "state": "MT", "city": "Butte", "zip": "59701"}, {"uuid": "6B1B886C-819F-4336-9E7B-7A695F3EAA5E", "name": "Allison Phipps / Allison's Pampered Play", "number": "PV81105", "street": "****************", "state": "MT", "city": "Butte", "zip": "59701"}, {"uuid": "AA2D6ED2-C7D3-436A-8419-01F4632F6BDE", "name": "Alyssa Conley/Little Tikes LLC", "number": "PV109390", "street": "************", "state": "MT", "city": "Miles City", "zip": "59301"}, {"uuid": "D9161FDB-ED2F-462A-8E55-ECAA1933EE39", "name": "Alyssa Norris / West Child Care LLC", "number": "PV108738", "street": "******************", "state": "MT", "city": "White Sulphur Springs", "zip": "59645"}, {"uuid": "5A4CFDB2-8745-4C8E-AA2C-CDFB5DCCC529", "name": "Amanda  Pershall / Bright Skies Daycare", "number": "PV109978", "street": "************", "state": "MT", "city": "Eureka", "zip": "59917"}, {"uuid": "5AD141A2-55D4-41DE-A56B-309873B629BA", "name": "Amanda Hallsted / Amanda's Rugrats", "number": "PV107431", "street": "****************", "state": "MT", "city": "Clinton", "zip": "59825"}, {"uuid": "0F2232FB-8B6F-4386-A1B3-AA728F89D8A4", "name": "Amanda Hoback / Joyful Noise Christian", "number": "PV104344", "street": "*****************", "state": "MT", "city": "Arlee", "zip": "59821"}, {"uuid": "69D4BDEC-2DB8-499A-864A-E94FA122A233", "name": "Amanda McLeod/Half Pint Preschool", "number": "PV95317", "street": "*****************", "state": "MT", "city": "Billings", "zip": "59101"}, {"uuid": "5485AC6C-CDBD-4D90-A71E-ED3562A2A1A7", "name": "Amber O'Rourke / Joliet Schools Daycare", "number": "PV110414", "street": "*************", "state": "MT", "city": "Joliet", "zip": "59041"}, {"uuid": "90CC7031-CE0D-4CF3-8FD1-A1F7CA7C9048", "name": "Amber Wagner", "number": "PV108812", "street": "**********************", "state": "MT", "city": "Whitehall", "zip": "59759"}, {"uuid": "FB2CFA81-AA4E-4DBC-A2C9-84F4A8B0F52B", "name": "Amber's Angels Childcare 2", "number": "PV92970", "street": "*******************", "state": "MT", "city": "Missoula", "zip": "59801"}, {"uuid": "E33C68ED-B6A0-4400-A51A-984C6EBAF7BB", "name": "Amy Kimler / Just Because We Care II", "number": "PV108908", "street": "************", "state": "MT", "city": "Polson", "zip": "59860"}, {"uuid": "6BFD08A2-9ADE-4A26-94DA-36B11CE4A76D", "name": "Amy Marie Spangler", "number": "PV110130", "street": "*********************", "state": "MT", "city": "Kalispell", "zip": "59901"}, {"uuid": "C8784A63-4283-41C6-A7BF-94548B8F8BF3", "name": "Anaconda Head Start", "number": "PV107510", "street": "************", "state": "MT", "city": "Anaconda", "zip": "59711"}, {"uuid": "1E70AEA1-7807-46D8-9A26-1EE9F2F60314", "name": "Anderson / Littles to Bigs", "number": "PV109763", "street": "******************", "state": "MT", "city": "Missoula", "zip": "59808"}, {"uuid": "B9DABAC1-7133-41DA-A507-F48D6100FAEB", "name": "Andrea Bjornrud / Bright Creations CC", "number": "PV106835", "street": "****************", "state": "MT", "city": "Kalispell", "zip": "59901"}, {"uuid": "4BD9178E-AC8A-46FE-9079-28A52EE92190", "name": "Angela Keller", "number": "PV81386", "street": "*****************", "state": "MT", "city": "Billings", "zip": "59102"}, {"uuid": "5E5A222F-D2E5-44EE-8C93-D2C38FAAC8FB", "name": "Angela Nicholas/In The Beginning", "number": "PV106643", "street": "*********************", "state": "MT", "city": "Ronan", "zip": "59864"}, {"uuid": "A0A4FB7D-3FD2-42D7-8016-12710156C377", "name": "Angelique Garrido-Gibbs/Rimrock Kids", "number": "PV108592", "street": "****************", "state": "MT", "city": "Billings", "zip": "59102"}, {"uuid": "6835D199-003C-4C32-9759-B3289FDE4D1F", "name": "Ann Rachael Murphy", "number": "PV109681", "street": "***************", "state": "MT", "city": "Columbia Falls", "zip": "59912"}, {"uuid": "D17DF33C-5AE0-4875-8F36-935A8A2CC391", "name": "Anna Kraus / Wee Care", "number": "PV92209", "street": "****************", "state": "MT", "city": "Great Falls", "zip": "59405"}, {"uuid": "4D78A5E8-1200-4F10-84D7-E08B48F3E6CB", "name": "Anna Mashek / Adventure Time Daycare LLC", "number": "PV110141", "street": "****************", "state": "MT", "city": "Billings", "zip": "59102"}, {"uuid": "E9FD9C5C-B3C8-431C-814A-B1E01E0BC10A", "name": "Anne Thomas / Christi's Daycare", "number": "PV76638", "street": "***************", "state": "MT", "city": "Helena", "zip": "59602"}, {"uuid": "E53F639E-B4FE-4F80-8609-F2DC47108261", "name": "Annette Gordon/Little Buddy Daycare LLC", "number": "PV106419", "street": "****************", "state": "MT", "city": "Missoula", "zip": "59801"}, {"uuid": "BD863733-6E97-42D5-AE4D-9DE6178E4D8D", "name": "Annie's Orphans LLC", "number": "PV77001", "street": "**********", "state": "MT", "city": "Missoula", "zip": "59802"}, {"uuid": "8920955D-AB74-4C6A-AC28-68394F62869C", "name": "April Bentley / Echo Child Care", "number": "PV110301", "street": "**************", "state": "MT", "city": "Helena", "zip": "59601"}, {"uuid": "3F0B6E45-6013-49B0-8876-B870BBA943EB", "name": "April Peterson / April's Daycare", "number": "PV81626", "street": "**************", "state": "MT", "city": "Billings", "zip": "59101"}, {"uuid": "06FFE754-2059-45DC-A6F2-F0D3A179A44A", "name": "Arlene Brash / Grow & Bloom Childcare", "number": "PV79623", "street": "****************", "state": "MT", "city": "Kalispell", "zip": "59901"}, {"uuid": "4D6A3626-B7FB-403F-990B-AAD1FC9D42EF", "name": "Arocha/Mountain Home Montana Childcare", "number": "PV109051", "street": "****************", "state": "MT", "city": "Missoula", "zip": "59804"}, {"uuid": "7A24B8CA-25D9-448C-80B7-66BDD4C3B8BF", "name": "Ashlee A Bohlman / Natural Discoveries", "number": "PV108642", "street": "******************", "state": "MT", "city": "Billings", "zip": "59102"}, {"uuid": "231DADEF-8C87-42A3-8F27-EFA40EE126C7", "name": "Ashley Hamon / Bright Minds", "number": "PV108628", "street": "*************", "state": "MT", "city": "Belgrade", "zip": "59714"}, {"uuid": "8D4232BF-2503-4498-864D-8E66C29ADFE0", "name": "Ashley Hanson / Appleseed", "number": "PV91469", "street": "*************", "state": "MT", "city": "Billings", "zip": "59106"}, {"uuid": "144DCDCF-7C6C-4A59-80EF-F479C398335B", "name": "Ashley Klein / Sprouts", "number": "PV102726", "street": "***************", "state": "MT", "city": "Polson", "zip": "59860"}, {"uuid": "09C7CC7C-57D2-416D-9C93-AF44B2D63370", "name": "Ashley Michelle Hineman", "number": "PV110326", "street": "*******************", "state": "MT", "city": "Missoula", "zip": "59802"}, {"uuid": "B320E503-67CB-4F17-A0BB-FAC18D87D4D2", "name": "Ashley Smith/Mountain Sprouts Preschool", "number": "PV107602", "street": "***********", "state": "MT", "city": "Bozeman", "zip": "59715"}, {"uuid": "9099A5D9-7D7D-4DDC-9383-D1D4CCC7C444", "name": "Ashley Weekes / Dutton/Brady School", "number": "PV109618", "street": "*****************", "state": "MT", "city": "Dutton", "zip": "59433"}, {"uuid": "3BFFD52B-7F1F-422A-AF40-2CED7308E00E", "name": "Ashly Van Fossen", "number": "PV109453", "street": "********************", "state": "MT", "city": "Miles City", "zip": "59301"}, {"uuid": "762C2BF7-6425-4E52-AA5A-FB312394FF6E", "name": "Ashlyn Vicars/Nature's Way Preschool", "number": "PV109861", "street": "***************", "state": "MT", "city": "Marion", "zip": "59925"}, {"uuid": "7B104A62-E145-4BFF-A6B2-09905AABCA5D", "name": "Ashlyn Zehntner / A to Z Early Learners", "number": "PV109754", "street": "**************", "state": "MT", "city": "White Sulphur Springs", "zip": "59645"}, {"uuid": "D4421371-8028-4144-A4E7-D8E64731D889", "name": "Ashton Jaynes / Play World Childcare", "number": "PV109384", "street": "*************", "state": "MT", "city": "Lewistown", "zip": "59457"}, {"uuid": "6F4BC85A-8774-462B-9581-8EB308B40B11", "name": "ASMSU Early Learning Center", "number": "PV76351", "street": "******************", "state": "MT", "city": "Bozeman", "zip": "59715"}, {"uuid": "2B553E6E-8818-42BC-83F3-10EE06329FE6", "name": "ASUM Child Care Preschool", "number": "PV77024", "street": "****************", "state": "MT", "city": "Missoula", "zip": "59812"}, {"uuid": "1082C1EE-6863-4BA6-B9B4-17ACF1FB2571", "name": "ASUM Children's Cultural Learning Center", "number": "PV110571", "street": "**************************", "state": "MT", "city": "Missoula", "zip": "59801"}, {"uuid": "838D6B7E-38E8-4873-A588-57209B953292", "name": "Audrey Ott / Precious Lambs Daycare", "number": "PV110322", "street": "***************", "state": "MT", "city": "Reed Point", "zip": "59069"}, {"uuid": "8FE08F2F-114E-42ED-A218-09226BAD9605", "name": "Aurora Gunville / All Hours Daycare", "number": "PV78772", "street": "*****************", "state": "MT", "city": "Billings", "zip": "59105"}, {"uuid": "43BC3DDD-97E6-41B3-80FF-7F088E992AAA", "name": "Aware Center for Early Childhood-Helena", "number": "PV108403", "street": "***********", "state": "MT", "city": "Helena", "zip": "59601"}, {"uuid": "6A25FFDA-31B0-492D-9680-7D70A9B256A8", "name": "Aware CTR for Early Childhood Billings", "number": "PV108174", "street": "****************", "state": "MT", "city": "Billings", "zip": "59102"}, {"uuid": "03AB0BEF-F9C8-405E-A06C-D7B3300EDA42", "name": "Aware Early Head Start-Belgrade", "number": "PV107812", "street": "***************", "state": "MT", "city": "Belgrade", "zip": "59714"}, {"uuid": "63CDAFF7-01DD-40ED-BD40-35551F2A203F", "name": "Aware Inc / Early Head Start, Butte", "number": "PV81653", "street": "****************", "state": "MT", "city": "Butte", "zip": "59701"}, {"uuid": "36EB76BB-DE0B-4AD2-BF68-0182402F08B8", "name": "B Skogas/Camp Becky's Preschool/Daycare", "number": "PV79127", "street": "**************", "state": "MT", "city": "Billings", "zip": "59105"}, {"uuid": "C8D11231-0643-4DD6-8AF7-BA98CB485A84", "name": "B. Richwine/Brandy Jean and the Jumping", "number": "PV104376", "street": "*********************", "state": "MT", "city": "Ronan", "zip": "59864"}, {"uuid": "0BDE199E-D7B7-440D-83D0-790655DB9FFA", "name": "Barbara Holland / Jeannie's Daycare", "number": "PV92812", "street": "***************", "state": "MT", "city": "Anaconda", "zip": "59711"}, {"uuid": "4CA887FF-D2A9-4D10-A004-D39C2B70F398", "name": "Baughman / Mountainside Montessori", "number": "PV110261", "street": "******************", "state": "MT", "city": "Helena", "zip": "59601"}, {"uuid": "293C6123-FF8F-4CAB-84B2-9AD8EC67DE6E", "name": "Beartooth Children's Center", "number": "PV75909", "street": "**************", "state": "MT", "city": "Red Lodge", "zip": "59068"}, {"uuid": "625B4FB2-94DC-49A7-9D8E-B089258987C4", "name": "Becca Brush/Beautiful Beginnings", "number": "PV103748", "street": "*********************", "state": "MT", "city": "Missoula", "zip": "59808"}, {"uuid": "30CFFFD9-51F1-488A-AB89-67A98CB1565D", "name": "Becky Krueger / Wee Watchers", "number": "PV106829", "street": "**********", "state": "MT", "city": "Butte", "zip": "59701"}, {"uuid": "7D936789-1132-40B8-8B23-79B7EDD00714", "name": "Bedtime Bear Night Time Care", "number": "PV110528", "street": "**********************", "state": "MT", "city": "Butte", "zip": "59701"}, {"uuid": "38362F06-6F64-44D7-9E39-04E07051A8F1", "name": "Belinda Moderie / Happy Kampers Daycare", "number": "PV78440", "street": "***************", "state": "MT", "city": "Pablo", "zip": "59855"}, {"uuid": "F92014C2-3FEF-447F-B4CC-95F0319BF849", "name": "Best Atti-Tudes Daycare", "number": "PV110217", "street": "******************", "state": "MT", "city": "Missoula", "zip": "59803"}, {"uuid": "5BCA8C4D-4EA7-4EEE-8E06-4075D39F09E0", "name": "Beth Muller/Tender Blossoms", "number": "PV110178", "street": "******************", "state": "MT", "city": "Kalispell", "zip": "59901"}, {"uuid": "242BBF18-63AD-4432-83E2-EB6D6A4CD3A3", "name": "Bethany Kirwan/Kid's Corner Home Daycare", "number": "PV107270", "street": "*************", "state": "MT", "city": "Polson", "zip": "59860"}, {"uuid": "6D83D81D-0957-4585-A97E-24DD859FE1ED", "name": "Betty Wheeler / Magical Moments", "number": "PV110555", "street": "*****************", "state": "MT", "city": "Missoula", "zip": "59808"}, {"uuid": "A240EE26-FFEA-4942-8021-27A0C8D66554", "name": "Betty Wheeler / Tweet Dreams Child Care", "number": "PV79510", "street": "*****************", "state": "MT", "city": "Missoula", "zip": "59802"}, {"uuid": "989255E9-BD8C-417C-9788-3FF47EC92A59", "name": "Bibs to Books Playhouse LLC", "number": "PV109982", "street": "*************", "state": "MT", "city": "Bozeman", "zip": "59718"}, {"uuid": "16F30A22-719F-4667-A0D1-3A259EC1FAC1", "name": "Big Sky Bilingual Montessori", "number": "PV110131", "street": "***********************", "state": "MT", "city": "Whitefish", "zip": "59937"}, {"uuid": "8E08FC14-DFC5-4FF3-BBE7-B68B8A287C57", "name": "Big Sky Childcare / Laura Taylor", "number": "PV109255", "street": "**********************", "state": "MT", "city": "Anaconda", "zip": "59711"}, {"uuid": "EAC53D12-4A8A-4C89-B722-0369BF045DF3", "name": "Big Sky Country Preschool & Infant Care", "number": "PV105136", "street": "***********", "state": "MT", "city": "Kalispell", "zip": "59901"}, {"uuid": "87C560E8-6CD9-4E00-899F-AA836BEA520A", "name": "Big Timber Daycare", "number": "PV107970", "street": "****************", "state": "MT", "city": "Big Timber", "zip": "59011"}, {"uuid": "FF259282-1C48-4DD1-B2CA-C40D8DCA0C8A", "name": "Big Timber Daycare Summer STEM Camp", "number": "PV110108", "street": "****************", "state": "MT", "city": "Big Timber", "zip": "59011"}, {"uuid": "0653B504-89A0-433B-B87C-4D2D9A0F668C", "name": "Billie Jo Stebbins / Home Sweet Home", "number": "PV75411", "street": "****************", "state": "MT", "city": "Glendive", "zip": "59330"}, {"uuid": "B7C6E161-2E1E-4FB7-BEA1-46702F2A38F6", "name": "Billings Catholic Schools E C C", "number": "PV104670", "street": "********************", "state": "MT", "city": "Billings", "zip": "59102"}, {"uuid": "AA138203-3FBB-4F0F-8964-333564A9F74D", "name": "Blackfeet Community Childcare", "number": "PV75760", "street": "************************", "state": "MT", "city": "Browning", "zip": "59417"}, {"uuid": "EEFCBCC3-0791-45AD-BF35-8BD07B672391", "name": "Blessed Beginnings Childcare", "number": "PV97231", "street": "***************", "state": "MT", "city": "Missoula", "zip": "59801"}, {"uuid": "AC880693-511C-400A-B082-24BD5E14C589", "name": "Bobbie Jo Benner", "number": "PV110402", "street": "**************", "state": "MT", "city": "Butte", "zip": "59701"}, {"uuid": "81BF4C47-3775-4F0B-B7A3-819B61CFE920", "name": "Bobbie Lynette Ramirez", "number": "PV110422", "street": "***************", "state": "MT", "city": "Lolo", "zip": "59847"}, {"uuid": "1E960E88-DA55-4667-B487-F4C33D2D43F5", "name": "Bonnie Kay Schott", "number": "PV109798", "street": "***************", "state": "MT", "city": "Butte", "zip": "59701"}, {"uuid": "0C297BF7-FE05-4A1F-88C0-113FFD654F4A", "name": "Boulder Kids Preschool", "number": "PV110432", "street": "*************", "state": "MT", "city": "Boulder", "zip": "59632"}, {"uuid": "2708153D-6570-4523-AA2C-7FF38FD23F1B", "name": "Bounding Joy Childcare", "number": "PV107992", "street": "*************", "state": "MT", "city": "Missoula", "zip": "59803"}, {"uuid": "D72E850F-C2F8-4AE2-8131-22DD7699E23E", "name": "Box Elder School Daycare", "number": "PV107046", "street": "*************", "state": "MT", "city": "Box Elder", "zip": "59521"}, {"uuid": "123382B6-7941-4221-BA2F-503CF7E4E9C2", "name": "Bozeman Children's Academy", "number": "PV101300", "street": "***************", "state": "MT", "city": "Bozeman", "zip": "59718"}, {"uuid": "7C0DE46F-D8C5-48A9-AB15-F05E2B2B0FB2", "name": "Bozeman Montessori", "number": "PV105226", "street": "********************", "state": "MT", "city": "Bozeman", "zip": "59718"}, {"uuid": "062CEF5C-5EB2-42B2-851C-5A1FFDC16AFC", "name": "Bozeman Montessori #2", "number": "PV109587", "street": "*******************************", "state": "MT", "city": "Bozeman", "zip": "59718"}, {"uuid": "E6FBC117-4F0E-4A3C-AA08-A92D9C87A251", "name": "Bozeman Summit School", "number": "PV104756", "street": "************************", "state": "MT", "city": "Bozeman", "zip": "59718"}, {"uuid": "E78C7850-45FC-4FFE-A4AC-943E0CDE75E5", "name": "Brandy Elaine Nevers", "number": "PV110418", "street": "***************", "state": "MT", "city": "Sidney", "zip": "59270"}, {"uuid": "95CA3384-2A8F-40BD-8492-EDA9B5A2CD22", "name": "Breanne Budd / Lil' Sprouts Daycare", "number": "PV100537", "street": "*********************", "state": "MT", "city": "Plentywood", "zip": "59254"}, {"uuid": "0A73CCE6-E81C-4F5E-878C-241F0910F163", "name": "Brenda Aitken / Granny B's Drop In Care", "number": "PV106807", "street": "****************", "state": "MT", "city": "Conrad", "zip": "59425"}, {"uuid": "6EC09491-EC93-40D4-B01E-7DB8F5CE89FF", "name": "Brenda Kueffler/Oodles of Fun Preschool", "number": "PV103502", "street": "**************", "state": "MT", "city": "Great Falls", "zip": "59401"}, {"uuid": "CD63D2CE-A3DD-4901-BB1E-1317BA2CF43C", "name": "Brenda Opitz / Brenda's Busy Bodies", "number": "PV88355", "street": "**************", "state": "MT", "city": "Billings", "zip": "59102"}, {"uuid": "ADC4EF76-13B3-49D6-B02D-D617F31A20EB", "name": "Brenna Neater/Wild Child Care, LLC", "number": "PV78165", "street": "*****************", "state": "MT", "city": "Kalispell", "zip": "59901"}, {"uuid": "87736256-E4D0-4D73-ADD3-C739325CF1C0", "name": "Brenna Randall / Mosaic Early Learning", "number": "PV105940", "street": "************", "state": "MT", "city": "Bozeman", "zip": "59718"}, {"uuid": "A99AC2D7-B9AD-42D6-BFFB-1CB451C5FBD3", "name": "Brenna's Building Blocks", "number": "PV109970", "street": "*******************", "state": "MT", "city": "Lolo", "zip": "59847"}, {"uuid": "A5CAC404-8EED-4A2C-93FA-579C46C4D108", "name": "Bright Beginnings Childcare", "number": "PV110496", "street": "**********************", "state": "MT", "city": "Miles City", "zip": "59301"}, {"uuid": "F38E6298-EEF4-41C3-94D9-EAAF54DF838A", "name": "Bright Beginnings Childcare LLC/ Halie D", "number": "PV109646", "street": "*************", "state": "MT", "city": "Butte", "zip": "59701"}, {"uuid": "AC8CC0A6-0E59-4F56-B52F-C4004FA19A6A", "name": "Bright Beginnings Daycare/Cassidy Mandic", "number": "PV108670", "street": "*************", "state": "MT", "city": "Butte", "zip": "59701"}, {"uuid": "5572F4EE-2301-4975-9FDC-983CDCF9ADFF", "name": "Bright Little Stars Inc 4 / Karri Sweet", "number": "PV105000", "street": "***************", "state": "MT", "city": "Billings", "zip": "59102"}, {"uuid": "B032CE39-05F2-47C9-BAA1-6E9E53653460", "name": "Britani Bache/God's Little Hands Daycare", "number": "PV110409", "street": "*********************", "state": "MT", "city": "Troy", "zip": "59935"}, {"uuid": "3FB12C45-D1F1-4464-A5CF-BF578AC5C9F5", "name": "Britney Gardipee / Cotton Patch Kids DC", "number": "PV106509", "street": "***********", "state": "MT", "city": "Butte", "zip": "59701"}, {"uuid": "ABA0F980-40B1-4E81-AA0E-C6868A5C10C9", "name": "Brittanny Rule / Brittanny's Childcare", "number": "PV107455", "street": "****************", "state": "MT", "city": "Billings", "zip": "59101"}, {"uuid": "C557DB24-E8D3-477E-8CB7-9BE68D935F28", "name": "Brittany Nichole MacDougall", "number": "PV110190", "street": "*******************", "state": "MT", "city": "Helena", "zip": "59601"}, {"uuid": "E0184C66-2823-447F-8D72-2D63D1D9A87A", "name": "Broadus Bumblebee Daycare", "number": "PV109137", "street": "**************", "state": "MT", "city": "Broadus", "zip": "59317"}, {"uuid": "E583B239-79CD-4CB9-B067-477B2A003B40", "name": "Brytne Najar / Growing Minds Childcare", "number": "PV107014", "street": "******************", "state": "MT", "city": "Billings", "zip": "59101"}, {"uuid": "5E8B8780-2FBD-47EA-9525-98A285F461BA", "name": "Buggy Bear Childcare/Billings Montessori", "number": "PV105176", "street": "***************", "state": "MT", "city": "Billings", "zip": "59102"}, {"uuid": "8B62DD0A-E75F-4B23-92A2-E08A5598634F", "name": "Busy Bee Child Care/Melissa Petersen", "number": "PV77413", "street": "*******************", "state": "MT", "city": "Havre", "zip": "59501"}, {"uuid": "BE81BFD8-6DDD-4654-AE4C-84201B579254", "name": "Busy Bee's Child Care Center", "number": "PV91925", "street": "************", "state": "MT", "city": "Shelby", "zip": "59474"}, {"uuid": "CFB7C2A8-172F-48E6-8980-C1F5B6F2AC29", "name": "Buttons & Bows Childcare / Jacqui Morin", "number": "PV107702", "street": "*************", "state": "MT", "city": "Billings", "zip": "59102"}, {"uuid": "349D9356-4DA6-4F9D-B90E-AD8714DC636B", "name": "Buttons & Bows Childcare 3 /Jacqui Morin", "number": "PV106845", "street": "*************", "state": "MT", "city": "Billings", "zip": "59102"}, {"uuid": "A9E1C377-3743-4ABF-BFE1-1D06DEC6FC85", "name": "Buyske Full Care Preschool", "number": "PV106873", "street": "*************", "state": "MT", "city": "Billings", "zip": "59102"}, {"uuid": "EEFEC4D9-4C6E-4655-B0F8-9FF98E82B7B1", "name": "C Woods / Woodland Friends Playschool", "number": "PV109312", "street": "*************", "state": "MT", "city": "Lewistown", "zip": "59457"}, {"uuid": "2A380811-7FB5-433D-8079-CC27E6A8EBE1", "name": "Caitlyn Emilene Porch", "number": "PV110495", "street": "***************", "state": "MT", "city": "Missoula", "zip": "59804"}, {"uuid": "84760C9F-C767-4F13-87FB-68E08219E56D", "name": "Caitlyn Rochelle Tollakson", "number": "PV110478", "street": "**************", "state": "MT", "city": "Helena", "zip": "59602"}, {"uuid": "35DEEF1B-934C-4E6D-91D8-AC97A2CB8DDF", "name": "Camas Day School, Inc.", "number": "PV89553", "street": "***************", "state": "MT", "city": "Whitefish", "zip": "59937"}, {"uuid": "C52EE195-4756-4D9A-B944-48E590142620", "name": "Candy Murnion / Country Kids Daycare", "number": "PV106869", "street": "******************", "state": "MT", "city": "Jordan", "zip": "59337"}, {"uuid": "E4046C90-3FFA-4E5B-AC8E-9FD961471F49", "name": "Candy Murnion / Country Kids Too", "number": "PV109472", "street": "******************", "state": "MT", "city": "Jordan", "zip": "59337"}, {"uuid": "E912B69C-F66A-4220-8834-8C14862E91A0", "name": "Cara Hornung/Bickler's Babies Childcare", "number": "PV96526", "street": "**************", "state": "MT", "city": "Billings", "zip": "59102"}, {"uuid": "E5CC7AE4-E275-4ABF-B4AC-E19C43B72EB6", "name": "Cari Galbraith / Spots For Tots, LLC", "number": "PV107134", "street": "********************", "state": "MT", "city": "Bigfork", "zip": "59911"}, {"uuid": "D6E1063E-42AF-4DDE-9E56-625D8729BF51", "name": "Cari LeDosquet / Grandma's Place", "number": "PV81286", "street": "*************", "state": "MT", "city": "Billings", "zip": "59105"}, {"uuid": "F17D47AB-30E9-498A-BF8F-0906BB9DD839", "name": "Carla LaFurge / Carla's Kid Castle", "number": "PV76137", "street": "************", "state": "MT", "city": "Billings", "zip": "59101"}, {"uuid": "D9BB2036-727A-4DEB-B66C-D3C13DE0F382", "name": "Caroline Entz / Kiddie Korral", "number": "PV104968", "street": "**************", "state": "MT", "city": "Sidney", "zip": "59270"}, {"uuid": "AB733ABE-E8E7-43B7-B597-BD5D83A81AE9", "name": "Carolyn  Bailey/Sunflower House", "number": "PV107742", "street": "*************", "state": "MT", "city": "Polson", "zip": "59860"}, {"uuid": "7167FA6F-1AD7-4F43-8431-35898CA65D76", "name": "Cassandra Meixner/Healthy Minds Daycare", "number": "PV100995", "street": "*************", "state": "MT", "city": "Butte", "zip": "59701"}, {"uuid": "C0398290-59CD-4983-A050-E559EEC90A4C", "name": "Caterpillar Clubhouse Child Center/ Melb", "number": "PV110094", "street": "******************", "state": "MT", "city": "Butte", "zip": "59701"}, {"uuid": "C093FBAB-20B3-4B74-AEE1-0F2DACFFBDD8", "name": "Cathy Anderson / Cathy's Cozy Corner", "number": "PV105962", "street": "**************", "state": "MT", "city": "Stevensville", "zip": "59870"}, {"uuid": "BC232AB1-B766-4B76-B00A-01C5F5749A0C", "name": "Catriana Nolde Lopez / Kat's Kiddo Care", "number": "PV110198", "street": "*****************", "state": "MT", "city": "Billings", "zip": "59102"}, {"uuid": "BD523564-6FC8-4805-BD06-DCC9C257B95A", "name": "Celebrating Children / Alana Churchill", "number": "PV107467", "street": "****************", "state": "MT", "city": "Billings", "zip": "59101"}, {"uuid": "34C411BD-3C17-43B4-9FDB-F5F3B6FE6313", "name": "Center For Generations", "number": "PV78911", "street": "***************", "state": "MT", "city": "Billings", "zip": "59102"}, {"uuid": "D9466325-87BC-428B-B508-E5DF61EE3F2E", "name": "Centro de la Familia-Billings", "number": "PV110599", "street": "******************", "state": "MT", "city": "Billings", "zip": "59102"}, {"uuid": "5FD53254-4C20-41D6-87C1-BB9F1FF9E550", "name": "Chantel Lacy Newman", "number": "PV110505", "street": "***************", "state": "MT", "city": "Missoula", "zip": "59801"}, {"uuid": "98EB7DC6-0518-4331-8D51-DAD7D2D2EE53", "name": "Charlene  Bezdicek", "number": "PV77037", "street": "************", "state": "MT", "city": "Missoula", "zip": "59804"}, {"uuid": "1618AAA7-4A04-4093-A64E-20C96A238D61", "name": "Charlie Patterson/Little Tree Preschool", "number": "PV107188", "street": "*********************", "state": "MT", "city": "Great Falls", "zip": "59404"}, {"uuid": "60CC0A67-97B4-4946-9911-CF16767F698F", "name": "Chelsey Schreiber / Miss Kiddy's Corral", "number": "PV99550", "street": "***************", "state": "MT", "city": "Missoula", "zip": "59801"}, {"uuid": "2397D802-F449-430F-8978-06AF72537C3F", "name": "Cheryl Eileen Emmons / Apple Academy Inc", "number": "PV106010", "street": "*****************", "state": "MT", "city": "Billings", "zip": "59105"}, {"uuid": "98A104B9-DD5A-43FA-A3C4-F3D838E15214", "name": "Cheyenne Score / Score's Little Monsters", "number": "PV109719", "street": "*****************", "state": "MT", "city": "Malta", "zip": "59538"}, {"uuid": "1346FBD0-F0C7-4A4B-AD21-2FD9EC3467B5", "name": "Child Enrichment Center", "number": "PV107864", "street": "****************************", "state": "MT", "city": "Helena", "zip": "59602"}, {"uuid": "307075E4-B9FB-45E8-89B7-55035BE75BD7", "name": "Child Start, Inc. Head Start", "number": "PV77120", "street": "****************", "state": "MT", "city": "Missoula", "zip": "59802"}, {"uuid": "EEA5BC1A-121B-4D78-B6FC-12C76B79F705", "name": "Children's Center", "number": "PV77262", "street": "***************", "state": "MT", "city": "Missoula", "zip": "59802"}, {"uuid": "B62DCE08-A2EC-4EB9-89A6-36C7274D1062", "name": "Childrens House Montessori", "number": "PV76806", "street": "********************", "state": "MT", "city": "Whitefish", "zip": "59937"}, {"uuid": "8DE97389-7E6D-4184-8C69-118CCA129A4A", "name": "Choteau Youth Alliance Daycare", "number": "PV110107", "street": "*************", "state": "MT", "city": "Choteau", "zip": "59422"}, {"uuid": "E7819433-5197-44BE-85AA-A6255E312590", "name": "Chris Mock / Christian Care/Chris's kids", "number": "PV103516", "street": "***********************", "state": "MT", "city": "Billings", "zip": "59105"}, {"uuid": "4DAA4B78-7EB3-46F0-84E4-2676E6AE0D75", "name": "Chris Parenteau / Just 4 Kidz 2", "number": "PV109353", "street": "***************", "state": "MT", "city": "Great Falls", "zip": "59404"}, {"uuid": "82FD25D1-1E45-4B06-998E-2E32DC62101D", "name": "Christina Carmichael/My Sister's Keeper", "number": "PV107694", "street": "******************************", "state": "MT", "city": "Ronan", "zip": "59864"}, {"uuid": "F3B60C32-31EE-48D8-BE12-115D4F636A48", "name": "Christina Schulze / Pipsqueaks Daycare", "number": "PV109969", "street": "******************", "state": "MT", "city": "Billings", "zip": "59102"}, {"uuid": "22926255-943A-4C94-BD55-65029076F23D", "name": "Christine  Muri", "number": "PV76190", "street": "*****************", "state": "MT", "city": "Billings", "zip": "59102"}, {"uuid": "E2D6532B-DAE2-444B-9C49-5935E6EC3C48", "name": "Cindy Brey / Little People Village", "number": "PV75983", "street": "*************", "state": "MT", "city": "Billings", "zip": "59102"}, {"uuid": "642E85BA-F3B9-4C86-9B68-D43AD2B7B49C", "name": "Cindy Kimberling / Cindy's Daycare", "number": "PV75821", "street": "******************", "state": "MT", "city": "Havre", "zip": "59501"}, {"uuid": "AF5B3143-3CE8-4D61-9C20-B4AA5CFEC71F", "name": "Cindy Rehling / Bouncing Butterflies", "number": "PV110235", "street": "***************", "state": "MT", "city": "Billings", "zip": "59102"}, {"uuid": "BD3C4C6A-F198-4866-BAA9-2C7831E0E25C", "name": "Cindy Todd / Shepherd Sprouts", "number": "PV109610", "street": "*****************", "state": "MT", "city": "Shepherd", "zip": "59079"}, {"uuid": "3753DD3E-D7AD-4FE3-808E-2F62353248CD", "name": "Clarissa Woods / Woodland Friends 2", "number": "PV110416", "street": "*************", "state": "MT", "city": "Lewistown", "zip": "59457"}, {"uuid": "94EC59F3-4C75-47D3-8966-FE8CE8507121", "name": "Clark Fork School", "number": "PV77064", "street": "*******************", "state": "MT", "city": "Missoula", "zip": "59802"}, {"uuid": "45E2AE07-DFAE-4CB8-BDC3-502E274F9E15", "name": "Colleen's Cuddlebugs", "number": "PV80419", "street": "*************", "state": "MT", "city": "Great Falls", "zip": "59405"}, {"uuid": "73103FFF-1FFE-4D11-9821-A195B53528F7", "name": "Community Early Education Center", "number": "PV110112", "street": "*************", "state": "MT", "city": "Great Falls", "zip": "59405"}, {"uuid": "4D894437-B9BD-409E-A9D7-B0960C42D342", "name": "Connie  Ibey", "number": "PV77314", "street": "*****************", "state": "MT", "city": "Florence", "zip": "59833"}, {"uuid": "C034EC5E-8249-4C51-9A84-54C86D2B7670", "name": "Conniston / Amber's Angels Childcare", "number": "PV106413", "street": "*******************", "state": "MT", "city": "Missoula", "zip": "59801"}, {"uuid": "DD493B64-4E3D-44C0-BAEA-B956C7FD6072", "name": "Copper City Childcare / Tara Pelletier", "number": "PV110249", "street": "***********", "state": "MT", "city": "Butte", "zip": "59701"}, {"uuid": "7066F8C5-068E-44A9-809B-B82386FC12B5", "name": "Cora Veis / Little Llama Learners", "number": "PV110215", "street": "*********************", "state": "MT", "city": "Billings", "zip": "59101"}, {"uuid": "E6DE5A1B-FDD3-4230-B146-52CE41732804", "name": "Cornerstone Kids - Infants/Toddlers", "number": "PV110242", "street": "********************", "state": "MT", "city": "Billings", "zip": "59105"}, {"uuid": "4D6AF530-2A91-4297-914B-B4DFB800DDDF", "name": "Cornerstone Kids, LLC/ Tahnee Gatlin", "number": "PV105970", "street": "********************", "state": "MT", "city": "Billings", "zip": "59105"}, {"uuid": "9D3ABC10-9EE1-486D-B616-0C1873D042FE", "name": "Correy Harrison / Mayfly Montessori", "number": "PV106893", "street": "**************", "state": "MT", "city": "Missoula", "zip": "59801"}, {"uuid": "964DB289-9B94-4FA0-8F00-57C10F7E52F0", "name": "Country Cuddles Learning Center", "number": "PV85469", "street": "***************", "state": "MT", "city": "Frenchtown", "zip": "59834"}, {"uuid": "A8A127F1-640C-4FAB-A48A-024EB70EC43A", "name": "Cowell / Lil Rose Buds", "number": "PV109334", "street": "*****************", "state": "MT", "city": "Missoula", "zip": "59808"}, {"uuid": "FF561312-D4BB-444E-970C-ACA2E8DE98FF", "name": "Cradles to Crayons / Carrie Roberts", "number": "PV104224", "street": "*****************", "state": "MT", "city": "Billings", "zip": "59102"}, {"uuid": "887DF3A1-9131-443E-A298-98BE84F140D4", "name": "Creamer / Ash Elm", "number": "PV109634", "street": "***************", "state": "MT", "city": "Bigfork", "zip": "59911"}, {"uuid": "8EBFC852-0389-41D5-B03E-2C556C899427", "name": "Creative Beginnings 2", "number": "PV106948", "street": "******************", "state": "MT", "city": "East Helena", "zip": "59635"}, {"uuid": "6B7F7594-6E1D-4AE6-A17D-C349E51E6E83", "name": "Creative Minds Early Learning Center", "number": "PV109589", "street": "**********************", "state": "MT", "city": "Kalispell", "zip": "59901"}, {"uuid": "D0B540BD-280F-47A4-9831-5919F030E3CC", "name": "Crystal Anderson / Little Miracles", "number": "PV79774", "street": "**********************", "state": "MT", "city": "Havre", "zip": "59501"}, {"uuid": "E389D6AB-CC6A-44A3-95D4-BD4C920CAC58", "name": "Crystal Bohn / Crystal's Infant Toddler", "number": "PV86156", "street": "*****************", "state": "MT", "city": "Billings", "zip": "59101"}, {"uuid": "FA7C36F0-D407-47CB-8A66-7611BF7AEE15", "name": "Crystal Brown/Let's Go C.C./Preschool", "number": "PV81406", "street": "*******************", "state": "MT", "city": "Great Falls", "zip": "59404"}, {"uuid": "7E90C14A-BCEC-4559-97DA-B90910725553", "name": "Crystal Colwell / Sunnyside Day Care", "number": "PV108803", "street": "**************", "state": "MT", "city": "Billings", "zip": "59101"}, {"uuid": "6A620C72-AB51-44BD-9232-026BA7B2EE63", "name": "Crystal Lowen / Crystal Lowen's Daycare", "number": "PV86224", "street": "**************", "state": "MT", "city": "Havre", "zip": "59501"}, {"uuid": "C77A8597-EB6D-4D13-9FFD-B600B7083905", "name": "Cuddle Bugs", "number": "PV81353", "street": "*************", "state": "MT", "city": "Missoula", "zip": "59801"}, {"uuid": "9310B8C8-6482-484C-8C9A-A0CE1AF2554D", "name": "Curious Minds Montessori   Preschool", "number": "PV107888", "street": "**************", "state": "MT", "city": "Hamilton", "zip": "59840"}, {"uuid": "E71005C8-7B11-4EBD-B66A-6D8C87A18A48", "name": "Curious Minds Preschool", "number": "PV109556", "street": "*****************", "state": "MT", "city": "Corvallis", "zip": "59828"}, {"uuid": "234EED72-18FF-4BB5-9924-95699B2C9829", "name": "Cydney Elizabeth McMunn", "number": "PV109911", "street": "**************", "state": "MT", "city": "Eureka", "zip": "59917"}, {"uuid": "93272D57-D95B-4D5B-97A8-5887717EDDBD", "name": "Cynthia Winkley / Cindy Lou's Quality CC", "number": "PV78976", "street": "****************", "state": "MT", "city": "East Helena", "zip": "59635"}, {"uuid": "98963322-1482-4A4D-ABF7-72E87D56FCF4", "name": "Dana Ann Gallagher", "number": "PV110287", "street": "****************", "state": "MT", "city": "Butte", "zip": "59701"}, {"uuid": "CDA03AB9-3FA7-4E29-83FF-8E6F2E648128", "name": "Dana Bennett / Need Bees Play FIt Care", "number": "PV110522", "street": "***************", "state": "MT", "city": "Kalispell", "zip": "59901"}, {"uuid": "5A2D28D0-C988-4A16-A09B-8A1729AD355C", "name": "Dana Mudd / The Meadow", "number": "PV110210", "street": "*****************", "state": "MT", "city": "Polson", "zip": "59860"}, {"uuid": "D34E1B22-1B38-42A2-AEA4-70BA053EF581", "name": "Danielle Daulton / Wild Roots Preschool", "number": "PV110021", "street": "****************", "state": "MT", "city": "Manhattan", "zip": "59741"}, {"uuid": "93FEAC87-77C4-412D-A2B6-2129BB2CF22E", "name": "Danielle Mangold /Tiny Sprouts Childcare", "number": "PV110166", "street": "*******************", "state": "MT", "city": "Great Falls", "zip": "59405"}, {"uuid": "A5F8702E-0816-41F4-AA0A-7B1F3C1B7CC4", "name": "Danita Kinn / Kinn Kid Kare", "number": "PV88196", "street": "*************", "state": "MT", "city": "Roundup", "zip": "59072"}, {"uuid": "69BA6585-020E-4565-9E4A-B6FDC78779B5", "name": "Daralyn Williams/Miles Of Smiles", "number": "PV107774", "street": "**************", "state": "MT", "city": "Belgrade", "zip": "59714"}, {"uuid": "756173EA-4652-4F63-9C62-11A62FA46316", "name": "Darcey Juedeman / Tiger Cubs Daycare", "number": "PV109307", "street": "***************", "state": "MT", "city": "Geraldine", "zip": "59446"}, {"uuid": "45220F22-9457-425D-B418-F355D8A46BD0", "name": "Darla Moran / Hand In Hand Day Care", "number": "PV76748", "street": "************", "state": "MT", "city": "Butte", "zip": "59701"}, {"uuid": "123AE72E-3994-45C1-B305-56C2BB22C704", "name": "Dawn Hampton / Dawn's Daycare", "number": "PV82183", "street": "*************", "state": "MT", "city": "Huntley", "zip": "59037"}, {"uuid": "44E9E3AD-B922-4652-8DC7-BA619FDFE727", "name": "Dawn Ikener / Lil' Cupcakes Childcare", "number": "PV105162", "street": "*******************", "state": "MT", "city": "Billings", "zip": "59105"}, {"uuid": "1AD0CBA8-FDA2-49D5-8D13-F57D67614229", "name": "Day / Alberton Early Learning Center", "number": "PV109437", "street": "*******************", "state": "MT", "city": "Alberton", "zip": "59820"}, {"uuid": "58FD5EBE-4402-4A29-A5DD-D4B2839AEEBF", "name": "Deanna Simmons/Kyndras Corner Child Care", "number": "PV106409", "street": "*****************", "state": "MT", "city": "Missoula", "zip": "59801"}, {"uuid": "9C5B48D4-6611-46B1-BF3A-40DD4383B5A7", "name": "Debbie Hibbard/Debbie's Family Childcare", "number": "PV108781", "street": "***************", "state": "MT", "city": "Frenchtown", "zip": "59834"}, {"uuid": "0C530833-0A7A-4710-B3BD-0EC1E80B124D", "name": "Debbie McCormick / Debbie's Daycare", "number": "PV75826", "street": "***********", "state": "MT", "city": "Havre", "zip": "59501"}, {"uuid": "33174ED7-B347-4C85-B429-498AC2E433CA", "name": "Deborah Meyer / Debbie's Daycare", "number": "PV89638", "street": "***************", "state": "MT", "city": "Miles City", "zip": "59301"}, {"uuid": "9B1EDA98-5FD9-4EF6-948E-D81D21D5772F", "name": "Deborah Rickey/Debby's DayCare", "number": "PV76252", "street": "*************", "state": "MT", "city": "Billings", "zip": "59102"}, {"uuid": "E3875144-8FDA-4182-8701-6845F05179CF", "name": "Debra Rippel/ Caring Daily Daycare", "number": "PV110168", "street": "************", "state": "MT", "city": "Miles City", "zip": "59301"}, {"uuid": "3AB77E4F-E8BC-4D23-B4D8-DAC11F05D961", "name": "Demari Pugsley / Blossom", "number": "PV109639", "street": "**********************", "state": "MT", "city": "Helena", "zip": "59602"}, {"uuid": "55DBEF8B-4BA7-47BF-8054-37941C88FBEC", "name": "Denise Carson / Denise's DayCare", "number": "PV78683", "street": "*************", "state": "MT", "city": "Glasgow", "zip": "59230"}, {"uuid": "F5496B0B-1663-4010-B61F-E37282BE00EE", "name": "Denise W Brewer", "number": "PV76797", "street": "****************", "state": "MT", "city": "Kalispell", "zip": "59901"}, {"uuid": "1FBFDCD7-B5C7-4E30-8C58-C15074D3BB19", "name": "Deven Schroeber / D's Daycare", "number": "PV109521", "street": "*******************", "state": "MT", "city": "Terry", "zip": "59349"}, {"uuid": "26E6A892-AFBC-490E-8B02-FAEB41F9F319", "name": "Devin James Montgomery", "number": "PV109741", "street": "*********************", "state": "MT", "city": "Missoula", "zip": "59801"}, {"uuid": "8EF1AB06-A1B9-49CC-90DE-209350F5C044", "name": "Diana Clifford", "number": "PV79170", "street": "***************", "state": "MT", "city": "Missoula", "zip": "59801"}, {"uuid": "EE266237-546E-420C-842D-2892E0A0B480", "name": "Diana Hughes", "number": "PV95717", "street": "****************", "state": "MT", "city": "Polson", "zip": "59860"}, {"uuid": "0B059A45-F1EF-43C8-952B-112B7478EA76", "name": "Diana Kundey / Busy Little Bees Daycare", "number": "PV80310", "street": "****************", "state": "MT", "city": "Great Falls", "zip": "59404"}, {"uuid": "66554460-5B03-4681-9DA7-7948F57018D5", "name": "Diana Schmitt/Kiddie Korner", "number": "PV82218", "street": "************", "state": "MT", "city": "Stanford", "zip": "59479"}, {"uuid": "D3479BF9-9A80-432A-8714-8DC48287817C", "name": "Diane Albright / Sunrise Daycare", "number": "PV75961", "street": "****************", "state": "MT", "city": "Billings", "zip": "59101"}, {"uuid": "652FBB42-3326-4EA7-9FC3-C5D637848024", "name": "Diedra Schroeder", "number": "PV110251", "street": "************", "state": "MT", "city": "Helena", "zip": "59602"}, {"uuid": "C0EDF675-393F-45FF-9D17-AF7739B27EAB", "name": "Dillon / Lil Huckleberries", "number": "PV109212", "street": "**************", "state": "MT", "city": "Superior", "zip": "59872"}, {"uuid": "D5F130A6-2CA5-4AA2-9EE2-7A350066B2FF", "name": "Discovery Childcare-Bonner", "number": "PV109972", "street": "*****************", "state": "MT", "city": "Missoula", "zip": "59802"}, {"uuid": "C2391506-0608-4AE5-8A69-22D96E43CBB9", "name": "Discovery Development Center", "number": "PV76820", "street": "***************", "state": "MT", "city": "Kalispell", "zip": "59901"}, {"uuid": "734C3067-0090-4843-B65B-E5B6CAE1F7E4", "name": "Discovery Kidzone 3", "number": "PV107620", "street": "*******************", "state": "MT", "city": "Clancy", "zip": "59634"}, {"uuid": "ED3D57EC-38D7-42EE-9EDD-646E4D1F50FE", "name": "Discovery Kidzone Bozeman West", "number": "PV110174", "street": "************", "state": "MT", "city": "Bozeman", "zip": "59718"}, {"uuid": "0B248BAE-82FB-4463-94DF-EF990444572A", "name": "Discovery Kidzone Helena", "number": "PV109497", "street": "************", "state": "MT", "city": "Helena", "zip": "59601"}, {"uuid": "B675FD0E-D279-4655-BE20-D971C47EF8B1", "name": "Discovery Kidzone Learning Center", "number": "PV106100", "street": "*****************", "state": "MT", "city": "Clancy", "zip": "59634"}, {"uuid": "96A2D3F4-5035-4173-8038-7A66CD342400", "name": "Discovery Kidzone Montessori East", "number": "PV110172", "street": "*****************", "state": "MT", "city": "Bozeman", "zip": "59715"}, {"uuid": "77D62748-48F0-4549-B938-BD2EF696CDF9", "name": "Discovery Kidzone Montessori North", "number": "PV110173", "street": "************", "state": "MT", "city": "Bozeman", "zip": "59718"}, {"uuid": "EABCAA5F-5736-4355-A8DB-0D27412A17F9", "name": "Discovery Kidzone Montessori School", "number": "PV103225", "street": "*********", "state": "MT", "city": "Clancy", "zip": "59634"}, {"uuid": "9D564B44-C71B-4E37-9AFF-412409F93875", "name": "Discovery Preschool & Childcare Ctr", "number": "PV89404", "street": "***************", "state": "MT", "city": "Missoula", "zip": "59801"}, {"uuid": "A30B7241-398A-412C-AD32-C0AD8A7EF1DD", "name": "Discovery Preschool & Infant Center", "number": "PV106747", "street": "*****************", "state": "MT", "city": "Missoula", "zip": "59801"}, {"uuid": "89E719C6-9A5E-4D9B-A804-4B74E71DCC30", "name": "Doreen Heath / Doe's Daycare", "number": "PV79021", "street": "**************", "state": "MT", "city": "Missoula", "zip": "59802"}, {"uuid": "430A1509-A6B6-46F0-9348-89875868C3B6", "name": "Dorian Umfleet / Wee Care Childcare", "number": "PV98049", "street": "***************", "state": "MT", "city": "Forsyth", "zip": "59327"}, {"uuid": "1FDADB5C-0972-4EC8-9811-6CCC277F0CBB", "name": "Dream Marie Fishell", "number": "PV108511", "street": "*************", "state": "MT", "city": "Missoula", "zip": "59804"}, {"uuid": "38D61BF6-ED65-4031-82DF-5BF3B21295F6", "name": "Duplicate - Do Not Use", "number": "PV110569", "street": "******************", "state": "MN", "city": "Anoka", "zip": "55303"}, {"uuid": "0D49370F-5CC7-4BE8-BDF6-366FC4CB3E71", "name": "Eagle's Nest Daycare / Theresa Burgmaier", "number": "PV109999", "street": "****************", "state": "MT", "city": "Fairfield", "zip": "59436"}, {"uuid": "74488385-FF1E-47E1-A73D-D77F1985F333", "name": "Early Alpine Academy", "number": "PV108841", "street": "****************", "state": "MT", "city": "Bozeman", "zip": "59715"}, {"uuid": "76321B0E-1179-4BED-BCC5-649CDDB96332", "name": "Early Alpine Academy / Kelly Stratton", "number": "PV110594", "street": "****************", "state": "MT", "city": "Bozeman", "zip": "59715"}, {"uuid": "54CEE51F-9DF6-4ED5-BE1E-11572FB6B3A0", "name": "Edgar Woods II / Knowledge is Power", "number": "PV110487", "street": "*****************", "state": "MT", "city": "Great Falls", "zip": "59401"}, {"uuid": "05F715B4-4062-49B4-8DB0-4824493BB21B", "name": "Edith Belknap/Cougar's Den Childcare", "number": "PV101506", "street": "*************", "state": "MT", "city": "Clinton", "zip": "59825"}, {"uuid": "30B17CBB-9A81-4599-AD39-650C8C8A35D6", "name": "EduCare Preschool & Childcare", "number": "PV104354", "street": "************", "state": "MT", "city": "Great Falls", "zip": "59405"}, {"uuid": "1F336915-7FE8-4C7E-862F-418C85A50DCE", "name": "Einsteins Learning Center / Whithorn", "number": "PV110304", "street": "********************", "state": "MT", "city": "Livingston", "zip": "59047"}, {"uuid": "86D14141-C1C4-482B-9903-0DBD5ECB6147", "name": "Elena Caplis / Imagination Station", "number": "PV95331", "street": "**************", "state": "MT", "city": "Missoula", "zip": "59802"}, {"uuid": "7ABCB944-DCAD-44E2-9417-D42A950694C7", "name": "Elevate Montessori", "number": "PV110061", "street": "**********", "state": "MT", "city": "Livingston", "zip": "59047"}, {"uuid": "924B3051-8603-4274-878D-94035D67A7EA", "name": "Elevate Montessori School", "number": "PV108658", "street": "**************", "state": "MT", "city": "Livingston", "zip": "59047"}, {"uuid": "F7B349AF-121D-4007-A621-A4768A76262A", "name": "Elizabeth Herman/Childcare Solutions LLC", "number": "PV109490", "street": "**************", "state": "MT", "city": "Great Falls", "zip": "59405"}, {"uuid": "03F971B3-5FCF-4D03-905E-471A6051C34B", "name": "Elizabeth Obergfell / Cissy's Childcare", "number": "PV110475", "street": "**************", "state": "MT", "city": "Sidney", "zip": "59270"}, {"uuid": "B4B3C55B-E2F8-45CD-9A8A-8A7996DDB4B0", "name": "Elizabeth Van Nice", "number": "PV77272", "street": "*************", "state": "MT", "city": "Missoula", "zip": "59801"}, {"uuid": "F0734093-818D-4BF2-8605-A048B3297715", "name": "Ember Marini", "number": "PV110204", "street": "****************", "state": "MT", "city": "Frenchtown", "zip": "59834"}, {"uuid": "A33355EB-C996-4BC7-9954-49CF68049C8B", "name": "Emily Agate / The Hive", "number": "PV109689", "street": "*************", "state": "MT", "city": "Kalispell", "zip": "59901"}, {"uuid": "9C6B0215-DD06-462B-9C36-6C9A076EF954", "name": "Emily Gonsalves / Creative Hands", "number": "PV108042", "street": "**************", "state": "MT", "city": "Kalispell", "zip": "59901"}, {"uuid": "5235054E-5282-411A-86C5-A0737D66335A", "name": "Emily Repnak / Wild Ivy Nature Camp", "number": "PV105318", "street": "**************", "state": "MT", "city": "Helena", "zip": "59601"}, {"uuid": "851C127B-D87F-4B50-BBAA-B50808E03C61", "name": "Emma C Kelly / Green Beans", "number": "PV107626", "street": "**************", "state": "MT", "city": "Bozeman", "zip": "59718"}, {"uuid": "E979C011-8677-439F-B6E9-5B52E06C81E3", "name": "Emma Capulong / Sprouts Early Learning", "number": "PV109967", "street": "******************", "state": "MT", "city": "Bozeman", "zip": "59718"}, {"uuid": "7594ED9A-F024-45D9-9C22-163882339AE3", "name": "Ennis Community Children's School", "number": "PV76654", "street": "*********************", "state": "MT", "city": "Ennis", "zip": "59729"}, {"uuid": "F9843E52-7AD5-4B54-B9B4-68A9477391C9", "name": "Eric Lund / The Art of Play Montessori", "number": "PV110441", "street": "*************************", "state": "MT", "city": "Billings", "zip": "59102"}, {"uuid": "1539470B-09F4-44F5-B21C-2A0C810AF08A", "name": "Erica Lehfeldt / Waddlers to Toddlers", "number": "PV94735", "street": "****************", "state": "MT", "city": "Billings", "zip": "59102"}, {"uuid": "A61606EA-A8BE-45EB-A958-C787AC913AE5", "name": "Erin Cofer's Childcare", "number": "PV103429", "street": "*****************", "state": "MT", "city": "Billings", "zip": "59105"}, {"uuid": "2F3A7444-3D10-4D8E-9907-C326013DF377", "name": "Erin Olson / Rug Rat Ranch", "number": "PV77532", "street": "**********************", "state": "MT", "city": "Ronan", "zip": "59864"}, {"uuid": "0FF6C247-024A-4886-83A1-2E3AF74E8027", "name": "Evergreen Kids Corner", "number": "PV109332", "street": "**********", "state": "MT", "city": "Hamilton", "zip": "59840"}, {"uuid": "8A40F4BD-9D94-4189-8991-7B08C4CFE9F0", "name": "Ewing / Safe Haven Child Care", "number": "PV107996", "street": "**********************", "state": "MT", "city": "Corvallis", "zip": "59828"}, {"uuid": "FD4B0F92-03DC-464C-BF0F-3F7AD280C2D9", "name": "ExplorationWorks-WonderLab Preschool", "number": "PV110396", "street": "****************", "state": "MT", "city": "Helena", "zip": "59601"}, {"uuid": "88B45533-8196-4A95-A246-99201133F376", "name": "Explore Academy", "number": "PV109786", "street": "****************", "state": "MT", "city": "Bozeman", "zip": "59715"}, {"uuid": "6AF146DA-6DB6-48A8-9A06-30CB87641754", "name": "Explore Montessori", "number": "PV108975", "street": "***************", "state": "MT", "city": "Bozeman", "zip": "59718"}, {"uuid": "5817203C-674E-43DE-9FD1-8E6872BEC67E", "name": "Explore's Adventures", "number": "PV110303", "street": "*************", "state": "MT", "city": "Great Falls", "zip": "59405"}, {"uuid": "04D82F76-3A7E-48A9-BCA5-FC629E87CBE4", "name": "Faith Early Learning Center LLC", "number": "PV106094", "street": "******************", "state": "MT", "city": "Bozeman", "zip": "59718"}, {"uuid": "55D08787-879D-4887-BC90-24508289DEDF", "name": "Family Tree Nurturing Center Childcare", "number": "PV109848", "street": "*********************", "state": "MT", "city": "Billings", "zip": "59101"}, {"uuid": "D10C3671-B99E-486A-B817-9160D5FA5C38", "name": "Firefly Children's Center", "number": "PV104684", "street": "*************", "state": "MT", "city": "Kalispell", "zip": "59901"}, {"uuid": "00E2CD7C-7D1F-4CEF-A4CE-351954E8E98A", "name": "Flathead Child Care", "number": "PV110120", "street": "***************", "state": "MT", "city": "Kalispell", "zip": "59901"}, {"uuid": "F15A3EF1-DC68-4D58-99AB-476BB4E8ABAD", "name": "Flathead Childcare Columbia Falls", "number": "PV110553", "street": "****************", "state": "MT", "city": "Columbia Falls", "zip": "59912"}, {"uuid": "B6D9FBD4-53B7-4AA5-B9C4-334DBDC9B3A9", "name": "Flathead Childcare Whitefish", "number": "PV110552", "street": "*******************", "state": "MT", "city": "Whitefish", "zip": "59937"}, {"uuid": "E0BE2006-93D8-4C61-9DA4-D89CD9DA020A", "name": "Flint Creek Childcare/ Mary Hager", "number": "PV108475", "street": "*****************", "state": "MT", "city": "Philipsburg", "zip": "59858"}, {"uuid": "9A141938-F3E2-4E33-803A-FCE7A7034C50", "name": "Footsteps / Angela Buckley", "number": "PV92419", "street": "****************", "state": "MT", "city": "Bozeman", "zip": "59715"}, {"uuid": "9224DE01-3681-495F-AEDF-43105932BB87", "name": "Forry / Rainbow Rapids", "number": "PV108966", "street": "***************", "state": "MT", "city": "Missoula", "zip": "59801"}, {"uuid": "10E940E9-204A-40D3-8BB9-E3D78F0EA1B8", "name": "Fort Courage Child Care", "number": "PV77091", "street": "************", "state": "MT", "city": "Missoula", "zip": "59804"}, {"uuid": "A1C6B583-76C1-46C2-8BD5-19BF5C9883CD", "name": "Francine Shaw", "number": "PV88743", "street": "**********************", "state": "MT", "city": "Billings", "zip": "59105"}, {"uuid": "ACEFF285-3ADD-4206-A849-E104ADAA452A", "name": "Frank T LaPlant", "number": "PV110231", "street": "************************", "state": "MT", "city": "Missoula", "zip": "59802"}, {"uuid": "67EAAE07-741F-4318-B087-69983239FA89", "name": "Free / MT Mama Childcare Cold Springs", "number": "PV110312", "street": "**************", "state": "MT", "city": "Missoula", "zip": "59803"}, {"uuid": "4294E665-392A-41B0-A826-FAE254F17629", "name": "Free / MT Mama Childcare North", "number": "PV108002", "street": "***************", "state": "MT", "city": "Missoula", "zip": "59808"}, {"uuid": "B69ED959-97AC-4A33-8DD0-20E859BACB2A", "name": "Friendship House Child Care Center", "number": "PV76060", "street": "*********************", "state": "MT", "city": "Billings", "zip": "59101"}, {"uuid": "E3FD48E8-CFD7-4F52-830E-FBD2A496A6E3", "name": "Friendship House Orchard Site", "number": "PV107389", "street": "******************", "state": "MT", "city": "Billings", "zip": "59101"}, {"uuid": "025D9ABF-74A3-4B81-ABD0-BCE7DF2F849F", "name": "Ful' Brite Learning Center / Fulbright", "number": "PV110135", "street": "********************", "state": "MT", "city": "Bozeman", "zip": "59718"}, {"uuid": "054DD0C3-49AF-415A-932B-6AD9962B01E8", "name": "Fun & Fancy Free Learning Center", "number": "PV79720", "street": "**************", "state": "MT", "city": "Polson", "zip": "59860"}, {"uuid": "B19104B1-6D88-4255-9C15-4216A060110F", "name": "Fun on the Farm LLC", "number": "PV109454", "street": "**************", "state": "MT", "city": "Bozeman", "zip": "59718"}, {"uuid": "9A3ED0C0-40CC-412C-8780-3556A0AD7D35", "name": "Future in the Making Preschool and Dayca", "number": "PV109865", "street": "*************", "state": "MT", "city": "Billings", "zip": "59101"}, {"uuid": "6BC10642-C95C-4A7A-BD5D-927B4A189A59", "name": "Gallatin River Child Care, LLC (Brooks)", "number": "PV110184", "street": "*************************", "state": "MT", "city": "Gallatin Gateway", "zip": "59730"}, {"uuid": "476DBF35-098D-4176-8F49-2A19E7CDC1F1", "name": "Gallatin River Child Care, LLC (Stream)", "number": "PV110180", "street": "************************", "state": "MT", "city": "Gallatin Gateway", "zip": "59730"}, {"uuid": "EA4A9992-9127-4D0F-84E7-6EABC4DD03A6", "name": "Gateway to Early Learning", "number": "PV109260", "street": "****************", "state": "MT", "city": "Columbia Falls", "zip": "59912"}, {"uuid": "DEF74233-43DF-47C1-89D6-9D4121AA9908", "name": "Genevieve King/Ashley Shelton Origins SR", "number": "PV107536", "street": "*****************", "state": "MT", "city": "Missoula", "zip": "59801"}, {"uuid": "FB46E404-0437-4AB5-B542-408B512B17B0", "name": "Genevieve King/SeQuoia King Origins JR", "number": "PV108178", "street": "*********************", "state": "MT", "city": "Missoula", "zip": "59802"}, {"uuid": "29ED60BF-FF9E-439A-A74C-92B410B67C8D", "name": "Georgia Bothman / Grandma's Daycare", "number": "PV102082", "street": "***************", "state": "MT", "city": "Libby", "zip": "59923"}, {"uuid": "A9E96B04-B6FF-450F-A65D-75E32E883851", "name": "Gerling / Diana's Little Explorers", "number": "PV109331", "street": "***********", "state": "MT", "city": "Libby", "zip": "59923"}, {"uuid": "DBB94F1A-1CA4-4419-83D5-7535E5E1D333", "name": "Gibson Grove Preschool and Childcare", "number": "PV109455", "street": "******************", "state": "MT", "city": "Great Falls", "zip": "59401"}, {"uuid": "960D8A08-36DB-4F7A-A621-358DC79A07C8", "name": "Gibson Grove Preschool and Childcare 2.0", "number": "PV110327", "street": "**************", "state": "MT", "city": "Great Falls", "zip": "59401"}, {"uuid": "E5A215AD-9FB0-4228-AA83-198276E40739", "name": "Gina Jensen / Little Lamb Daycare", "number": "PV81572", "street": "************", "state": "MT", "city": "East Helena", "zip": "59635"}, {"uuid": "5384363A-F8F1-46DE-B457-12B9F8BBDAC4", "name": "Gina Morton / Castle Kids Camp", "number": "PV108832", "street": "*********************", "state": "MT", "city": "Lolo", "zip": "59847"}, {"uuid": "05F5C724-873F-4437-9D5E-3944CEBE9B80", "name": "Ginger Hoskinson-Lannaghan", "number": "PV92380", "street": "**********************", "state": "MT", "city": "Kalispell", "zip": "59901"}, {"uuid": "22693C65-9702-4AC6-ACEB-215CCD96C3EC", "name": "Glacier Peak Preschool", "number": "PV110316", "street": "****************", "state": "MT", "city": "Missoula", "zip": "59804"}, {"uuid": "EB0AA883-79A2-4C37-A8A6-7F2998368046", "name": "Gloria Davis / Moms Home Day Care", "number": "PV75574", "street": "**************", "state": "MT", "city": "Great Falls", "zip": "59401"}, {"uuid": "578B0309-43E5-4731-8B36-C23C2BC7944F", "name": "Got Griz Kids", "number": "PV86236", "street": "***************", "state": "MT", "city": "Missoula", "zip": "59808"}, {"uuid": "3B53204C-8661-40CB-A17C-4A7B672BC2AA", "name": "Grace Lutheran Learning Center", "number": "PV77310", "street": "*************", "state": "MT", "city": "Hamilton", "zip": "59840"}, {"uuid": "2A5E3E24-8E70-4C56-B51F-F79C1B086657", "name": "Gracie Houde / Kids Kingdom", "number": "PV110551", "street": "****************", "state": "MT", "city": "Broadus", "zip": "59317"}, {"uuid": "8839CB6A-596A-4DC9-8D87-D0131603F9A4", "name": "Grand Avenue Montessori / Shannon Balas", "number": "PV110145", "street": "*****************", "state": "MT", "city": "Butte", "zip": "59701"}, {"uuid": "68825B23-73FA-4BFC-B4AF-56C60F52BB7F", "name": "Great Beginnings Montessori School", "number": "PV107718", "street": "******************", "state": "MT", "city": "Bozeman", "zip": "59715"}, {"uuid": "7436C6D5-8108-49BD-B52C-4F455B2220C5", "name": "Great Beginnings Montessori School", "number": "PV101320", "street": "*******************", "state": "MT", "city": "Bozeman", "zip": "59715"}, {"uuid": "5FE044A6-F4F2-4CCD-B247-19A438F8FA65", "name": "Green Earth Montessori Nature School", "number": "PV109386", "street": "************", "state": "MT", "city": "Helena", "zip": "59601"}, {"uuid": "3AE88F0E-ED72-4CE6-8AFD-383A47D099C0", "name": "Growing In God's Love Childcare", "number": "PV97177", "street": "************************", "state": "MT", "city": "Whitefish", "zip": "59937"}, {"uuid": "3D715F60-49F3-4092-A71F-05E3301E69F8", "name": "Growing Roots Early Learning Center", "number": "PV109687", "street": "********************", "state": "MT", "city": "Kalispell", "zip": "59901"}, {"uuid": "B093659A-2256-4030-815E-E24110CCB328", "name": "Growing Roots Early Learning Ctr Somers", "number": "PV110128", "street": "**********************", "state": "MT", "city": "Somers", "zip": "59932"}, {"uuid": "4606C34D-A9CD-4E74-BB35-97DE04920531", "name": "Growing Roots Learning Center / Sears", "number": "PV110078", "street": "***********", "state": "MT", "city": "Livingston", "zip": "59047"}, {"uuid": "2DE10795-F53E-41E4-8439-ECBC9DFC4604", "name": "Gusky / Missoula Valley Montessori", "number": "PV109597", "street": "************", "state": "MT", "city": "Missoula", "zip": "59808"}, {"uuid": "67DAB817-761F-404B-B51A-85CF56B998B0", "name": "Gwynne Christiansen", "number": "PV92864", "street": "*******************", "state": "MT", "city": "Livingston", "zip": "59047"}, {"uuid": "A9517674-C88D-4A33-AF3F-E264EE6325DF", "name": "Haleryn Dunlap / The Wildflower School", "number": "PV109247", "street": "******************", "state": "MT", "city": "Bozeman", "zip": "59715"}, {"uuid": "D23AA2C3-F6F2-448C-8B60-DE55F6C1C8B1", "name": "Haley Free / Montana Mama Childcare", "number": "PV92252", "street": "*********************", "state": "MT", "city": "Missoula", "zip": "59801"}, {"uuid": "14A2DA73-B323-4B7D-BF79-4F3B5ECEA94B", "name": "Hallenberg / Tiny Town Childcare LLC", "number": "PV109208", "street": "********************", "state": "MT", "city": "Frenchtown", "zip": "59834"}, {"uuid": "D6BE6472-FFD4-4A74-9502-3021E3AA1917", "name": "Hands / Giant Springs Elementary School", "number": "PV75607", "street": "*************", "state": "MT", "city": "Great Falls", "zip": "59401"}, {"uuid": "687171E1-6297-4B81-A043-4ADA4B14D495", "name": "Hands on Learning Childcare Butte", "number": "PV108925", "street": "*************", "state": "MT", "city": "Butte", "zip": "59701"}, {"uuid": "F6668A57-F7A7-46B3-8CF5-D03FFF63B3C2", "name": "Hands/Chief Joseph School", "number": "PV75618", "street": "**************", "state": "MT", "city": "Great Falls", "zip": "59405"}, {"uuid": "5FCDCF6F-947C-4D47-B643-63146CEF6C2F", "name": "Hands/Lewis & Clark Elementary School", "number": "PV75608", "street": "**************", "state": "MT", "city": "Great Falls", "zip": "59405"}, {"uuid": "DAE3AC22-88D9-4F9B-8110-2192B3E67C7A", "name": "Hands/Lincoln Elementary School", "number": "PV75613", "street": "*********************", "state": "MT", "city": "Great Falls", "zip": "59405"}, {"uuid": "DCCDBAFA-0723-41F7-8BBC-4EBDA200F3D4", "name": "Hands/Loy Elem School", "number": "PV75606", "street": "*************", "state": "MT", "city": "Great Falls", "zip": "59405"}, {"uuid": "521B604F-102C-4190-952F-7ED84A2D3A70", "name": "Hands/Meadowlark Elementary School", "number": "PV75614", "street": "******************", "state": "MT", "city": "Great Falls", "zip": "59404"}, {"uuid": "A15C0724-9739-4191-9DE6-EF810C4CF07B", "name": "Hands/Morningside School", "number": "PV75617", "street": "**************", "state": "MT", "city": "Great Falls", "zip": "59405"}, {"uuid": "D7B3C1C3-98D1-490A-995C-ED4B180C05EF", "name": "Hands/Mountain View School", "number": "PV75619", "street": "***************", "state": "MT", "city": "Great Falls", "zip": "59405"}, {"uuid": "B6A0EA83-9757-4C6A-A510-896C64D59535", "name": "Hands/Riverview Elementary School", "number": "PV75609", "street": "***************", "state": "MT", "city": "Great Falls", "zip": "59404"}, {"uuid": "4FF9D5D2-9F79-416C-B2B2-AAE840387558", "name": "Hands/Sacajawea Elementary School", "number": "PV75612", "street": "****************", "state": "MT", "city": "Great Falls", "zip": "59404"}, {"uuid": "0AE3B117-758E-4BEE-8CC3-C520402D3CA0", "name": "Hands/Sunnyside School", "number": "PV75620", "street": "**************", "state": "MT", "city": "Great Falls", "zip": "59405"}, {"uuid": "D9AC4C6B-025A-4884-8070-5F7F111433C8", "name": "Hands/Valley View School", "number": "PV75615", "street": "***************", "state": "MT", "city": "Great Falls", "zip": "59404"}, {"uuid": "1A22CA03-137B-495D-A33A-CF5D004A2F27", "name": "Hands/West Elementary School", "number": "PV75611", "street": "****************", "state": "MT", "city": "Great Falls", "zip": "59404"}, {"uuid": "62F7FD6F-5676-4D55-ADE8-251296869613", "name": "Hands/Whittier School", "number": "PV75616", "street": "********************", "state": "MT", "city": "Great Falls", "zip": "59401"}, {"uuid": "284E9403-28F6-4B10-B78D-E07DF436D81A", "name": "Hanna Ricks / Sunshine Childcare", "number": "PV110364", "street": "******************", "state": "MT", "city": "Butte", "zip": "59701"}, {"uuid": "33581096-173A-40F4-A14A-4F3EBE861DA1", "name": "Hannah Phelan/Little Chickadee Learning", "number": "PV110515", "street": "**********************", "state": "MT", "city": "Lodge Grass", "zip": "59050"}, {"uuid": "03322CA1-DD89-4B1B-BD97-4BC37CA4BDF0", "name": "Hannah Shiesl / Creative Little Hands", "number": "PV109703", "street": "*************", "state": "MT", "city": "Kalispell", "zip": "59901"}, {"uuid": "4E5CDBB8-3634-4C54-A383-4DBA011680A2", "name": "Happy Campers Child Care Center", "number": "PV109565", "street": "*************************", "state": "MT", "city": "Helena", "zip": "59602"}, {"uuid": "70A3B74F-4B79-4A3C-B797-5568C5BBB483", "name": "Happy Campers Child Care Center #2", "number": "PV110300", "street": "************", "state": "MT", "city": "Helena", "zip": "59602"}, {"uuid": "9CDB90EA-20EC-40C4-B69F-2E8503155E0C", "name": "Hazelnut Montessori Inc.", "number": "PV109166", "street": "***********************", "state": "MT", "city": "Bozeman", "zip": "59715"}, {"uuid": "4ECBEEC6-49FE-408F-BE77-6C482BCD120F", "name": "Hazlett/Pathfinder Preschool & Childcare", "number": "PV108469", "street": "***************", "state": "MT", "city": "Townsend", "zip": "59644"}, {"uuid": "23584D04-EB6F-4DBC-A70F-DBC530DC5992", "name": "Head Start Inc - AWARE Site", "number": "PV107610", "street": "**************", "state": "MT", "city": "Billings", "zip": "59102"}, {"uuid": "C017BEA7-E647-4202-BF0A-469EB2188D52", "name": "Healthy Learning Academy", "number": "PV104404", "street": "**************", "state": "MT", "city": "Bozeman", "zip": "59718"}, {"uuid": "708050AD-1C9D-4BBD-9B2B-79ADA96936D0", "name": "Hearts and Hands II Montessori/ Hall", "number": "PV94645", "street": "******************", "state": "MT", "city": "Belgrade", "zip": "59714"}, {"uuid": "75F3C18C-5268-4B58-A2C3-5149F5B26C5B", "name": "Heather  Holland / Leap to Learning", "number": "PV106273", "street": "**********", "state": "MT", "city": "Billings", "zip": "59102"}, {"uuid": "46132497-2206-4B30-A4ED-98937A244528", "name": "Heather A Hilario", "number": "PV107094", "street": "********************", "state": "MT", "city": "Missoula", "zip": "59808"}, {"uuid": "700C112C-170B-4F17-A772-52C9FFC0FFC0", "name": "Heather Wilkerson / Little Sunshine", "number": "PV101372", "street": "*****************", "state": "MT", "city": "Laurel", "zip": "59044"}, {"uuid": "79B24199-1C88-47C0-AA4D-B5F0680DD553", "name": "Heather's Zoo", "number": "PV106992", "street": "*****************", "state": "MT", "city": "Dillon", "zip": "59725"}, {"uuid": "C616E4EE-7222-4B3F-A810-B94515342450", "name": "Heidi J Kincel / A Place to Grow", "number": "PV105560", "street": "************", "state": "MT", "city": "Kalispell", "zip": "59901"}, {"uuid": "A91CDB71-3A08-41C6-A329-673EEF209F90", "name": "Helena Family YMCA", "number": "PV106355", "street": "****************************", "state": "MT", "city": "Helena", "zip": "59601"}, {"uuid": "7F619C8C-033A-4A6E-A42A-EB865A8C2E9D", "name": "Hershberger/Bright Beginnings Preschool", "number": "PV110412", "street": "**************", "state": "MT", "city": "Lewistown", "zip": "59457"}, {"uuid": "8CDEAEF2-E942-4585-8F0A-958EAEEF47E2", "name": "Hiliary D Hart", "number": "PV95227", "street": "************", "state": "MT", "city": "Billings", "zip": "59105"}, {"uuid": "EA9E2C69-986E-4921-B23D-CB6B899C3930", "name": "Holly Mewborn / Holly's Daycare", "number": "PV85510", "street": "*********", "state": "MT", "city": "Butte", "zip": "59701"}, {"uuid": "E2C03DED-6E22-45D5-A84B-E315896D849A", "name": "Holly Sanders / Tiny Bees Daycare", "number": "PV110199", "street": "******************", "state": "MT", "city": "Thompson Falls", "zip": "59873"}, {"uuid": "48A8798B-E603-460D-8491-33CBAC100ADE", "name": "Holy Spirit Extended Care", "number": "PV77631", "street": "****************", "state": "MT", "city": "Great Falls", "zip": "59401"}, {"uuid": "E9DA8E86-B739-480A-984A-7F51BC991C97", "name": "Honey Bear Montessori LLC", "number": "PV108012", "street": "**************", "state": "MT", "city": "Columbia Falls", "zip": "59912"}, {"uuid": "FECEC5BC-BE78-44C5-B43B-16B907A0C127", "name": "Honeybear Daycare Center", "number": "PV79070", "street": "******************", "state": "MT", "city": "Missoula", "zip": "59801"}, {"uuid": "9E672231-1880-498F-93AD-286837681DAE", "name": "HPDP Daycare/ Stacy Standing", "number": "PV110170", "street": "***************", "state": "MT", "city": "Poplar", "zip": "59255"}, {"uuid": "E8CF756B-3A60-4AEE-8988-C8399D90A9CC", "name": "HRDC Head Start Belgrade", "number": "PV81716", "street": "**********", "state": "MT", "city": "Belgrade", "zip": "59714"}, {"uuid": "780FE90F-23FE-414D-833A-C6C1237419FC", "name": "HRDC Head Start-Bozeman", "number": "PV81715", "street": "*************", "state": "MT", "city": "Bozeman", "zip": "59718"}, {"uuid": "F4EB263A-9151-427E-96FE-22C7A4FB5ADC", "name": "HSD  1 Smith SACC", "number": "PV96679", "street": "************", "state": "MT", "city": "Helena", "zip": "59601"}, {"uuid": "43B51058-1FA1-414D-A7BE-8B0D58EABA4A", "name": "HSD 1 Broadwater SACC", "number": "PV77435", "street": "***************", "state": "MT", "city": "Helena", "zip": "59601"}, {"uuid": "C30D57C3-99B5-4CF5-B6F3-AC59E6239002", "name": "HSD 1 Bryant SACC", "number": "PV109339", "street": "*******************", "state": "MT", "city": "Helena", "zip": "59601"}, {"uuid": "976D53FF-D49C-4A99-B655-63AD0172F830", "name": "HSD 1 Central SACC", "number": "PV77440", "street": "***************", "state": "MT", "city": "Helena", "zip": "59601"}, {"uuid": "C61E8572-1782-4749-B5D9-16AA9137E466", "name": "HSD 1 Four Georgians SACC", "number": "PV77436", "street": "*************", "state": "MT", "city": "Helena", "zip": "59601"}, {"uuid": "7B7AC72D-2A86-495C-BB78-3CF302AE5B32", "name": "HSD 1 Hawthorne SACC", "number": "PV77437", "street": "***************", "state": "MT", "city": "Helena", "zip": "59601"}, {"uuid": "6C47BBB9-2D80-47B0-8477-2E15EB78A864", "name": "HSD 1 Jefferson SACC", "number": "PV77434", "street": "*************", "state": "MT", "city": "Helena", "zip": "59601"}, {"uuid": "F45224FE-CF25-48FB-8DC2-BE0EF0C73B52", "name": "HSD 1 Jim Darcy SACC", "number": "PV103149", "street": "*****************", "state": "MT", "city": "Helena", "zip": "59602"}, {"uuid": "EF793CBE-4428-4BA2-AB96-D59B070FF4FA", "name": "HSD 1 Kessler SACC", "number": "PV77443", "street": "***************", "state": "MT", "city": "Helena", "zip": "59601"}, {"uuid": "88E19961-1172-4AA4-A4A7-9AFD138BEA4A", "name": "HSD 1 Rossiter SACC", "number": "PV77438", "street": "****************", "state": "MT", "city": "Helena", "zip": "59602"}, {"uuid": "581CD3E0-1A18-4D83-BE0F-99B94B03D863", "name": "HSD 1 Warren SACC", "number": "PV77442", "street": "****************", "state": "MT", "city": "Helena", "zip": "59602"}, {"uuid": "C1BE86C9-83C0-4743-95D9-49E15636A852", "name": "I Heart Preschool", "number": "PV105800", "street": "*************", "state": "MT", "city": "Missoula", "zip": "59803"}, {"uuid": "9ECE8F49-46FC-4D8D-B734-7F0F1F1F209E", "name": "It's Just Like Home Child Development Ce", "number": "PV105868", "street": "************", "state": "MT", "city": "Billings", "zip": "59106"}, {"uuid": "F0F4F747-0F8F-4E2C-8B07-EE7A6DD97D3C", "name": "Ivone Mireles-Puente / Little Ducklings", "number": "PV108720", "street": "****************", "state": "MT", "city": "Bozeman", "zip": "59718"}, {"uuid": "58C36B9A-70FD-4BC0-803F-DD8AF8718A13", "name": "J Wheeler / Jackie Jo's Childcare", "number": "PV109003", "street": "********************", "state": "MT", "city": "Ronan", "zip": "59864"}, {"uuid": "144410D5-2BEA-4B44-BE36-B816DFFD42BF", "name": "Jacobson / Tiny Town Childcare", "number": "PV109755", "street": "************", "state": "MT", "city": "Deer Lodge", "zip": "59722"}, {"uuid": "1CA4A5B3-1D5C-4AE9-AD1C-241A68391FCD", "name": "Jade Michele Descharme", "number": "PV109743", "street": "**********************", "state": "MT", "city": "Missoula", "zip": "59802"}, {"uuid": "CF7C026E-0064-4042-BC27-BDBF54839A94", "name": "Jade Smith / Jader'z Baby Big House", "number": "PV105320", "street": "********************", "state": "MT", "city": "Helena", "zip": "59602"}, {"uuid": "5F9C870A-50ED-4E4F-8A9E-16775A4AEC85", "name": "Jahmeliah Nelson / Bumble Bee Childcare", "number": "PV95651", "street": "**********", "state": "MT", "city": "Billings", "zip": "59102"}, {"uuid": "8E8A655E-7270-46EC-9ADD-56DBFE3F22B4", "name": "Jaime Caldwell", "number": "PV109409", "street": "*************", "state": "MT", "city": "Kalispell", "zip": "59901"}, {"uuid": "04E9DB5F-5008-46A1-BFE6-D176A7662FCC", "name": "Jaimie Johnson / Little Wanderers", "number": "PV110042", "street": "*****************", "state": "MT", "city": "Joliet", "zip": "59041"}, {"uuid": "64B6F730-34D2-4EED-8151-89BEAA1A982B", "name": "James Day/Alberton Early Learning Too", "number": "PV110392", "street": "********************", "state": "MT", "city": "Alberton", "zip": "59820"}, {"uuid": "96298E7E-9944-4A7E-8C77-88C79FD83E10", "name": "Jamie Lackman / Jamie's Day Care", "number": "PV86526", "street": "*****************", "state": "MT", "city": "Laurel", "zip": "59044"}, {"uuid": "A3B94323-75BD-4B82-A1D0-DC6D7290DA45", "name": "Jamie Lazzari / Jamie's Daycare", "number": "PV93918", "street": "***************", "state": "MT", "city": "Butte", "zip": "59701"}, {"uuid": "19128CA6-0FB5-4E7E-84E4-1DF9B8CBE79F", "name": "Jamie Moore", "number": "PV109193", "street": "***************", "state": "MT", "city": "Butte", "zip": "59701"}, {"uuid": "B86A37FD-F27F-4457-812D-13C1AB0FDFDC", "name": "Jamie Waltz / Little Rascals Daycare", "number": "PV109251", "street": "****************", "state": "MT", "city": "Hobson", "zip": "59452"}, {"uuid": "E43A3D1C-0A6C-40EE-A7D9-EAED0F13C180", "name": "Jamie Waltz / Little Rascals Daycare  2", "number": "PV109447", "street": "************", "state": "MT", "city": "Hobson", "zip": "59452"}, {"uuid": "34C7B97C-F7AB-4686-8872-DEDBDAC86CC6", "name": "Jan Green/The Greenhouse for KIDS", "number": "PV109308", "street": "*****************", "state": "MT", "city": "Billings", "zip": "59101"}, {"uuid": "E943D618-49B9-4248-BBD2-17FC9822DA6F", "name": "Janelle M Jacobson / Lil Busy Bees", "number": "PV108054", "street": "************", "state": "MT", "city": "Plentywood", "zip": "59254"}, {"uuid": "D678DEB4-2B03-4583-92C6-B090512C2373", "name": "Janet Fjeseth", "number": "PV76317", "street": "******************", "state": "MT", "city": "Dillon", "zip": "59725"}, {"uuid": "15E1FE7B-7ADE-447B-828B-C29348348C3C", "name": "Jannaelle Hoiland / Miss Nelly's Nest", "number": "PV80914", "street": "*************", "state": "MT", "city": "Fairfield", "zip": "59436"}, {"uuid": "ACD03E6C-A5DD-4CB6-AD4E-D404DE46C64C", "name": "Jayme Loraine Simonis/ Geyser Daycare", "number": "PV108950", "street": "*************", "state": "MT", "city": "Geyser", "zip": "59447"}, {"uuid": "74A11921-9E19-4904-A748-CA6BC6E6C9DF", "name": "Jayme Peterson / Bambinis Playschool", "number": "PV100606", "street": "***********************", "state": "MT", "city": "Missoula", "zip": "59803"}, {"uuid": "CF1170EB-E476-4AFB-B575-E918BE6FD3F2", "name": "Jenna Nelson / Nelson's Nest", "number": "PV96605", "street": "**************", "state": "MT", "city": "Bozeman", "zip": "59718"}, {"uuid": "A3958C7E-3731-4F63-94BC-4B423638D99F", "name": "Jennfier Turney / Tots & Toys LLC", "number": "PV102544", "street": "****************", "state": "MT", "city": "Dillon", "zip": "59725"}, {"uuid": "6993A249-8520-4DDF-8B2F-1256A0A1C17A", "name": "Jennie Yates / The Rocking Horse", "number": "PV75621", "street": "***************", "state": "MT", "city": "Great Falls", "zip": "59405"}, {"uuid": "2466C0AD-6B2D-49FA-B07F-31C0796C01A1", "name": "Jennifer Carlson / Jen's Kiddie Korner", "number": "PV109985", "street": "*************", "state": "MT", "city": "Butte", "zip": "59701"}, {"uuid": "EA3E123F-2ADC-4DBB-9F0C-8031A1CABFA3", "name": "Jennifer Dahl / A Child's Place", "number": "PV97121", "street": "***********", "state": "MT", "city": "Havre", "zip": "59501"}, {"uuid": "FC134C50-9246-4B1C-B8A2-165F7661F014", "name": "Jennifer Johannesen/Jen's Day Care", "number": "PV81021", "street": "********************", "state": "MT", "city": "Malta", "zip": "59538"}, {"uuid": "20ED83F7-98CD-436C-BB9A-AFE55228B48C", "name": "Jennifer Lonsdale / Heartworks Montana", "number": "PV104738", "street": "*************", "state": "MT", "city": "Bozeman", "zip": "59715"}, {"uuid": "08529409-F56B-49FB-8345-A70C7CA98172", "name": "Jennifer Losing", "number": "PV106809", "street": "*********************", "state": "MT", "city": "Kalispell", "zip": "59901"}, {"uuid": "87A91F40-3E43-4AE6-8B4B-F8DC7D1EA7CE", "name": "Jennifer Lynn Hardy", "number": "PV110340", "street": "************", "state": "MT", "city": "Fallon", "zip": "59326"}, {"uuid": "C9FB40FC-181C-443B-8F40-A92156E35BAD", "name": "Jennifer Lynn Main-Robins", "number": "PV110530", "street": "*********************", "state": "MT", "city": "Plains", "zip": "59859"}, {"uuid": "7385F6AE-D29F-482E-8878-61B4A56B55C6", "name": "Jennifer Ruland / Jen Ruland Day Care", "number": "PV108985", "street": "***************", "state": "MT", "city": "Miles City", "zip": "59301"}, {"uuid": "75A9F686-CE3B-4E40-93A0-2AFF02C9D8D2", "name": "Jens Little Rugrats Inc.", "number": "PV109502", "street": "*****************", "state": "MT", "city": "Belgrade", "zip": "59714"}, {"uuid": "A6F94CEF-418C-4E61-B9F8-062623E33C30", "name": "Jess James/The Birds Nest Discoverschool", "number": "PV108882", "street": "***********************", "state": "MT", "city": "Kalispell", "zip": "59901"}, {"uuid": "F7A84500-83AB-4BFE-B7E0-1C085068C63A", "name": "Jessica Holton / Westby Youngsters", "number": "PV110455", "street": "*****************", "state": "MT", "city": "Westby", "zip": "59275"}, {"uuid": "E9188E93-67EA-4C95-B515-9777AD7E61CD", "name": "Jessica Hurley / Big Treeschool", "number": "PV110291", "street": "***********************", "state": "MT", "city": "Kalispell", "zip": "59901"}, {"uuid": "11966F98-C077-47AA-8B23-84A3BFA655D8", "name": "Jessica James/The Birds Nest Preschool", "number": "PV108582", "street": "***********************", "state": "MT", "city": "Kalispell", "zip": "59901"}, {"uuid": "CD358452-6EAC-48BB-BF58-A7266BA58397", "name": "Jessica Livingston / Lockwood Littles", "number": "PV110375", "street": "**********************", "state": "MT", "city": "Billings", "zip": "59101"}, {"uuid": "DE6ADDBE-EEFE-4023-9F4E-B215505B5612", "name": "Jessica Nordwick / Miss Nordwick's Dayca", "number": "PV88414", "street": "*******************", "state": "MT", "city": "Libby", "zip": "59923"}, {"uuid": "116950E1-0E2A-4B38-B7D2-5398942551BA", "name": "Jessica Pedersen", "number": "PV110583", "street": "************", "state": "MT", "city": "Livingston", "zip": "59047"}, {"uuid": "FC8A0AAB-2BB8-4FAD-917E-1FF2FAE4C1E2", "name": "Jessica Schubert / Kiddie Daze Daycare", "number": "PV82797", "street": "**********", "state": "MT", "city": "Havre", "zip": "59501"}, {"uuid": "974A0023-15DA-420D-B6D2-E85CD17B7ABD", "name": "Jessica Steele / Dew Drops Drop In", "number": "PV110353", "street": "*************", "state": "MT", "city": "Laurel", "zip": "59044"}, {"uuid": "880CF8D9-E2F1-4727-8704-E0DE610C61E0", "name": "Jessica Steele / Little Sprouts", "number": "PV110562", "street": "******************", "state": "MT", "city": "Billings", "zip": "59102"}, {"uuid": "917C28E3-0A2E-4125-BA75-FF69ACB82CF0", "name": "Jessie Roberts / Wolfes Daycare", "number": "PV107638", "street": "***************", "state": "MT", "city": "Sidney", "zip": "59270"}, {"uuid": "586B4C8B-4878-4DAB-880F-13A5BF2E1F64", "name": "Jessielynn Drake / Precious Moments", "number": "PV109937", "street": "**************", "state": "MT", "city": "Helena", "zip": "59601"}, {"uuid": "FA4DB15C-365B-4173-84B3-1059D92FBDC6", "name": "Jessy Schroeder", "number": "PV79911", "street": "*************", "state": "MT", "city": "Havre", "zip": "59501"}, {"uuid": "364F86E7-8BA0-4928-B351-A5573CD567AD", "name": "Jill Caine / Jill's Lil Beans Child Care", "number": "PV102237", "street": "**************", "state": "MT", "city": "Belgrade", "zip": "59714"}, {"uuid": "1AAE51FA-0F45-4822-86A5-41865CF2B313", "name": "Jill Sharon Smith / Twinkle Star Daycare", "number": "PV106000", "street": "*********************", "state": "MT", "city": "Kalispell", "zip": "59901"}, {"uuid": "13FA1980-77C2-4502-BE55-BDD20E80F73A", "name": "Jill Skinner / Ms. Jill's Place", "number": "PV106573", "street": "**************", "state": "MT", "city": "Great Falls", "zip": "59404"}, {"uuid": "D973F5FF-23AB-4323-8099-7AE852EA86AF", "name": "Jitterbugs Preschool   Daycare Center", "number": "PV105978", "street": "*************", "state": "MT", "city": "Sidney", "zip": "59270"}, {"uuid": "59E365FC-4624-4182-9925-F93EBD44873A", "name": "JoDean White / JoDean's Daycare", "number": "PV94306", "street": "**********", "state": "MT", "city": "Miles City", "zip": "59301"}, {"uuid": "B4D68AA1-72D2-4BDE-8FAE-BAE704A9D191", "name": "Jodi White / Jodi's DayCare", "number": "PV76013", "street": "***************", "state": "MT", "city": "Billings", "zip": "59102"}, {"uuid": "EEE6B208-E523-428B-AE16-383CD0EF685E", "name": "Jody Allison / Miss Jody Preschool Inc", "number": "PV108401", "street": "*************", "state": "MT", "city": "Dillon", "zip": "59725"}, {"uuid": "08A78F9F-7225-453F-B54E-8658DE0BF7EA", "name": "Johnson, A/ Havener,L /Building Blocks N", "number": "PV110138", "street": "******************", "state": "MT", "city": "Deer Lodge", "zip": "59722"}, {"uuid": "AD23998C-C110-44D5-B697-F017B6757170", "name": "Joyful Noise Lutheran Child Care", "number": "PV79512", "street": "***************", "state": "MT", "city": "Seeley Lake", "zip": "59868"}, {"uuid": "714C4F66-1453-4A21-B20B-2C43FD9C8DAA", "name": "Judith Meyer / Judy's Daycare", "number": "PV75676", "street": "****************", "state": "MT", "city": "Great Falls", "zip": "59404"}, {"uuid": "E02B7FB3-94BC-4CD5-9A19-A33674377B49", "name": "Julie Charles-Lott / Lotts of Love", "number": "PV102856", "street": "***************", "state": "MT", "city": "Deer Lodge", "zip": "59722"}, {"uuid": "415B8C3D-643A-4B68-941E-EA2D22760E85", "name": "Julie Kittle / Rocky Mountain Rascals", "number": "PV109388", "street": "**************", "state": "MT", "city": "White Sulphur Springs", "zip": "59645"}, {"uuid": "EF0EF16C-79AF-412C-8BB9-D502581249C4", "name": "Julie Ludwig / Little Bear Daycare 2", "number": "PV98528", "street": "******************", "state": "MT", "city": "Columbus", "zip": "59019"}, {"uuid": "9CFF99EF-EAB0-46E5-AD43-7B82AD83E195", "name": "Julie Peltier/Tiny Treasures Childcare", "number": "PV99196", "street": "**************", "state": "MT", "city": "Missoula", "zip": "59803"}, {"uuid": "052055B4-CA8E-42BB-BFC4-324D7BA2812B", "name": "Julie Roberts", "number": "PV75863", "street": "******************", "state": "MT", "city": "Fairfield", "zip": "59436"}, {"uuid": "3BBE5AF2-A840-4517-89AF-79B607F58F1B", "name": "Jurek, Tristen/Plains Elementary School", "number": "PV109649", "street": "****************", "state": "MT", "city": "Plains", "zip": "59859"}, {"uuid": "31385B82-D864-4C36-8D6C-8BD99B9A6CFA", "name": "Just Like Home Daycare LLC", "number": "PV76555", "street": "****************", "state": "MT", "city": "Helena", "zip": "59601"}, {"uuid": "11A69AEF-5B98-4FBD-91FB-1DBE15088918", "name": "Just Like Home Two", "number": "PV77865", "street": "****************", "state": "MT", "city": "East Helena", "zip": "59635"}, {"uuid": "76E7A912-2DBD-47C7-A713-6961A7C603D6", "name": "K Harkins / Happy Hearts Learning Center", "number": "PV110581", "street": "***************", "state": "MT", "city": "Billings", "zip": "59102"}, {"uuid": "1802F238-598D-49E6-A07E-16E0EAFE3865", "name": "Kaitlyn Irene Moore", "number": "PV110451", "street": "*************", "state": "MT", "city": "Anaconda", "zip": "59711"}, {"uuid": "41FBBD24-C2A0-4A29-91E5-7DE5E5381318", "name": "Kaitlyn Mackay / Tiny Toes Daycare", "number": "PV110518", "street": "****************", "state": "MT", "city": "Miles City", "zip": "59301"}, {"uuid": "EAB02345-9D61-41B9-A417-3199A6DC5C32", "name": "Kalli Poindexter / Just 4 Kidz", "number": "PV109351", "street": "***************", "state": "MT", "city": "Great Falls", "zip": "59404"}, {"uuid": "7930E6D5-3AE2-4593-BA11-F0848B218BFF", "name": "Kama Jensen / Mining City Kids Daycare", "number": "PV110460", "street": "****************", "state": "MT", "city": "Butte", "zip": "59701"}, {"uuid": "C32A44A3-8C76-4AFD-87B2-F09593CEF4BD", "name": "Kanicka Gunn / Little Sweeties Childcare", "number": "PV109976", "street": "*************", "state": "MT", "city": "Billings", "zip": "59102"}, {"uuid": "F1F6C172-1D18-4D89-BE09-4D3A661CBDA1", "name": "Kara Kraft / Lil Love Bugs XL", "number": "PV80327", "street": "**************", "state": "MT", "city": "Billings", "zip": "59101"}, {"uuid": "F08F7948-9247-4E5F-B130-CFFFF5891F80", "name": "Kara Kraft/Lil Love Bugs", "number": "PV99246", "street": "**************", "state": "MT", "city": "Billings", "zip": "59102"}, {"uuid": "03950D0C-66E3-495A-86D6-D4B510CC1B44", "name": "Karen Walker / Karen's Small World", "number": "PV77337", "street": "*********************", "state": "MT", "city": "Stevensville", "zip": "59870"}, {"uuid": "E588287E-61F4-4811-9EB5-6B450A0D141B", "name": "Kari Kittlemann / Ekalaka Public Schools", "number": "PV109623", "street": "*****************", "state": "MT", "city": "Ekalaka", "zip": "59324"}, {"uuid": "3748588D-9C00-4857-99D6-21EAD60AFA06", "name": "Kari Shirley / Babies and Beyond", "number": "PV82616", "street": "***********", "state": "MT", "city": "East Helena", "zip": "59635"}, {"uuid": "85F1FFF7-1315-4397-8704-7035ADE1C791", "name": "Kasie's Child Care   Learning Center", "number": "PV96348", "street": "************", "state": "MT", "city": "Libby", "zip": "59923"}, {"uuid": "5F43D8DA-5B11-4D8C-93A8-490028E1CDA9", "name": "Kassidy Stewart", "number": "PV82304", "street": "*****************", "state": "MT", "city": "Butte", "zip": "59701"}, {"uuid": "5FF50AB3-CBAE-4DCB-810A-EC4CA4F35AD0", "name": "Katarina Albus / Little Raiders Daycare", "number": "PV110520", "street": "****************", "state": "MT", "city": "Hinsdale", "zip": "59241"}, {"uuid": "17BBD839-E374-41E6-A219-8ABC52C29977", "name": "Kathleen Slead", "number": "PV99005", "street": "********************", "state": "MT", "city": "Helena", "zip": "59602"}, {"uuid": "5549FC69-6461-4698-AB44-0172F6B6B7FE", "name": "Kathy Whitish / Little Halo's Childcare", "number": "PV78943", "street": "**************", "state": "MT", "city": "Great Falls", "zip": "59404"}, {"uuid": "51216086-5F73-4044-BFD9-36EC11742D02", "name": "Kayla Cooley / Ceres Child Care", "number": "PV110527", "street": "*********************", "state": "MT", "city": "Great Falls", "zip": "59401"}, {"uuid": "CAB4F30E-83B5-4E28-8AE4-A1FA7727B459", "name": "Kayla Hudon / Little Raskels", "number": "PV103942", "street": "********************", "state": "MT", "city": "Harlem", "zip": "59526"}, {"uuid": "859EB9FB-8892-464A-BEC2-2A2572C33DA5", "name": "Kayla Schaef / Minnows Childcare", "number": "PV110240", "street": "******************", "state": "MT", "city": "Livingston", "zip": "59047"}, {"uuid": "3C509F54-4408-4C32-A847-25CBA0088601", "name": "Kaylee A Desmarais/First Steps Chldcare", "number": "PV106154", "street": "**********************", "state": "MT", "city": "Billings", "zip": "59102"}, {"uuid": "647E4F68-EB34-4177-A2A1-6FAE4A7F3843", "name": "Kaylee Velado-Brorsen / The Beehive", "number": "PV110434", "street": "*******************", "state": "MT", "city": "Helena", "zip": "59602"}, {"uuid": "5DAF0AD2-B945-491D-BD6C-F47F3E37A3E2", "name": "Kaylie Robison", "number": "PV109492", "street": "************", "state": "MT", "city": "Lolo", "zip": "59847"}, {"uuid": "EA833595-80CF-402D-8B92-F7ADE2F8AB28", "name": "Keitel Chirinos/Ktel's Kiddos Child Care", "number": "PV108706", "street": "**********************", "state": "MT", "city": "Missoula", "zip": "59808"}, {"uuid": "FFC7AC69-3010-417A-A048-E0147D5B0FF0", "name": "Keleigh Hollamon / Little Bear Childcare", "number": "PV108441", "street": "*********", "state": "MT", "city": "Butte", "zip": "59701"}, {"uuid": "6A0A5F12-BFBF-42CA-B9BD-EAB66AEE6768", "name": "Kelly Hanni / Precious Dreams", "number": "PV85572", "street": "*************", "state": "MT", "city": "Butte", "zip": "59701"}, {"uuid": "EB77FAA6-77D3-4FDB-9210-CB70F9ED58D8", "name": "Kelly Jo Madsen / Playschool Daycare", "number": "PV106249", "street": "****************", "state": "MT", "city": "Missoula", "zip": "59803"}, {"uuid": "0A83FB75-14C3-4ECF-B3D0-D5F7506B62CF", "name": "Kelly Jones / Kelly Place", "number": "PV110597", "street": "*******************", "state": "MT", "city": "Billings", "zip": "59105"}, {"uuid": "85C0CBC0-6B7F-4D4B-9892-3B3A3FFC8A09", "name": "Kelly Sayler / Wild Hearts Childcare", "number": "PV110355", "street": "*************", "state": "MT", "city": "Florence", "zip": "59833"}, {"uuid": "4DEE3EA7-E254-4083-8E30-50C987DEC944", "name": "Kerry  Reikofski-Rhine / Aunties", "number": "PV105748", "street": "**************", "state": "MT", "city": "Columbia Falls", "zip": "59912"}, {"uuid": "D2C7EFCA-3439-4853-BAB1-B310AED4EE60", "name": "Kevin Hollamon/Little Cub Childcare", "number": "PV110031", "street": "*****************", "state": "MT", "city": "Butte", "zip": "59701"}, {"uuid": "F4E54E47-D747-4432-A7CD-1E8BAB913EAC", "name": "Kid Corral Childcare and Learning Center", "number": "PV109288", "street": "****************", "state": "MT", "city": "Shepherd", "zip": "59079"}, {"uuid": "C0156FDF-AD05-4F21-922E-6A2C1E465D85", "name": "Kid Kare Infant Center Logan Health", "number": "PV107204", "street": "**************", "state": "MT", "city": "Kalispell", "zip": "59901"}, {"uuid": "C3A0257A-9F39-467B-A98D-594CBC90B25F", "name": "Kid Kare Logan Health", "number": "PV76796", "street": "************", "state": "MT", "city": "Kalispell", "zip": "59901"}, {"uuid": "71C91768-530C-43F3-A126-D3CB35B27026", "name": "Kid Kollege Child Enrichment Center", "number": "PV108447", "street": "**********************", "state": "MT", "city": "Billings", "zip": "59105"}, {"uuid": "A5241651-F8C7-4CDA-AE22-24C9239104E1", "name": "Kid Kountry Child Development Center", "number": "PV76284", "street": "****************", "state": "MT", "city": "Billings", "zip": "59102"}, {"uuid": "F829A15F-03F0-4367-BDC9-BED12D578850", "name": "Kid wonder learning Center", "number": "PV110194", "street": "*******************", "state": "MT", "city": "Missoula", "zip": "59803"}, {"uuid": "E535F85A-FE9E-46A1-ADB9-25F4979D2E5F", "name": "Kiddie College", "number": "PV107074", "street": "***********", "state": "MT", "city": "Glendive", "zip": "59330"}, {"uuid": "CB7D528A-0DAD-42A9-953D-0C2ADE55F8EF", "name": "Kiddo Kingdom / Robert Pare", "number": "PV110547", "street": "************", "state": "MT", "city": "Billings", "zip": "59105"}, {"uuid": "7E94FD63-26CF-4142-A5B0-DAF10E09DD00", "name": "Kids Club Child Care Center / Moore", "number": "PV77743", "street": "**************", "state": "MT", "city": "Columbus", "zip": "59019"}, {"uuid": "3C4939BF-8A16-4FA1-BC54-814ED55A7686", "name": "Kids Corral Childcare & Preschool /Rader", "number": "PV109544", "street": "***************", "state": "MT", "city": "Columbia Falls", "zip": "59912"}, {"uuid": "D1A30020-5D70-4B40-907E-325D97425775", "name": "Kids Korner Inc / Wanda Chilton", "number": "PV75535", "street": "***********", "state": "MT", "city": "Chinook", "zip": "59523"}, {"uuid": "C1EB658E-D257-48DA-A03B-06F5BA7698EC", "name": "Kids World Enrichment Center", "number": "PV108830", "street": "****************", "state": "MT", "city": "Billings", "zip": "59101"}, {"uuid": "BDB8FFF0-9972-48AC-8882-13B23A1737B1", "name": "Kidventures / Erin Briney", "number": "PV107704", "street": "******************", "state": "MT", "city": "Butte", "zip": "59701"}, {"uuid": "219AEDFE-5E45-4244-885F-F2637CCFF752", "name": "Kidz Konnection Child Care", "number": "PV87731", "street": "**************", "state": "MT", "city": "Butte", "zip": "59701"}, {"uuid": "6F2634E4-6D07-4C3C-97BC-E72188C43701", "name": "Kidz Korner LLC / Amanda Harmala", "number": "PV107806", "street": "**********************", "state": "MT", "city": "Billings", "zip": "59102"}, {"uuid": "9B33FB2B-A440-40A7-B37B-BFBAE78CC15B", "name": "Kidz Kreations / Stacie Lynn Olson", "number": "PV106146", "street": "*************", "state": "MT", "city": "Great Falls", "zip": "59405"}, {"uuid": "5E302559-3957-4B5E-82DD-9B15C925BA89", "name": "Kidz Zone LLC", "number": "PV110314", "street": "**************", "state": "MT", "city": "Billings", "zip": "59102"}, {"uuid": "0DB31AEE-7B7C-4EB5-B66C-81779C25EA03", "name": "Kim Bengtson / Mama Bears", "number": "PV108622", "street": "************", "state": "MT", "city": "Butte", "zip": "59701"}, {"uuid": "DED70E67-56A2-4561-B3FE-C1B55BD644E7", "name": "Kim Brooks / Little Darlins' Daycare", "number": "PV77961", "street": "********************", "state": "MT", "city": "Great Falls", "zip": "59404"}, {"uuid": "BEED8787-1821-4AA6-9F5F-743061AE19E0", "name": "Kim Moritz / Kim's Kiddie Korner", "number": "PV82680", "street": "**************", "state": "MT", "city": "Conrad", "zip": "59425"}, {"uuid": "957F7E77-A1D3-47D0-A9E0-53F2CBE895B0", "name": "Kimberley Farr / Busy Bee Preschool", "number": "PV110449", "street": "**********************", "state": "MT", "city": "Bozeman", "zip": "59718"}, {"uuid": "82F43FCC-FDC0-4B9F-9428-A76E09968D07", "name": "Kimberley Surman/ Butte Shining Stars", "number": "PV108624", "street": "*******************", "state": "MT", "city": "Butte", "zip": "59701"}, {"uuid": "88FA7B3A-9712-4C8C-96BD-024940297D99", "name": "Kimberly Jane Shaner", "number": "PV110318", "street": "***************", "state": "MT", "city": "Helena", "zip": "59602"}, {"uuid": "15163CA6-ADFB-4538-9674-B6AA3684B802", "name": "Kimberly Joyce Cody", "number": "PV107662", "street": "***************", "state": "MT", "city": "Troy", "zip": "59935"}, {"uuid": "427215DE-DFE0-43F8-AB8A-E56ECFD05C48", "name": "Kimberlyn Eldridge", "number": "PV110347", "street": "*******************", "state": "MT", "city": "Billings", "zip": "59105"}, {"uuid": "BBC9C6CD-4A74-412E-8239-1F1444DC5613", "name": "King's Kids / Melissa Okrusch", "number": "PV82606", "street": "**************", "state": "MT", "city": "Butte", "zip": "59701"}, {"uuid": "AD473027-437F-4977-83BE-BE4404A31598", "name": "Kodi Baughman / 406 Kids Childcare", "number": "PV108040", "street": "*************", "state": "MT", "city": "Cut Bank", "zip": "59427"}, {"uuid": "EE412794-2396-4E18-874C-7C33F46438BD", "name": "Kootenai Valley Head Start, Troy Center", "number": "PV107140", "street": "*****************", "state": "MT", "city": "Troy", "zip": "59935"}, {"uuid": "348A9610-B385-425D-B549-C7A057C6E8CA", "name": "Kootenai Valley Head Start/Libby Ctr", "number": "PV107132", "street": "******************", "state": "MT", "city": "Libby", "zip": "59923"}, {"uuid": "D26F1FE6-3CF0-49CF-9822-19CE19AAF5EF", "name": "Korri Volen / Dimples & Diapers LLC", "number": "PV110439", "street": "***************", "state": "MT", "city": "Kalispell", "zip": "59901"}, {"uuid": "5C670663-DDD0-4B2F-BEAC-3A86E2E1E0BE", "name": "Kreative Kids Preschool", "number": "PV109370", "street": "***********************", "state": "MT", "city": "Belgrade", "zip": "59714"}, {"uuid": "00E43CD1-4E57-4772-8285-C426FCEE1691", "name": "Krissy's Delicate Angels", "number": "PV104930", "street": "*************", "state": "MT", "city": "Glasgow", "zip": "59230"}, {"uuid": "EF13A0A4-BC6F-4165-B190-C60680D4950D", "name": "Kristen Simpson/ Wild Wonders Childcare", "number": "PV110557", "street": "******************", "state": "MT", "city": "Superior", "zip": "59872"}, {"uuid": "27CB50D1-AD1A-4E14-85BE-402A2C9BFE59", "name": "Kristi's Kiddie Korner / Kristi Wilson", "number": "PV96667", "street": "*************", "state": "MT", "city": "Whitehall", "zip": "59759"}, {"uuid": "7F47D57E-2BEA-43E0-B662-BDFC7234E9D1", "name": "Kristie  Bumgarner", "number": "PV81160", "street": "****************", "state": "MT", "city": "Missoula", "zip": "59801"}, {"uuid": "CA03CE90-AC1A-4AD6-B6B4-E3317A5766B0", "name": "Kristin Carlson / Mama Bear's Care", "number": "PV106677", "street": "******************", "state": "MT", "city": "Helena", "zip": "59602"}, {"uuid": "CB95FAF9-7302-4085-8216-778A06A68333", "name": "L & C's Learning Center - Blue Mountain", "number": "PV109802", "street": "*********************", "state": "MT", "city": "Missoula", "zip": "59804"}, {"uuid": "B3FDBA1B-EE12-418B-AD7A-0BFDA1B8FFEB", "name": "Lacie Dahnke/Shayleigh Hooker/Sweet Pea", "number": "PV98870", "street": "***************", "state": "MT", "city": "Butte", "zip": "59701"}, {"uuid": "D9A4FF77-0DC0-408C-B97A-9151C119CC2C", "name": "Lacie Havener /Building Blocks Childcare", "number": "PV88748", "street": "******************", "state": "MT", "city": "Deer Lodge", "zip": "59722"}, {"uuid": "08F9666F-4858-4123-A50C-556F03189D39", "name": "Larch Early Childhood Care", "number": "PV110500", "street": "**************", "state": "MT", "city": "Helena", "zip": "59601"}, {"uuid": "2D3A433A-A032-4B57-ABC1-06712C2A04F8", "name": "Larch Early Childhood Care LLC", "number": "PV110033", "street": "*****************", "state": "MT", "city": "Helena", "zip": "59601"}, {"uuid": "EE414338-BDC8-45A6-A98C-839874A6F585", "name": "Latavia Skye Left Hand", "number": "PV108997", "street": "******************", "state": "MT", "city": "Hardin", "zip": "59034"}, {"uuid": "E8B62172-0D48-4B04-97A3-C7A17A7CC7A1", "name": "Laugh and Learn Daycare LLC", "number": "PV108837", "street": "************************", "state": "MT", "city": "Belgrade", "zip": "59714"}, {"uuid": "2E6A0F6D-A133-4B85-86A8-87F71AA6956F", "name": "Laura Curl / Little Orchard on the Hill", "number": "PV108471", "street": "***********", "state": "MT", "city": "Wolf Point", "zip": "59201"}, {"uuid": "42148AB6-D33A-409E-9E0D-DBDAC066693E", "name": "Laura Tenas / Little Critters Childcare", "number": "PV106863", "street": "**************", "state": "MT", "city": "Ronan", "zip": "59864"}, {"uuid": "BB607EAD-F708-4040-8D25-E3B592BB61FF", "name": "LEAF Academy, LLC / Nancy Benner", "number": "PV110459", "street": "***************************", "state": "MT", "city": "Billings", "zip": "59102"}, {"uuid": "95E676B9-2B33-4EAE-BA3C-5654A2FC52C2", "name": "Leah Loomis", "number": "PV110596", "street": "***************", "state": "MT", "city": "Billings", "zip": "59105"}, {"uuid": "B0702CFF-0C3F-46CD-9A3E-12D342FDF9DA", "name": "Leanne T Winkowitsch / Country Fun", "number": "PV105680", "street": "*************", "state": "MT", "city": "Cut Bank", "zip": "59427"}, {"uuid": "BD0AA209-3765-45EC-A849-A34C5953C9D1", "name": "Leap Ahead Learning Center", "number": "PV108843", "street": "*****************", "state": "MT", "city": "Great Falls", "zip": "59404"}, {"uuid": "141C1628-DC9A-49A3-9436-FEE01ADB484E", "name": "Leaps And Bounds Learning Center", "number": "PV87246", "street": "**************", "state": "MT", "city": "Stevensville", "zip": "59870"}, {"uuid": "20E57F51-4FB6-43FD-AFD3-6231D9223676", "name": "Learning and Belonging (LAB) Preschool", "number": "PV78002", "street": "**********************************", "state": "MT", "city": "Missoula", "zip": "59812"}, {"uuid": "250A0C81-460F-4E4D-A0F5-7CF3A04EC52F", "name": "Lee Ann Butt's Licensed Home Child Care", "number": "PV104750", "street": "*****************", "state": "MT", "city": "Butte", "zip": "59701"}, {"uuid": "75C8A3F6-B580-4482-AF1F-2372B9D4CF1F", "name": "LeeAnn J Strasheim / Annie's House", "number": "PV107844", "street": "************", "state": "MT", "city": "Sidney", "zip": "59270"}, {"uuid": "40951078-08BB-4547-86B5-6280CAAFD5F2", "name": "Leiby/Laugh & Learn Childcare", "number": "PV109584", "street": "**********************", "state": "MT", "city": "Missoula", "zip": "59801"}, {"uuid": "FF146970-8228-45D4-8698-0BE4DD7C96EE", "name": "Lesia Skillman / Little Duck's Daycare", "number": "PV97862", "street": "***************", "state": "MT", "city": "Missoula", "zip": "59808"}, {"uuid": "DFB8B529-8E2A-410D-B8EE-CA154D0290A6", "name": "Lesley Hawbaker / Laugh and Learn DC", "number": "PV95824", "street": "****************", "state": "MT", "city": "Kalispell", "zip": "59901"}, {"uuid": "D9A408BD-67F7-4A6B-8D4B-1A303105C435", "name": "Li'l Sprouts Preschool", "number": "PV106545", "street": "***************", "state": "MT", "city": "Florence", "zip": "59833"}, {"uuid": "8D669045-91B1-476E-9D63-64990885F350", "name": "Liberty Ann Keele", "number": "PV110253", "street": "**************", "state": "MT", "city": "Laurel", "zip": "59044"}, {"uuid": "5397F8CC-6D56-4276-B0E2-DF5EAFFAF664", "name": "Lil Buds Daycare Inc", "number": "PV108094", "street": "*************", "state": "MT", "city": "Forsyth", "zip": "59327"}, {"uuid": "CA03E1E0-4D1A-47E8-B191-7827CC5139FB", "name": "Lil Love Bugs 2", "number": "PV108811", "street": "*************", "state": "MT", "city": "Billings", "zip": "59102"}, {"uuid": "4F7A9357-A64B-4DD0-AB7D-9A2C8D675195", "name": "Lil' Angels Daycare / Tammy Mix", "number": "PV80088", "street": "****************", "state": "MT", "city": "Glasgow", "zip": "59230"}, {"uuid": "1FEBA3BE-E6A3-46C9-AF62-15BE53FDF061", "name": "lil' Rascal Roundup Childcare", "number": "PV108684", "street": "***************", "state": "MT", "city": "Three Forks", "zip": "59752"}, {"uuid": "2906B0BD-1D47-41C2-9E53-D8159BE1A89D", "name": "Linda  Vogl", "number": "PV76276", "street": "****************", "state": "MT", "city": "Billings", "zip": "59105"}, {"uuid": "50E6DCA5-2763-437A-A9FF-814A949ADC1F", "name": "Linda Atkinson / Tiny Treasures Day Care", "number": "PV78322", "street": "**************", "state": "MT", "city": "Billings", "zip": "59102"}, {"uuid": "627417CF-5DBA-44AA-B1C2-3C6AAD617091", "name": "Lindsay Davis / Play To Learn Childcare", "number": "PV99617", "street": "******************", "state": "MT", "city": "Billings", "zip": "59105"}, {"uuid": "41258893-2A98-4A56-93B0-0979C82CDA02", "name": "Lindsay Figueroa / Mi Pequeno Bilingue", "number": "PV109261", "street": "****************", "state": "MT", "city": "Missoula", "zip": "59803"}, {"uuid": "444567DB-712C-447C-ABBD-1959B0567502", "name": "Lindsey's Littles", "number": "PV109284", "street": "***************", "state": "MT", "city": "Great Falls", "zip": "59404"}, {"uuid": "098C88DF-9BCB-4066-9433-0E7ED2D2C9C5", "name": "Lisa Dunn / Tiny Tots Daycare", "number": "PV85586", "street": "*****************", "state": "MT", "city": "Wolf Point", "zip": "59201"}, {"uuid": "341316EE-6C9A-4DBA-B152-6051159A104E", "name": "Lisa Hansen / Mother Goose's Day Care", "number": "PV82936", "street": "****************", "state": "MT", "city": "Dillon", "zip": "59725"}, {"uuid": "5B6E7061-1375-4699-AFA3-186599AB428A", "name": "Lisa Mullen / Kid's Cave Childcare", "number": "PV107333", "street": "****************", "state": "MT", "city": "Miles City", "zip": "59301"}, {"uuid": "68D7FE18-9202-468C-9A33-2A277EA4475D", "name": "Lisa Perrin / Pinewoods Childcare", "number": "PV91527", "street": "****************", "state": "MT", "city": "Lakeside", "zip": "59922"}, {"uuid": "6A100E12-1DF0-4C36-B702-800702C4F5A3", "name": "Lisa Wight / Lisa's Learning Lodge", "number": "PV87256", "street": "****************", "state": "MT", "city": "Billings", "zip": "59102"}, {"uuid": "969D0E3D-8790-4029-A603-956D86549470", "name": "Little Angel Daycare and Preschool", "number": "PV107445", "street": "******************", "state": "MT", "city": "Helena", "zip": "59602"}, {"uuid": "6EA4370E-0691-4D12-90B7-7D32F046318D", "name": "Little Belt Montessori LLC / Kellen Hull", "number": "PV110578", "street": "**********", "state": "MT", "city": "Helena", "zip": "59601"}, {"uuid": "058E6B60-4E49-49DB-9BB5-33B6C0FBBC09", "name": "Little Blessings Family Daycare, LLC", "number": "PV107401", "street": "****************", "state": "MT", "city": "Bozeman", "zip": "59718"}, {"uuid": "A685E7DA-5C5A-487A-97A9-2BBE19753F08", "name": "Little Daisies Academy", "number": "PV110363", "street": "*************", "state": "MT", "city": "Great Falls", "zip": "59404"}, {"uuid": "3E04DA29-44BC-4991-96F3-52CE74E1D1C1", "name": "Little Daisies Daycare", "number": "PV107916", "street": "**************", "state": "MT", "city": "Great Falls", "zip": "59405"}, {"uuid": "9694E29B-7661-4C85-A840-E31D7295DE5E", "name": "Little Dreamer's LLC 2 / Leah Maroney", "number": "PV109602", "street": "**************************", "state": "MT", "city": "Belgrade", "zip": "59714"}, {"uuid": "630FF5E5-CD1E-47E2-B689-56048D404A5E", "name": "Little Dreamers Child Care", "number": "PV108993", "street": "*********************", "state": "MT", "city": "Kalispell", "zip": "59901"}, {"uuid": "1846B2FD-636D-4FE1-BAE3-D3895AF2F684", "name": "Little Dreamers Daycare Learning Center", "number": "PV104516", "street": "****************", "state": "MT", "city": "Billings", "zip": "59101"}, {"uuid": "11DE2CE3-805E-4363-A21C-CA4A61CE1FC0", "name": "Little Ducklings Early Learning Center", "number": "PV108246", "street": "************", "state": "MT", "city": "Billings", "zip": "59102"}, {"uuid": "2B0B5450-82C8-4C3A-A9C4-FDBD997B94F9", "name": "Little Eaglets", "number": "PV93774", "street": "***********************", "state": "MT", "city": "Missoula", "zip": "59803"}, {"uuid": "6927A9A9-DF14-47D4-B6A7-4C455C9C6C0D", "name": "Little Explorers MT", "number": "PV109626", "street": "*****************", "state": "MT", "city": "Billings", "zip": "59105"}, {"uuid": "01736A0B-019B-47BA-B8CA-2BEE23A60B7B", "name": "Little Lambs Daycare", "number": "PV109644", "street": "*****************", "state": "MT", "city": "Cascade", "zip": "59421"}, {"uuid": "AA5A6BE2-6083-4846-B95A-D9912F5777CA", "name": "Little Learners Academy", "number": "PV110608", "street": "***************", "state": "MT", "city": "Great Falls", "zip": "59405"}, {"uuid": "CD09E434-0DA0-444D-ACA3-2EF83CC43E4A", "name": "Little Learners Academy / Becky Rate", "number": "PV108192", "street": "**********************", "state": "MT", "city": "Great Falls", "zip": "59405"}, {"uuid": "CDD5BF04-AB19-44A8-B532-7852358CB822", "name": "Little Loved Ones LLC", "number": "PV88446", "street": "************", "state": "MT", "city": "Belgrade", "zip": "59714"}, {"uuid": "338D3F3D-EE8F-499C-9047-5447FD993C19", "name": "Little Mae's Early Childhood Education", "number": "PV109280", "street": "************", "state": "MT", "city": "Missoula", "zip": "59808"}, {"uuid": "EE7B53B1-E7AD-4592-84AD-63F7D7D2CED6", "name": "Little Monkeys Daycare", "number": "PV97629", "street": "*****************", "state": "MT", "city": "Havre", "zip": "59501"}, {"uuid": "AB0206D8-1E15-492A-ADBA-C13DBEF615F7", "name": "Little Monsters Childcare", "number": "PV108146", "street": "***************", "state": "MT", "city": "Missoula", "zip": "59801"}, {"uuid": "6F66B9E3-3AE3-4FB7-B43F-9F40F27C4A68", "name": "Little Orphan Annie's/ Annie Cunningham", "number": "PV81816", "street": "**************", "state": "MT", "city": "Butte", "zip": "59701"}, {"uuid": "5CF16BA7-D251-4231-9A15-3B7BD77CC6B2", "name": "Little Peeps Big Leaps / Robinson", "number": "PV108913", "street": "**************", "state": "MT", "city": "Butte", "zip": "59701"}, {"uuid": "3E12DB79-B090-46C4-A877-D37E0366492D", "name": "Little Pony Employee Daycare", "number": "PV107293", "street": "*****************", "state": "MT", "city": "Havre", "zip": "59501"}, {"uuid": "54F68DBE-5334-4EC1-B585-B74914A687AC", "name": "Little Pumpkin Patch / Victoria Johnson", "number": "PV106982", "street": "********************", "state": "MT", "city": "Billings", "zip": "59102"}, {"uuid": "F8843CC5-E085-48C0-B76D-D43AFC36A723", "name": "Little Raindrops Childcare LLC", "number": "PV110290", "street": "*******************", "state": "MT", "city": "Anaconda", "zip": "59711"}, {"uuid": "527DA5E9-2EEB-4979-A3C5-7B9919FB0EF3", "name": "Little Rangers Learning Center", "number": "PV107272", "street": "**********************", "state": "MT", "city": "West Yellowstone", "zip": "59758"}, {"uuid": "2D62AEB2-52DA-4C67-9133-8C783F855C18", "name": "Little Rascals DCC - Lake Elmo", "number": "PV77702", "street": "****************", "state": "MT", "city": "Billings", "zip": "59105"}, {"uuid": "D2624B25-D1B9-4BCF-9205-0C3DC2BC90CE", "name": "Little Seeds Early Childhood Center", "number": "PV76154", "street": "************", "state": "MT", "city": "Billings", "zip": "59101"}, {"uuid": "DC35289E-56C4-4249-80A8-DC538314E1F2", "name": "Little Spanish Preschool / Helvik", "number": "PV105836", "street": "*********************", "state": "MT", "city": "Bozeman", "zip": "59718"}, {"uuid": "DE7FA1AE-9CF3-485F-A121-35693FE632BF", "name": "Little Sprouts Academy", "number": "PV109348", "street": "**********************", "state": "MT", "city": "Glendive", "zip": "59330"}, {"uuid": "F877FCB7-D1C8-48E3-8A94-F2F834DA2F99", "name": "Little Sprouts Childcare & Preschool LLC", "number": "PV108734", "street": "***************", "state": "MT", "city": "Helena", "zip": "59601"}, {"uuid": "29CBFBC1-8C71-4B27-A955-6CAF0B2A45ED", "name": "Little Sprouts Early Learning Group", "number": "PV110273", "street": "**************", "state": "MT", "city": "Belgrade", "zip": "59714"}, {"uuid": "66D07910-2DC6-43FA-83B1-DA277E642A1B", "name": "Little Squirts Childcare", "number": "PV108880", "street": "*****************", "state": "MT", "city": "Belgrade", "zip": "59714"}, {"uuid": "EE0A646D-1172-4F37-BF15-AA63269C771E", "name": "Little Sunshines Daycare", "number": "PV110445", "street": "***********************", "state": "MT", "city": "Dillon", "zip": "59725"}, {"uuid": "AF8E258B-A54E-4664-916A-4CCEA97608D5", "name": "Little Twigs", "number": "PV108709", "street": "******************************", "state": "MT", "city": "Missoula", "zip": "59801"}, {"uuid": "C49F405B-DD86-4C1D-BB87-BBE77AB1A211", "name": "Little Wings Yoga Preschool", "number": "PV106779", "street": "****************", "state": "MT", "city": "Missoula", "zip": "59802"}, {"uuid": "CBF9CE75-129C-4509-AC5A-67CF20B56FC2", "name": "Liz Gorder / IzzyB's Bumblebees", "number": "PV109503", "street": "****************", "state": "MT", "city": "Billings", "zip": "59101"}, {"uuid": "B216CF6A-BFCA-4109-95AC-5382BC103F5A", "name": "Lolly Wahl / Lolly's Day Care", "number": "PV78121", "street": "**************", "state": "MT", "city": "Circle", "zip": "59215"}, {"uuid": "4D72D6B8-BA5C-411F-94A0-B4486B544128", "name": "Lolo Preschool Childcare", "number": "PV77158", "street": "****************", "state": "MT", "city": "Lolo", "zip": "59847"}, {"uuid": "1DFD81FA-F184-46D6-84AF-708FF0DC62F5", "name": "Lone Rock Littles Preschool and Daycare", "number": "PV89513", "street": "*******************", "state": "MT", "city": "Stevensville", "zip": "59870"}, {"uuid": "706C6F9F-76D9-446E-8842-C93D26DF0732", "name": "Lora Leming / Alfalfa Sprouts", "number": "PV109842", "street": "*****************", "state": "MT", "city": "Kalispell", "zip": "59901"}, {"uuid": "51A584B4-B339-40D4-9096-A46EFBC7E135", "name": "Lorang / Adventurous Learning Place", "number": "PV92712", "street": "**************", "state": "MT", "city": "Great Falls", "zip": "59405"}, {"uuid": "63996397-5952-45BE-8CEC-B29038CE0249", "name": "Lori Bagley / The Kids Zoo", "number": "PV79852", "street": "****************", "state": "MT", "city": "Belgrade", "zip": "59714"}, {"uuid": "94AA8A4B-C942-44D7-A294-CF623E256346", "name": "Lori Catalano / Wiggles to Waddles", "number": "PV95280", "street": "***************", "state": "MT", "city": "Billings", "zip": "59102"}, {"uuid": "196A7827-DD97-408B-825C-A6C7508E494D", "name": "Lori Riley /New Frontier Learning Center", "number": "PV80787", "street": "**************", "state": "MT", "city": "Kalispell", "zip": "59901"}, {"uuid": "2ED9251B-CE9A-4A9A-841C-47FAAC258FC5", "name": "Lori Sallady / Lori's Little Learners", "number": "PV108805", "street": "***************", "state": "MT", "city": "Billings", "zip": "59106"}, {"uuid": "33363DE8-0064-4812-AB27-67E5B6E36534", "name": "Lorri Ward / Lil Bears Childcare", "number": "PV82406", "street": "************************", "state": "MT", "city": "Bozeman", "zip": "59718"}, {"uuid": "4992A0CD-A7B0-4C02-8B75-4DD9FD472457", "name": "Lots of Love Infant,Toddler, & Preschool", "number": "PV107254", "street": "******************", "state": "MT", "city": "Corvallis", "zip": "59828"}, {"uuid": "0FABD6E0-E061-410B-B7A5-EC1994AC9735", "name": "Luchsinger/Lightbringers Early Childhood", "number": "PV103878", "street": "************", "state": "MT", "city": "Belgrade", "zip": "59714"}, {"uuid": "064BEB97-C81B-4352-ADF5-489E85549DB7", "name": "Luciene's Daycare / Luciene Ellingson", "number": "PV76718", "street": "**********************", "state": "MT", "city": "Butte", "zip": "59701"}, {"uuid": "26C6186F-BEAD-46EA-A1B2-050F19DE9D41", "name": "Lucy Walker's Day Care", "number": "PV107465", "street": "**************", "state": "MT", "city": "Dillon", "zip": "59725"}, {"uuid": "B3597D33-413E-4CD4-9328-F0ECF28DD815", "name": "Lynn  Roach / The Best of Both Worlds", "number": "PV105818", "street": "**************", "state": "MT", "city": "Billings", "zip": "59106"}, {"uuid": "2B15A6BA-148F-4562-9E20-3764C4F313FF", "name": "Lynn Layman / The Ark Childcare", "number": "PV77677", "street": "*****************", "state": "MT", "city": "Belgrade", "zip": "59714"}, {"uuid": "FB259948-CCB8-4658-A555-8CC8B99FE072", "name": "M Gideon / Little Hands Early Learning", "number": "PV109892", "street": "***************", "state": "MT", "city": "Billings", "zip": "59101"}, {"uuid": "A18E060C-776D-4796-BE05-563A80B16664", "name": "M Murnion/Rocking Horse Ranch Daycare", "number": "PV109652", "street": "*************", "state": "MT", "city": "Ballantine", "zip": "59006"}, {"uuid": "B3A52EF5-77A2-4717-AD5C-4C4F946FFE36", "name": "Maart / Precious Origins", "number": "PV109794", "street": "*****************", "state": "MT", "city": "Missoula", "zip": "59801"}, {"uuid": "C24CF526-E532-4A1F-A1D4-6F97D09AF733", "name": "Madison Colwell/Passion Preschool", "number": "PV109519", "street": "*********************", "state": "MT", "city": "Victor", "zip": "59875"}, {"uuid": "9D75F119-5A13-455F-B934-BD7FFBC51767", "name": "Magic City Kidz", "number": "PV110089", "street": "**************", "state": "MT", "city": "Billings", "zip": "59101"}, {"uuid": "E9D77DBD-7D8D-483A-8689-0218E928E258", "name": "Mallory Stygles / Stygles' Clubhouse", "number": "PV102784", "street": "***************", "state": "MT", "city": "Havre", "zip": "59501"}, {"uuid": "F962269C-FF3E-49B4-9F08-EB413DB34BEB", "name": "Mandi Smith", "number": "PV110281", "street": "**************", "state": "MT", "city": "Billings", "zip": "59105"}, {"uuid": "650B5DB6-F06D-4F20-9BF6-6993F8CD1032", "name": "Manhattan Christian Early Learning", "number": "PV94839", "street": "*****************", "state": "MT", "city": "Manhattan", "zip": "59741"}, {"uuid": "11BE6CBC-88F4-4207-8F1E-50420806B2EC", "name": "Maranda Salmond / Love & Laughter", "number": "PV110085", "street": "***************", "state": "MT", "city": "Belgrade", "zip": "59714"}, {"uuid": "158D2F2E-180A-41B2-970C-85BCC83B3D38", "name": "Maren Griswold/Story Book Daycare", "number": "PV95711", "street": "**************", "state": "MT", "city": "Bozeman", "zip": "59718"}, {"uuid": "8C75F715-2947-44B0-8A90-07CBFBC5FB0F", "name": "Margaret Pollington / Best Buddys II", "number": "PV76600", "street": "***************", "state": "MT", "city": "Helena", "zip": "59601"}, {"uuid": "676DA4EE-66E5-425E-B278-8EBD74AA26D6", "name": "Marge Berland / Hakuna Matata", "number": "PV78146", "street": "*************", "state": "MT", "city": "Kalispell", "zip": "59901"}, {"uuid": "2935830E-A769-4309-99E6-C9E225018D72", "name": "Mari's Little Hands Childcare", "number": "PV105888", "street": "*****************", "state": "MT", "city": "Butte", "zip": "59701"}, {"uuid": "9BEE7C23-C5D6-48BF-87B3-D9E592BFA524", "name": "Marianne Benjamin / Merry Bees, LLC", "number": "PV105218", "street": "**************", "state": "MT", "city": "Butte", "zip": "59701"}, {"uuid": "AC6B1F0B-AA49-4051-9D88-BB3C8F2C0365", "name": "Marissa Stanley / Busy Bee Childcare", "number": "PV101542", "street": "****************", "state": "MT", "city": "Chester", "zip": "59522"}, {"uuid": "7B36AA1B-E994-4F1F-968E-C7DB2ECEF828", "name": "Marlee Kasper / Sunshine Daycare", "number": "PV109767", "street": "**********", "state": "MT", "city": "Havre", "zip": "59501"}, {"uuid": "EB9BA684-50E8-474D-8D8A-062B3F31A0A6", "name": "Martha Wallace / Mi Escuelita Montessori", "number": "PV103658", "street": "**************", "state": "MT", "city": "Bozeman", "zip": "59718"}, {"uuid": "A0B3F664-FF3B-4E26-BAB8-79E55EED66F9", "name": "Martinez / Glacier Montessori", "number": "PV109296", "street": "*********************", "state": "MT", "city": "Kalispell", "zip": "59901"}, {"uuid": "5F81D6A9-9648-40F6-B4C6-719442319E17", "name": "Mary  Rager / Open Bible Christian", "number": "PV106074", "street": "*************", "state": "MT", "city": "Billings", "zip": "59102"}, {"uuid": "1F22C84E-72F3-4958-8D61-E23AF97AEF30", "name": "Mary Hager / Flint Creek Childcare LV", "number": "PV110248", "street": "**************", "state": "MT", "city": "Drummond", "zip": "59832"}, {"uuid": "EF2E852B-86F4-4989-A20A-C6809C78BA9A", "name": "Mary's Little Lambs Childcare", "number": "PV106008", "street": "**********", "state": "MT", "city": "Big Sandy", "zip": "59520"}, {"uuid": "F327370D-4BCB-4794-A847-B11A77CEC1FF", "name": "Meadowlark Children's Center", "number": "PV110026", "street": "************************", "state": "MT", "city": "Red Lodge", "zip": "59068"}, {"uuid": "BA9365B5-F5AA-4C33-A545-E6AFF0B41748", "name": "Meghan Nelson / Lockwood Daycare", "number": "PV108168", "street": "****************", "state": "MT", "city": "Billings", "zip": "59101"}, {"uuid": "B000F1CF-008F-417F-9C86-0DBAF64DC712", "name": "Meghan Nolte/Little Pirates Daycare LLC", "number": "PV110275", "street": "************", "state": "MT", "city": "Roy", "zip": "59471"}, {"uuid": "B3FA4A13-39DB-4299-8EEC-B0FCA66E1B4B", "name": "Meghan Wyman / A Kid's Life Childcare", "number": "PV104992", "street": "******************", "state": "MT", "city": "Billings", "zip": "59105"}, {"uuid": "01E57648-8BE0-421B-B043-B58894E673B7", "name": "Melanie Pitman/Sugar and Spice Childcare", "number": "PV104704", "street": "*****************", "state": "MT", "city": "Cut Bank", "zip": "59427"}, {"uuid": "1FC44A52-9459-4592-ADFF-D0C3FA3A4BAE", "name": "Melanie Stamm / Little Treeschool", "number": "PV110292", "street": "*********************", "state": "MT", "city": "Kalispell", "zip": "59901"}, {"uuid": "41602DB4-3ADD-4829-A1AF-3CA122944F8C", "name": "Melissa  Demers/ Small Wonders Day Care", "number": "PV81712", "street": "****************", "state": "MT", "city": "Helena", "zip": "59602"}, {"uuid": "5034D972-9A15-4335-90E1-BFDD90B20133", "name": "Melissa Frickel", "number": "PV103237", "street": "*******************", "state": "MT", "city": "Billings", "zip": "59105"}, {"uuid": "8E5083BE-8B28-40F3-921D-ECB26A9E776C", "name": "Melissa L Silva/Lil Happy Feet Daycare", "number": "PV98554", "street": "****************", "state": "MT", "city": "Kalispell", "zip": "59901"}, {"uuid": "41FFB242-E02F-4432-B222-862D773C1411", "name": "Melissa Sever", "number": "PV79422", "street": "***************", "state": "MT", "city": "Butte", "zip": "59701"}, {"uuid": "D0F1982B-5F1E-46E3-B560-B2787EC34765", "name": "Melissa White / Tiny Blessings", "number": "PV95870", "street": "****************", "state": "MT", "city": "Bozeman", "zip": "59718"}, {"uuid": "B4549852-7E7D-4565-BD64-EE38F03B33DB", "name": "Michael Devaney/First Things Child Care", "number": "PV109290", "street": "****************", "state": "MT", "city": "Billings", "zip": "59105"}, {"uuid": "CC16BCE0-90E0-4667-8A2F-0AB0DA9B08C5", "name": "Michael Hodge / ABC Daycare", "number": "PV110209", "street": "************************", "state": "MT", "city": "Butte", "zip": "59701"}, {"uuid": "E44A6EA7-C365-4588-92F1-2C517582F120", "name": "Michelle Cantrell / Teddy Bear Day Care", "number": "PV76005", "street": "*****************", "state": "MT", "city": "Billings", "zip": "59102"}, {"uuid": "7FEB0D67-11F6-4861-A5CA-14EECB2FAF25", "name": "Michelle Contreraz / Busy Bees Daycare", "number": "PV92071", "street": "**************", "state": "MT", "city": "Billings", "zip": "59101"}, {"uuid": "C470126D-7F74-4F0E-8366-91DE7EA50A8B", "name": "Michelle Repeta / Precious Times Daycare", "number": "PV78610", "street": "******************", "state": "MT", "city": "Billings", "zip": "59102"}, {"uuid": "34FFD766-7D0A-4442-88BB-CA5563D84F47", "name": "Michelle Sexton/Jitterbug Childcare", "number": "PV95589", "street": "*****************", "state": "MT", "city": "East Helena", "zip": "59635"}, {"uuid": "A6A356BD-40B1-4E3A-BD0F-04D0C83D46BA", "name": "Middle Creek Montessori", "number": "PV92728", "street": "*****************", "state": "MT", "city": "Bozeman", "zip": "59718"}, {"uuid": "BDBFB984-0393-4877-8F7E-0AC60ACF6BF9", "name": "Middle Creek Montessori-MiCasita", "number": "PV95489", "street": "*****************", "state": "MT", "city": "Bozeman", "zip": "59718"}, {"uuid": "1A259CF7-C9ED-47DC-BEBD-3F071F7F405D", "name": "Mikayla Farrar / Buzzy Bee Childcare LLC", "number": "PV110105", "street": "******************", "state": "MT", "city": "Malta", "zip": "59538"}, {"uuid": "3BA2FB91-A81D-48B3-9A23-C09D00330D8E", "name": "Miles of Smiles Childcare & Preschool", "number": "PV84413", "street": "******************", "state": "MT", "city": "Belgrade", "zip": "59714"}, {"uuid": "38AB0700-752D-4608-9664-CFB9045AE36A", "name": "Millicent Wine / Little Blessings", "number": "PV81672", "street": "****************", "state": "MT", "city": "Billings", "zip": "59102"}, {"uuid": "DA60E9F6-2557-4146-934C-6D3B1DE81A2F", "name": "Mindy Maesar / Mini Sprouts", "number": "PV100414", "street": "**************", "state": "MT", "city": "Butte", "zip": "59701"}, {"uuid": "0B7E4E94-5B62-4682-BE57-CB519348B11F", "name": "Mini Scholars Discovery Academy", "number": "PV105372", "street": "**************", "state": "MT", "city": "Butte", "zip": "59701"}, {"uuid": "14902F24-FC05-478E-99D4-C6E31E5B9FDE", "name": "Mini Scholars Discovery Academy II", "number": "PV109692", "street": "**************", "state": "MT", "city": "Helena", "zip": "59601"}, {"uuid": "9538DD7E-5728-4491-BE6A-FDD610E437F1", "name": "Miranda Grace Cole", "number": "PV110462", "street": "*********************", "state": "MT", "city": "Anaconda", "zip": "59711"}, {"uuid": "5F83D56C-0114-4145-863D-8B17F9A7D39F", "name": "Mishell Forbes", "number": "PV76527", "street": "***************", "state": "MT", "city": "Helena", "zip": "59601"}, {"uuid": "D8B819C4-1450-4CF3-BBE4-BCF4CA6B1D9A", "name": "Miss Aimee's Daycare", "number": "PV107546", "street": "****************", "state": "MT", "city": "Fairview", "zip": "59221"}, {"uuid": "4916E1DB-621A-4116-922E-657A0507C22D", "name": "Miss Bobbie s Little School", "number": "PV107846", "street": "***************", "state": "MT", "city": "Malta", "zip": "59538"}, {"uuid": "EE9B4CBF-B0F0-48D2-B048-A2DD94FBDE27", "name": "Miss Coles Childcare & Preschool", "number": "PV83298", "street": "****************", "state": "MT", "city": "Helena", "zip": "59602"}, {"uuid": "1716465A-F386-4011-9705-5D7F44ABD708", "name": "Miss Shawna\"s Corral LLC", "number": "PV109980", "street": "******************", "state": "MT", "city": "Manhattan", "zip": "59741"}, {"uuid": "D1575CA3-8C3B-4647-B808-DD1898001C89", "name": "Missoula Christian Montessori School", "number": "PV106603", "street": "*****************", "state": "MT", "city": "Missoula", "zip": "59801"}, {"uuid": "2E03228F-F724-4C11-A73E-0D2CE325132D", "name": "Missoula Community School", "number": "PV82658", "street": "*********", "state": "MT", "city": "Missoula", "zip": "59801"}, {"uuid": "1387AAC3-739A-44DD-A690-05D250E8B5F3", "name": "Missoula Early Head Start", "number": "PV85259", "street": "************", "state": "MT", "city": "Missoula", "zip": "59803"}, {"uuid": "09C0109D-C8CA-46A2-941B-AB6041F0808B", "name": "Missoula Parent Co-Op", "number": "PV79507", "street": "************", "state": "MT", "city": "Missoula", "zip": "59801"}, {"uuid": "9AD80440-56C1-4DAB-BAED-452A1B50FF1F", "name": "Misty Harris / A-2-Z's Daycare", "number": "PV90575", "street": "*************", "state": "MT", "city": "Billings", "zip": "59101"}, {"uuid": "AB58C03B-E1AD-447D-B617-A9A20296C36A", "name": "Misty Sampson / Pleasant Dreams Daycare", "number": "PV79384", "street": "************", "state": "MT", "city": "Butte", "zip": "59701"}, {"uuid": "64CCD355-3582-4EC2-A4F0-65A26AC84382", "name": "Moline / Copperhead Childcare", "number": "PV109529", "street": "*************", "state": "MT", "city": "Anaconda", "zip": "59711"}, {"uuid": "138893F3-D49E-40C5-A17B-8EA72A37EA3B", "name": "Monarch Mountain Montessori School", "number": "PV105610", "street": "**************", "state": "MT", "city": "Helena", "zip": "59602"}, {"uuid": "981C0125-D1F1-4F2D-964D-BF77987C019D", "name": "Monica Pyrzewski / Monies Little Monkies", "number": "PV106221", "street": "******************", "state": "MT", "city": "Billings", "zip": "59105"}, {"uuid": "1591BE20-72A1-4427-8835-2DCE4DB835F6", "name": "Monique Grigsby / Lil Mo's Daycare", "number": "PV110096", "street": "****************", "state": "MT", "city": "Glendive", "zip": "59330"}, {"uuid": "8C24959B-C064-4125-B3CC-F17AEC4E4F53", "name": "Montana City Kids, Inc.", "number": "PV85845", "street": "*********************", "state": "MT", "city": "Montana City", "zip": "59634"}, {"uuid": "25CFC7D7-3126-4026-BC4B-61603C92AD57", "name": "Montana Country Wranglers", "number": "PV110582", "street": "************", "state": "MT", "city": "Lewistown", "zip": "59457"}, {"uuid": "CE6D3ADB-1B8F-4D58-AFEC-EB5FB7CC47F4", "name": "Montana Kids", "number": "PV106277", "street": "*****************", "state": "MT", "city": "Bozeman", "zip": "59718"}, {"uuid": "E725C072-5E7C-4475-AB30-4119F56E48D5", "name": "Montana Kids Too", "number": "PV106279", "street": "*****************", "state": "MT", "city": "Bozeman", "zip": "59718"}, {"uuid": "2DB24AB0-E7CA-41E4-B806-FA0AA882A9F4", "name": "Montessori Children's House", "number": "PV78549", "street": "****************", "state": "MT", "city": "Bozeman", "zip": "59715"}, {"uuid": "28CA0A4E-3202-4019-89EA-8EAD9F4623DD", "name": "Montessori Island School", "number": "PV93595", "street": "**************", "state": "MT", "city": "Livingston", "zip": "59047"}, {"uuid": "08AC8AD6-3B07-47F2-BEEB-B6E87F74B2BA", "name": "Montessori Plus Int'l - Cold Springs", "number": "PV110177", "street": "******************", "state": "MT", "city": "Missoula", "zip": "59803"}, {"uuid": "29B4B575-CE0E-473D-B19A-AA79D2627DF1", "name": "Montessori Plus International", "number": "PV106705", "street": "***************", "state": "MT", "city": "Missoula", "zip": "59802"}, {"uuid": "423F50C1-C5D8-4C23-A27F-A29F867B7E90", "name": "Morningstar Learning Center", "number": "PV94795", "street": "*******************", "state": "MT", "city": "Big Sky", "zip": "59716"}, {"uuid": "0A325BB5-5780-4239-9286-349971A52865", "name": "Morse / Hope Montessori", "number": "PV109572", "street": "************", "state": "MT", "city": "Missoula", "zip": "59801"}, {"uuid": "FBBF00DC-362C-4603-B71E-01672BBFDE5A", "name": "Mount Haggin Montessori Preschool", "number": "PV110454", "street": "*************", "state": "MT", "city": "Anaconda", "zip": "59711"}, {"uuid": "63858DE5-6724-450B-97F7-65D0F0CD0B4C", "name": "Mountain Bluebells Preschool   Nursery", "number": "PV106913", "street": "****************", "state": "MT", "city": "Red Lodge", "zip": "59068"}, {"uuid": "C9BD3B5A-D19F-4FC5-BD40-65DC8D69EDDF", "name": "Mountain Meadows Montessori School", "number": "PV110362", "street": "*************", "state": "MT", "city": "Bozeman", "zip": "59718"}, {"uuid": "09F08599-58ED-4B74-A472-02E165541455", "name": "Mountain Peak Preschool and Childcare", "number": "PV109992", "street": "**************", "state": "MT", "city": "Missoula", "zip": "59804"}, {"uuid": "200B5782-BABC-4E37-A2B5-75180973B790", "name": "Mountain Valley ELC / Dovenbarger", "number": "PV109941", "street": "**************", "state": "MT", "city": "Bozeman", "zip": "59718"}, {"uuid": "3D2FFD50-7C8B-4681-B609-EC274A002213", "name": "Mountain Valley ELC of Belgrade", "number": "PV110113", "street": "*******************", "state": "MT", "city": "Belgrade", "zip": "59714"}, {"uuid": "65DB8175-4C00-48C7-A018-2282EEFBF429", "name": "MPI-Cold Springs-2", "number": "PV110600", "street": "******************", "state": "MT", "city": "Missoula", "zip": "59803"}, {"uuid": "9CB9A3CD-F5C8-4811-A185-A82B0B62A0DB", "name": "Mrs. AnnMays House Childcare", "number": "PV110595", "street": "********************", "state": "MT", "city": "Roundup", "zip": "59072"}, {"uuid": "C6F73D06-704A-48E2-A22D-AC22C0D3132C", "name": "MSU Child Development Center", "number": "PV77940", "street": "************************", "state": "MT", "city": "Bozeman", "zip": "59717"}, {"uuid": "0DAFD84D-F80D-42D6-B696-C7CF001047F5", "name": "Munchkin Junction Day Care", "number": "PV85885", "street": "***********", "state": "MT", "city": "Polson", "zip": "59860"}, {"uuid": "D47D820A-094B-47D4-BD7B-3FF0456C0D6E", "name": "My Heart Child Care", "number": "PV110548", "street": "**************", "state": "MT", "city": "Lolo", "zip": "59847"}, {"uuid": "69F9013C-6AA9-49B8-BA44-97226467452C", "name": "N Bradshaw / Bottles to Books Childcare", "number": "PV109785", "street": "*******************", "state": "MT", "city": "Billings", "zip": "59101"}, {"uuid": "3079A1AC-F440-4580-80D7-60DF3ED3EEA9", "name": "N Bronec/Denton Child Development Center", "number": "PV108907", "street": "***************", "state": "MT", "city": "Denton", "zip": "59430"}, {"uuid": "22B68D67-FCB9-4D90-9A56-66AC0850ECB2", "name": "Nancy Gavin Mills", "number": "PV109833", "street": "**************", "state": "MT", "city": "Missoula", "zip": "59801"}, {"uuid": "433CA187-CE59-45F0-98F3-1FEA18AC56D2", "name": "Naomi Barnett / Barnett's Busy Bees", "number": "PV109881", "street": "************", "state": "MT", "city": "Columbia Falls", "zip": "59912"}, {"uuid": "B0E9A1E9-3123-4ADE-AE9B-8BACF426BE00", "name": "Natosha Gushi / Kreative Kids", "number": "PV104866", "street": "****************", "state": "MT", "city": "Belgrade", "zip": "59714"}, {"uuid": "6FBB064F-006E-496D-93C9-1961F37EF5D8", "name": "Nature's Way Early Learning", "number": "PV109271", "street": "***************", "state": "MT", "city": "Great Falls", "zip": "59405"}, {"uuid": "4355B90E-D2B6-4310-A8A9-0EB301C8DE17", "name": "Nechia L. Love / Cuddly Care Daycare", "number": "PV79290", "street": "************", "state": "MT", "city": "Miles City", "zip": "59301"}, {"uuid": "D9598363-EDDE-457A-83D3-1C4D404D9BEE", "name": "Neumillers Day Care / Alison Neumiller", "number": "PV75519", "street": "***********", "state": "MT", "city": "Glasgow", "zip": "59230"}, {"uuid": "B305B141-3907-4225-8E61-28CEFA7A46B8", "name": "New Kids on the Block / Valerie Reynolds", "number": "PV107122", "street": "*************", "state": "MT", "city": "Sheridan", "zip": "59749"}, {"uuid": "258DD7ED-49E6-4B66-A0E8-BF9569172E6D", "name": "Nichole Davalos / Adventure Awaits", "number": "PV105064", "street": "******************", "state": "MT", "city": "Great Falls", "zip": "59401"}, {"uuid": "B3534937-0330-4820-BA8B-75A8D4EB18C5", "name": "Nicole Groeper / Bright Skies Daycare", "number": "PV110513", "street": "*****************", "state": "MT", "city": "Eureka", "zip": "59917"}, {"uuid": "71B1090A-0AE8-4D13-8ACC-97FDB5118AFA", "name": "Nicole Renee White", "number": "PV110082", "street": "*************", "state": "MT", "city": "Havre", "zip": "59501"}, {"uuid": "9D025F27-34BA-431C-89AE-73A2FD6AA327", "name": "Nikkole Breding/Brighter Days Play&Learn", "number": "PV110410", "street": "*************", "state": "MT", "city": "Valier", "zip": "59486"}, {"uuid": "926FFC2A-D69A-4712-9746-0B109BD01B30", "name": "Nina's Playhouse / Kymberlee Bouldin", "number": "PV108228", "street": "*****************", "state": "MT", "city": "Missoula", "zip": "59808"}, {"uuid": "B8F4371E-1706-4EF0-9D08-07A181E6FC28", "name": "NMCDC Hillview", "number": "PV107582", "street": "*********************", "state": "MT", "city": "Havre", "zip": "59501"}, {"uuid": "E16F203C-2244-4D49-9E40-91F93D44D329", "name": "NMCDC Lincoln", "number": "PV107600", "street": "*******************", "state": "MT", "city": "Havre", "zip": "59501"}, {"uuid": "39B946E0-2CB6-4CBE-8C67-0E18ED4F6242", "name": "NMCDC Wilson Center", "number": "PV107656", "street": "***************", "state": "MT", "city": "Havre", "zip": "59501"}, {"uuid": "76A66798-1FA4-40FA-9D17-E15504AE8006", "name": "Noah's Ark Childcare   Preschool", "number": "PV104550", "street": "******************", "state": "MT", "city": "Hardin", "zip": "59034"}, {"uuid": "9CA55443-CD84-4151-8ABF-6E78DB0611CF", "name": "Noah's Ark Childcare on Center", "number": "PV110387", "street": "********************", "state": "MT", "city": "Hardin", "zip": "59034"}, {"uuid": "03E9813E-D2F8-4E9E-A2F3-AC0AE4B5A495", "name": "Noelle Pas-Holcomb / Meadow Vista", "number": "PV89309", "street": "*********************", "state": "MT", "city": "Florence", "zip": "59833"}, {"uuid": "709D8055-2F02-4A3D-9052-B6B48BCD9F21", "name": "Northern MT Child Development Center", "number": "PV85346", "street": "***************", "state": "MT", "city": "Havre", "zip": "59501"}, {"uuid": "31C1ECBF-73C3-4E66-B3CC-8530BF703963", "name": "Northern Rockies Learning Center", "number": "PV105738", "street": "*******************", "state": "MT", "city": "Missoula", "zip": "59808"}, {"uuid": "845F2375-CA16-431F-BD58-A076C23F83F2", "name": "Nth 31st Learning and Play", "number": "PV109509", "street": "****************", "state": "MT", "city": "Billings", "zip": "59101"}, {"uuid": "5A2B1FB6-C7E5-4861-97DE-4A4AB8B23229", "name": "Odyssey Early Learning Center", "number": "PV110027", "street": "*******************", "state": "MT", "city": "Dillon", "zip": "59725"}, {"uuid": "AA7BA333-4EE1-4701-BBDE-FD9D55066853", "name": "Ohana Daycare and Preschool", "number": "PV108036", "street": "***************", "state": "MT", "city": "Helena", "zip": "59601"}, {"uuid": "5314169F-5AE8-4F81-A8C2-DB061B8E6B10", "name": "Opportunities Inc Head Start DC Annex", "number": "PV100282", "street": "****************", "state": "MT", "city": "Great Falls", "zip": "59405"}, {"uuid": "CE92DEC4-9E8F-462B-A6AD-AF35671D881C", "name": "Opportunities Inc Head Start DC Emerson", "number": "PV77996", "street": "******************", "state": "MT", "city": "Great Falls", "zip": "59405"}, {"uuid": "03425F79-0B67-4A09-915F-B2A8C55D543A", "name": "Opportunities Inc Head Start DC McKinley", "number": "PV108010", "street": "*****************", "state": "MT", "city": "Great Falls", "zip": "59404"}, {"uuid": "2A5369C7-ED90-4FBE-B644-4A6D92D9D1C4", "name": "Opportunities Inc Head Start DC Roosevel", "number": "PV110498", "street": "**************", "state": "MT", "city": "Great Falls", "zip": "59401"}, {"uuid": "533CAF7B-1F51-4F3B-A4ED-74599B1FCD1A", "name": "Our Lady of Lourdes Extended Care", "number": "PV75693", "street": "**************", "state": "MT", "city": "Great Falls", "zip": "59405"}, {"uuid": "92C74BF1-8F83-45B4-8C11-342FB459D635", "name": "Our Savior Lutheran Child Care", "number": "PV81711", "street": "***********", "state": "MT", "city": "Glendive", "zip": "59330"}, {"uuid": "60008155-449C-4DD2-87FC-21E79FA133D6", "name": "Outside Kids", "number": "PV109186", "street": "*************************", "state": "MT", "city": "Columbia Falls", "zip": "59912"}, {"uuid": "F32B31FA-223C-4C9F-A316-9A25F4F5CB9B", "name": "Pablo 5th Ave. ECS Center", "number": "PV86571", "street": "*************", "state": "MT", "city": "Pablo", "zip": "59855"}, {"uuid": "7BE2C878-A1EC-4C0B-A4EF-C74D6F152FAA", "name": "Pablo College Dr. ECS Center", "number": "PV88458", "street": "*****************", "state": "MT", "city": "Pablo", "zip": "59855"}, {"uuid": "EA7F090E-367A-450D-9574-5ECE04BD377D", "name": "Park / Happy Trails Preschool LLC", "number": "PV109733", "street": "***********", "state": "MT", "city": "Thompson Falls", "zip": "59873"}, {"uuid": "F9349D2A-7475-4BA1-AA20-901420A7EB4B", "name": "Parrotte / Little Foot Daycare & Prescho", "number": "PV109305", "street": "***************", "state": "MT", "city": "East Helena", "zip": "59635"}, {"uuid": "E9FB4E64-3EC1-453A-AD70-854F3BD7A64A", "name": "Pat Mendez / Great Beginnings Child Care", "number": "PV75686", "street": "*************", "state": "MT", "city": "Great Falls", "zip": "59405"}, {"uuid": "CB39D052-0EB5-47F8-9341-E3A809C861D1", "name": "Patti Gross / Ready-Set-Grow Childcare", "number": "PV100097", "street": "*************", "state": "MT", "city": "Billings", "zip": "59101"}, {"uuid": "129BF514-3A62-4781-878E-492B4539C96B", "name": "Paul Nottingham / The Children's Cloud", "number": "PV107190", "street": "********************", "state": "MT", "city": "Billings", "zip": "59101"}, {"uuid": "83B21ABD-C0A4-4C4A-8267-10F2C937DEB4", "name": "Pazuri Daycare - Ruth Chepsat", "number": "PV110524", "street": "***********", "state": "MT", "city": "Billings", "zip": "59102"}, {"uuid": "7DA9F3A2-7ECB-4F40-8C04-159E25548225", "name": "Peace of Mind Child Care at Victory", "number": "PV110329", "street": "**************", "state": "MT", "city": "Great Falls", "zip": "59405"}, {"uuid": "7F1F5F82-5440-4A9C-8A3E-306F059B3E49", "name": "Peace Place Inc.", "number": "PV103926", "street": "************", "state": "MT", "city": "Great Falls", "zip": "59405"}, {"uuid": "B79FAB10-B53E-45CB-94FA-BC5BEE16D007", "name": "Peggy Erdmann / Funny Farm Day Care", "number": "PV77843", "street": "*******************", "state": "MT", "city": "Kalispell", "zip": "59901"}, {"uuid": "1CC103A0-5066-46D1-B699-C79CFE05F0EB", "name": "Peggy Heyen / Peggy's Daycare", "number": "PV75401", "street": "***************", "state": "MT", "city": "Glendive", "zip": "59330"}, {"uuid": "8E93D897-B83C-4A8A-8311-E245189BA714", "name": "Pete's Place Child Care Center", "number": "PV76597", "street": "************", "state": "MT", "city": "Helena", "zip": "59601"}, {"uuid": "9F5CAFA7-2E72-490F-9F48-9ED6AFD99EF6", "name": "Play 'N' Learn Academy", "number": "PV98393", "street": "**************", "state": "MT", "city": "Great Falls", "zip": "59405"}, {"uuid": "86ECFC8C-0524-457C-90BC-D73C756F6BD4", "name": "Play Day Day Care", "number": "PV103313", "street": "***************", "state": "MT", "city": "Ronan", "zip": "59864"}, {"uuid": "4B90A701-B113-45EB-96BA-E9192C889214", "name": "Play N Learn PreSchool   Daycare Inc.", "number": "PV108354", "street": "**************", "state": "MT", "city": "Great Falls", "zip": "59405"}, {"uuid": "603E933F-F182-4137-96AB-55CCF40DACE3", "name": "plAyBCs", "number": "PV109996", "street": "****************", "state": "MT", "city": "Missoula", "zip": "59804"}, {"uuid": "A5CA149F-80F8-4AC9-9DEB-3F4B5736619D", "name": "Podgorski, C/ Kid's Town Daycare LLC", "number": "PV109456", "street": "****************", "state": "MT", "city": "Butte", "zip": "59701"}, {"uuid": "B3D5D664-9E74-4564-ACDC-24382729A5B3", "name": "Pooh's Too", "number": "PV78193", "street": "***************", "state": "MT", "city": "Billings", "zip": "59102"}, {"uuid": "01EA787F-F4B3-4634-99D6-1CAE2FFFBB92", "name": "Potter/Precious Angels Infant Childcare", "number": "PV110341", "street": "*****************", "state": "MT", "city": "Lewistown", "zip": "59457"}, {"uuid": "FB3D1AF1-AADB-4685-87F6-74F61987E3A4", "name": "Pratt / 2nd Shift Childcare", "number": "PV80976", "street": "**************", "state": "MT", "city": "Butte", "zip": "59701"}, {"uuid": "559C35A7-51ED-48FB-85A5-832121967249", "name": "Primrose Montessori School", "number": "PV105140", "street": "***************", "state": "MT", "city": "Missoula", "zip": "59801"}, {"uuid": "F6BEC02A-3870-4011-896F-4A0D6E0A38B9", "name": "Project Kids / Sarah Perkerewicz", "number": "PV106767", "street": "***********", "state": "MT", "city": "Worden", "zip": "59088"}, {"uuid": "18B9587E-3D2B-468A-8F3B-B72231040C59", "name": "Prosser / Lindsey's Littles Coulee Crew", "number": "PV110395", "street": "***************", "state": "MT", "city": "Sand Coulee", "zip": "59472"}, {"uuid": "5334E441-5C06-4B11-BB40-09CBA132F62F", "name": "Quail Hollow Child Care", "number": "PV95872", "street": "******************", "state": "MT", "city": "Bozeman", "zip": "59718"}, {"uuid": "C1A10883-8F66-4252-B269-860CE88BFEA2", "name": "Quail Hollow Dippers", "number": "PV99625", "street": "*******************", "state": "MT", "city": "Bozeman", "zip": "59718"}, {"uuid": "2663B9CF-3101-45E1-866C-F0D8E4D08DE2", "name": "Raelene Redding / Grandma Rae's", "number": "PV107168", "street": "*****************", "state": "MT", "city": "Miles City", "zip": "59301"}, {"uuid": "4226E3E9-3EB3-4203-B442-9778D9697E49", "name": "Raelynn Marie Cameron / Dandelion Wishes", "number": "PV105452", "street": "****************", "state": "MT", "city": "Missoula", "zip": "59802"}, {"uuid": "53FFF59B-808B-49A1-861C-CF6470F2A036", "name": "Ragen Hawks / Hawks Nest", "number": "PV110458", "street": "**********", "state": "MT", "city": "Winifred", "zip": "59489"}, {"uuid": "A53A18C7-E9AB-4E68-A38E-02FA44C33E49", "name": "Rainbow's End Preschool & Day Care", "number": "PV90581", "street": "*********************", "state": "MT", "city": "Whitefish", "zip": "59937"}, {"uuid": "18DB2B23-71D2-4952-8B3A-8CD510F30416", "name": "Ravalli Early Head Start", "number": "PV100987", "street": "*************", "state": "MT", "city": "Hamilton", "zip": "59840"}, {"uuid": "2B6A8BE6-2E45-4C11-8789-9D770B301756", "name": "Raven Jaynes / Jaynes Jungle Gym", "number": "PV110444", "street": "************************", "state": "MT", "city": "Malta", "zip": "59538"}, {"uuid": "8E92071B-8943-4D41-A741-2CF2485D707B", "name": "Reagan Marie Turner", "number": "PV110511", "street": "******************", "state": "MT", "city": "Missoula", "zip": "59804"}, {"uuid": "CE3273BB-16EC-4286-9DA8-3E260DE4528C", "name": "Rebbeca Whitman / Ms Bee's Day Care", "number": "PV109095", "street": "***************", "state": "MT", "city": "Whitefish", "zip": "59937"}, {"uuid": "2AEF2F6D-9A7B-4A28-BDA9-7E4CB28DE50D", "name": "Rebecca  Tannehill/Little Tiger Learning", "number": "PV107357", "street": "*************", "state": "MT", "city": "Darby", "zip": "59829"}, {"uuid": "7EF6EC4C-FFD4-41B5-8CEF-2F6C3B37662A", "name": "Rebecca Tish", "number": "PV79220", "street": "**************", "state": "MT", "city": "Missoula", "zip": "59803"}, {"uuid": "837B6066-8026-4648-A2F0-B784DB6DE67E", "name": "Renaissance Montessori LLC", "number": "PV82959", "street": "**************", "state": "MT", "city": "Bozeman", "zip": "59715"}, {"uuid": "6AD07D96-D856-4FAF-83B9-B37811CD2B42", "name": "Rhonda Meyer / Our Home Daycare", "number": "PV88680", "street": "**************", "state": "MT", "city": "Billings", "zip": "59102"}, {"uuid": "01FC282E-6EAC-4F4C-82C0-7071E9C0D142", "name": "Riley Rizzuto-Miller/Grass Range School", "number": "PV110437", "street": "************", "state": "MT", "city": "Grass Range", "zip": "59032"}, {"uuid": "30AE95EA-5413-445D-AFC6-E4036E90D8D4", "name": "Rising Stars Early Learning Center", "number": "PV109349", "street": "******************", "state": "MT", "city": "Bozeman", "zip": "59715"}, {"uuid": "095F3FEA-34AA-43F7-ABDC-422DE1F8E67B", "name": "Rita Antonio Garcia", "number": "PV110373", "street": "*******************", "state": "MT", "city": "Billings", "zip": "59105"}, {"uuid": "8C9B937D-AAA5-4FBF-AB48-8682D6A21BC0", "name": "River's Edge Early Learning Academy, Inc", "number": "PV109752", "street": "***********************", "state": "MT", "city": "Great Falls", "zip": "59405"}, {"uuid": "B00B2D12-B69B-4E5C-B545-6C0BAED5A0AB", "name": "RMDC Rocky Mountain Preschool Center", "number": "PV76607", "street": "************", "state": "MT", "city": "Helena", "zip": "59601"}, {"uuid": "EA4AA1AE-5E65-47F9-BF44-E3FFAEEB62E1", "name": "Robin Barnes / The Growing Patch", "number": "PV80372", "street": "***************", "state": "MT", "city": "Billings", "zip": "59102"}, {"uuid": "7ECA48AA-1F7E-4F5A-9834-CA6FF9AEA9B4", "name": "Robin Kananen", "number": "PV85411", "street": "*****************", "state": "MT", "city": "Roy", "zip": "59471"}, {"uuid": "8D8C8390-95D6-492A-8DA3-24201DE96383", "name": "Robin's Nest Daycare", "number": "PV104028", "street": "**************", "state": "MT", "city": "Belgrade", "zip": "59714"}, {"uuid": "D1676B8F-F515-42F3-8512-BEBABF6BD027", "name": "Robyn's Nest Daycare / Robyn Brantner", "number": "PV104686", "street": "**********************", "state": "MT", "city": "Great Falls", "zip": "59405"}, {"uuid": "D6CF3BAE-6DD0-4077-A033-98C3CBE08A15", "name": "Rock'N Play", "number": "PV108733", "street": "*************************", "state": "MT", "city": "Stevensville", "zip": "59870"}, {"uuid": "7C98999E-38B1-4FFA-BF1B-80B189ADB95B", "name": "Rock'N Play Infants   Toddlers", "number": "PV109850", "street": "**********************", "state": "MT", "city": "Stevensville", "zip": "59870"}, {"uuid": "D116A46E-5D78-4CAF-8959-EC5E2D47DEB6", "name": "Rocky Head Start Eastgate", "number": "PV91285", "street": "***************", "state": "MT", "city": "East Helena", "zip": "59635"}, {"uuid": "93A6448A-42E6-4657-A496-70C939C7A27B", "name": "Rocky Head Start Helena Housing Auth", "number": "PV78055", "street": "*****************", "state": "MT", "city": "Helena", "zip": "59601"}, {"uuid": "58B0CA05-5FF6-426B-A524-FFA36BFB49B8", "name": "Rocky Head Start Neighborhood Center", "number": "PV84709", "street": "***********", "state": "MT", "city": "Helena", "zip": "59601"}, {"uuid": "EFE2A295-8BDD-4636-9CD5-9479DE923BA7", "name": "Rocky Head Start Townsend", "number": "PV87709", "street": "**************", "state": "MT", "city": "Townsend", "zip": "59644"}, {"uuid": "664C0B8D-1096-489E-88B5-35A11916B13C", "name": "Rocky Head Start Valley Center", "number": "PV108026", "street": "************", "state": "MT", "city": "Helena", "zip": "59602"}, {"uuid": "500265A6-D964-48AA-94DD-4818A23B69AA", "name": "Rocky Head Start- Whitehall Site", "number": "PV89789", "street": "************", "state": "MT", "city": "Whitehall", "zip": "59759"}, {"uuid": "182B984A-38E7-4124-B1F1-5DBF59784289", "name": "Ronda Zahn / Glacier Kidds Daycare", "number": "PV110398", "street": "****************", "state": "MT", "city": "Cut Bank", "zip": "59427"}, {"uuid": "2B62FE68-C830-4185-9E99-1DAFE846EB22", "name": "Rosalba  Solorio/The Learning Garden LLC", "number": "PV109226", "street": "**********************", "state": "MT", "city": "Billings", "zip": "59105"}, {"uuid": "61758300-6C3D-41BD-B748-96AABB2D68B7", "name": "Rozalyn Drew /Roosters Chicks", "number": "PV108226", "street": "*****************", "state": "MT", "city": "Stevensville", "zip": "59870"}, {"uuid": "A5D5BED7-6C4F-413C-938B-76DF20E1061E", "name": "S Berry / Little Berry's Childcare", "number": "PV108596", "street": "*******************", "state": "MT", "city": "Billings", "zip": "59105"}, {"uuid": "107116F6-49B2-4EEB-B895-49A33BDE33E5", "name": "S Ford-Sanders / Zero to Twelve Academy", "number": "PV109919", "street": "*******************", "state": "MT", "city": "Superior", "zip": "59872"}, {"uuid": "82E2872C-6EE0-4689-BC12-4A3FA9EE4B38", "name": "S Smith / Little Sunflowers Learning Ctr", "number": "PV110411", "street": "**************", "state": "MT", "city": "Moore", "zip": "59464"}, {"uuid": "94C0C596-CA58-4990-9BDE-128ED7415231", "name": "S Stanley-Lehman/Family Tree Child Care", "number": "PV84499", "street": "*******************", "state": "MT", "city": "Billings", "zip": "59102"}, {"uuid": "D88C2CC3-05D0-4FF1-9268-44B2F742681C", "name": "S. Ederer J. LaFromboise/Growing Sprouts", "number": "PV106016", "street": "***************", "state": "MT", "city": "Missoula", "zip": "59801"}, {"uuid": "051A910D-FADC-4830-9590-53EBDD9064B3", "name": "S. Fischer / Univ on Princeton", "number": "PV85514", "street": "**************", "state": "MT", "city": "Butte", "zip": "59701"}, {"uuid": "571A49E5-939C-4AF9-8D88-F427D0599153", "name": "Sage Huot / Caterpillars to Butterflies", "number": "PV109817", "street": "*************", "state": "MT", "city": "Anaconda", "zip": "59711"}, {"uuid": "D25FC4DE-3B9E-472A-A72E-439F2D424153", "name": "Samantha Nicole Decker", "number": "PV108104", "street": "*************", "state": "MT", "city": "Billings", "zip": "59101"}, {"uuid": "38E60483-9290-4337-AFBB-529CDEAAA7F7", "name": "Samantha Zo Bowman", "number": "PV110424", "street": "***************", "state": "MT", "city": "Billings", "zip": "59102"}, {"uuid": "B68ECF4C-7594-448E-AE7F-37ACACFF108F", "name": "Sandra Jeanne DeCotis", "number": "PV110223", "street": "****************", "state": "MT", "city": "Three Forks", "zip": "59752"}, {"uuid": "EA310956-BD5B-44D0-A0A4-9BDE417A1A88", "name": "Sapphire Early Learning Center", "number": "PV106940", "street": "******************", "state": "MT", "city": "Stevensville", "zip": "59870"}, {"uuid": "0BD8FAF7-3A64-45A9-BEE7-AC6642DC75D6", "name": "Sara Cortez / Cuddles and Cupcakes", "number": "PV109806", "street": "*****************", "state": "MT", "city": "Billings", "zip": "59105"}, {"uuid": "BC763B0C-DD5E-44BE-A0E2-09F418F09351", "name": "Sara DeVries / Big Dreams Daycare", "number": "PV107012", "street": "*************", "state": "MT", "city": "Conrad", "zip": "59425"}, {"uuid": "7046A2F2-9F30-4422-9A5E-F28C73A473D5", "name": "Sara DeVries/Big Dreams Daycare - Site 2", "number": "PV109184", "street": "*************", "state": "MT", "city": "Conrad", "zip": "59425"}, {"uuid": "E2FDD43C-B7A3-4D6F-AA71-4B73EFCB62E2", "name": "Sarah Beth Nitzsche", "number": "PV109197", "street": "**************************", "state": "MT", "city": "Bozeman", "zip": "59718"}, {"uuid": "49CA1CD9-EED5-4212-A7AC-20712564AAEC", "name": "Sarah Charis Tarrant", "number": "PV110544", "street": "******************", "state": "MT", "city": "Missoula", "zip": "59801"}, {"uuid": "8D11E6C8-670D-4872-BBD7-7BC7EF5CC467", "name": "Sarah Holland / Sarah Holland Daycare", "number": "PV76334", "street": "*************", "state": "MT", "city": "Townsend", "zip": "59644"}, {"uuid": "4432F22F-A9C1-4570-AF1A-5C5962F30CAC", "name": "Sarah L Alden / Sarah's Lil Monkies", "number": "PV106126", "street": "*********************", "state": "MT", "city": "Billings", "zip": "59105"}, {"uuid": "2C040910-D5CA-4A26-A04D-15F2D464BA3F", "name": "Savage / Superior Playschool LLC", "number": "PV76999", "street": "****************", "state": "MT", "city": "Superior", "zip": "59872"}, {"uuid": "900A7189-FDEF-44D4-83CD-286391890882", "name": "Savannah Gamble / Jen's Jungle", "number": "PV110203", "street": "***************", "state": "MT", "city": "Miles City", "zip": "59301"}, {"uuid": "FAE94268-3062-4A87-A757-5AFEBE0BC5C5", "name": "Schoolhouse Preschool And D/C", "number": "PV82360", "street": "******************", "state": "MT", "city": "Great Falls", "zip": "59401"}, {"uuid": "A3667FF1-4822-426D-ABCB-F3D33184DC00", "name": "Scottia Judkins / Kountry Kids", "number": "PV92810", "street": "****************", "state": "MT", "city": "Belgrade", "zip": "59714"}, {"uuid": "F9B6EA3B-912C-482A-BD84-237A3E5FBC67", "name": "Scottie Day Care", "number": "PV75524", "street": "***********", "state": "MT", "city": "Glasgow", "zip": "59230"}, {"uuid": "C1040B7F-5AC5-42AE-B76C-85DE23D2E65C", "name": "Serendipity Playhouse", "number": "PV76967", "street": "*************", "state": "MT", "city": "Polson", "zip": "59860"}, {"uuid": "44B138A1-9F07-43F6-A9DD-B29291A61754", "name": "Shala White", "number": "PV81770", "street": "*********************", "state": "MT", "city": "Libby", "zip": "59923"}, {"uuid": "4CAB4A35-E965-4620-98F4-8FBA7697BE4A", "name": "ShaleeAnne Ferry / PEEP", "number": "PV110057", "street": "***************", "state": "MT", "city": "Philipsburg", "zip": "59858"}, {"uuid": "2BBEBCBE-25A7-4418-9056-904F4A6E0296", "name": "Shana Kimberly Van Bouchaute", "number": "PV110310", "street": "*****************", "state": "MT", "city": "Butte", "zip": "59701"}, {"uuid": "5BD73438-306B-4A63-A112-37CDC5DC1741", "name": "Shandra Lohf / Shandra's Child Care", "number": "PV109560", "street": "**************************", "state": "MT", "city": "Choteau", "zip": "59422"}, {"uuid": "373FC8D1-C2E9-4105-9812-143CAEA2DB29", "name": "Shannon Longfield / Noah's Ark", "number": "PV95828", "street": "****************", "state": "MT", "city": "Columbia Falls", "zip": "59912"}, {"uuid": "04081B9E-C1B0-42EF-B694-E1B460266B65", "name": "Shannon Oxarart Daycare", "number": "PV105572", "street": "**************", "state": "MT", "city": "Malta", "zip": "59538"}, {"uuid": "605F6BB0-2F30-461C-A922-E02B5E3F1BA2", "name": "Shannon St Dennis/A-Z Learning Center", "number": "PV95960", "street": "**************", "state": "MT", "city": "Billings", "zip": "59101"}, {"uuid": "5DF50806-2F09-42DF-BA59-409332BFE0DD", "name": "Shannon Williams / Just for Kids", "number": "PV89082", "street": "**************", "state": "MT", "city": "Columbia Falls", "zip": "59912"}, {"uuid": "927B7117-A6DF-4BFD-BBC1-E239B1A458B7", "name": "Sharon  Thomsen", "number": "PV77265", "street": "****************", "state": "MT", "city": "Missoula", "zip": "59801"}, {"uuid": "BFC5A455-528D-45F3-8890-B8C6C485A328", "name": "Sharon Alomia / Time 4 Kidz Bozeman", "number": "PV110585", "street": "***********************", "state": "MT", "city": "Bozeman", "zip": "59718"}, {"uuid": "325CEA33-3F6D-4A95-AD72-78C52520C881", "name": "Shasta Dean / Bench Babies Daycare", "number": "PV104162", "street": "**************", "state": "MT", "city": "Fairfield", "zip": "59436"}, {"uuid": "CB584F8B-A66B-4FBA-805B-CCEFD56A10A6", "name": "Shawna Sullivan / Little Grins Daycare", "number": "PV93934", "street": "*************", "state": "MT", "city": "Cut Bank", "zip": "59427"}, {"uuid": "F2BF9BFE-BA25-4883-8ABE-0E26A5B13BFF", "name": "Shawnna Ryan / Three Rivers Childcare", "number": "PV108268", "street": "***************", "state": "MT", "city": "Bozeman", "zip": "59718"}, {"uuid": "4161BB07-D919-42D2-998D-A0AE74529EBF", "name": "Shaylyn Zanna Rodriguez", "number": "PV109812", "street": "***************", "state": "MT", "city": "Billings", "zip": "59102"}, {"uuid": "9E2E93B6-2853-402D-A172-8B204CF54648", "name": "Sheena Arnold / Cradles to Crayons", "number": "PV106044", "street": "****************", "state": "MT", "city": "Victor", "zip": "59875"}, {"uuid": "4CAB713D-4C7C-43DE-B978-CCD13CCC5B21", "name": "Sheila Williams / Kids Kingdom", "number": "PV78403", "street": "************", "state": "MT", "city": "Broadus", "zip": "59317"}, {"uuid": "42D27172-C5BB-47DA-9B06-FAE1D325535A", "name": "Shelby Wrzesinski / Shelby's Daycare", "number": "PV110546", "street": "*****************", "state": "MT", "city": "Lewistown", "zip": "59457"}, {"uuid": "58F288E8-6788-4CB1-9E94-4E70142CFDC3", "name": "Shelly Pitsch / Tender Hearts Daycare", "number": "PV76206", "street": "*************", "state": "MT", "city": "Billings", "zip": "59101"}, {"uuid": "0B298869-BD24-4635-8581-8634BFDE7C38", "name": "Sheryl Hutzenbiler / Munchkin Land", "number": "PV91970", "street": "****************", "state": "MT", "city": "Billings", "zip": "59101"}, {"uuid": "02C560E0-622A-4CFA-8DDB-EB635360BCD1", "name": "Simmons/Little Explorers Day School", "number": "PV109683", "street": "********************", "state": "MT", "city": "Kalispell", "zip": "59901"}, {"uuid": "AC30DAFF-32F1-403D-815B-3A8B76219778", "name": "SKC Early Learning Center", "number": "PV77517", "street": "****************", "state": "MT", "city": "Pablo", "zip": "59855"}, {"uuid": "5D8537E1-764D-4CB1-8CE0-A6696B4F476F", "name": "Slagell / Bumbleebee Academy", "number": "PV109641", "street": "**************", "state": "MT", "city": "Missoula", "zip": "59803"}, {"uuid": "7DB35EC1-0710-455E-8C81-5AA51D0069C8", "name": "Small Bird Daycare/Ghalia  Almasri", "number": "PV110196", "street": "******************", "state": "MT", "city": "Missoula", "zip": "59803"}, {"uuid": "54F86C7B-AE81-4E57-B77B-9CD009EA828D", "name": "Small Wonder Child Care", "number": "PV75931", "street": "*****************", "state": "MT", "city": "Lewistown", "zip": "59457"}, {"uuid": "B15DCE34-09B8-41E7-9BDA-DF6E1249BCD6", "name": "Small World Daycare and Preschool", "number": "PV109939", "street": "**************", "state": "MT", "city": "Butte", "zip": "59701"}, {"uuid": "9FB51D3F-91A4-4383-8A41-359A52FD49BE", "name": "Smelter City Childcare", "number": "PV110466", "street": "********************", "state": "MT", "city": "Anaconda", "zip": "59711"}, {"uuid": "4D8DBC34-3BFE-4507-A59B-8257B35403A6", "name": "Smith / Four Seasons Learning Academy", "number": "PV110263", "street": "*******************", "state": "MT", "city": "Great Falls", "zip": "59404"}, {"uuid": "A10820C8-AED2-4568-84AD-832370A35D5F", "name": "Smith Memorial Day Care", "number": "PV76902", "street": "*************", "state": "MT", "city": "Kalispell", "zip": "59901"}, {"uuid": "ED3C9B13-BC97-448B-9713-89B4FFDEC52A", "name": "Smith/Nova Montessori", "number": "PV109735", "street": "*****************************", "state": "MT", "city": "Frenchtown", "zip": "59834"}, {"uuid": "6CD47FA3-1C9B-4EAB-9782-0F5ED8F3CF24", "name": "Snuggly Bugs LLC", "number": "PV108419", "street": "***********", "state": "MT", "city": "Kalispell", "zip": "59901"}, {"uuid": "8DF4EA26-145B-49BF-A1E8-11293EC23DA3", "name": "Sophia Helmer / The Magic Forest", "number": "PV108515", "street": "******************", "state": "MT", "city": "Missoula", "zip": "59803"}, {"uuid": "92907C60-6C35-4124-890D-76FE956A3411", "name": "Southwood Child Care Center LLC", "number": "PV76434", "street": "****************", "state": "MT", "city": "Bozeman", "zip": "59715"}, {"uuid": "818B517C-3539-41CE-8984-1147408F8E65", "name": "Spalding / Holy Family Academy LLC", "number": "PV110045", "street": "***************", "state": "MT", "city": "Helena", "zip": "59602"}, {"uuid": "876AA8BC-ACA2-4C00-B1D1-91E876D8DBD1", "name": "Spirit At Play", "number": "PV77244", "street": "****************", "state": "MT", "city": "Missoula", "zip": "59801"}, {"uuid": "FC3FDF66-5853-4BAE-B83B-07FE7E19BC84", "name": "St Francis Xavier Childcare Center", "number": "PV108050", "street": "**********", "state": "MT", "city": "Missoula", "zip": "59802"}, {"uuid": "1E178734-A50B-44F2-9DB4-0E2222AAAE87", "name": "St Labre Indian Educational Association", "number": "PV80325", "street": "*************", "state": "MT", "city": "Ashland", "zip": "59003"}, {"uuid": "6687E6EB-9430-48C7-B4FE-62818BA11EC3", "name": "St Mary's Early Learning Center", "number": "PV108674", "street": "************", "state": "MT", "city": "Livingston", "zip": "59047"}, {"uuid": "F1CBCABF-56EA-4904-8D6E-C2543134EBC1", "name": "St Thomas Child   Family Center/South", "number": "PV75723", "street": "***************", "state": "MT", "city": "Great Falls", "zip": "59405"}, {"uuid": "FE056FD2-CB71-46A7-A0D3-1AE8ACAAA70B", "name": "St. Joseph Preschool and Pre-K", "number": "PV88454", "street": "****************", "state": "MT", "city": "Missoula", "zip": "59801"}, {"uuid": "B3A98877-84D8-4F56-BC78-5D2458AB6E69", "name": "St. Matthew's Early Learning Center", "number": "PV76826", "street": "***************", "state": "MT", "city": "Kalispell", "zip": "59901"}, {"uuid": "074101B3-81DE-4472-821C-D4BB263A9029", "name": "Stacey Schweigert / Little Miracles Too", "number": "PV108520", "street": "**********************", "state": "MT", "city": "Havre", "zip": "59501"}, {"uuid": "180274BC-56B6-4511-B1EE-5A98F38936C8", "name": "Stacie Loppie / Children and Beyond", "number": "PV109100", "street": "****************", "state": "MT", "city": "Helena", "zip": "59602"}, {"uuid": "36A325C6-B196-4109-91BA-9D90667CA998", "name": "Stacy Clement / Spanglish Kids", "number": "PV103014", "street": "************", "state": "MT", "city": "Helena", "zip": "59601"}, {"uuid": "17C879D3-67DC-4AD7-A9DF-8317CEAB15F8", "name": "Stanford School Pre-Kindergarten", "number": "PV110028", "street": "*************", "state": "MT", "city": "Stanford", "zip": "59479"}, {"uuid": "125836FB-A9AF-4383-8599-5538380A8DA5", "name": "State of Play / Katie Dolan", "number": "PV110208", "street": "*******************", "state": "MT", "city": "Bozeman", "zip": "59715"}, {"uuid": "768B6FEC-5C54-4226-9374-5B9D11601CCB", "name": "Stefanie Nordberg/Rainbow Home Day Care", "number": "PV76966", "street": "********************", "state": "MT", "city": "Polson", "zip": "59860"}, {"uuid": "8814BD52-8C69-48F3-9302-BE27AEB2C8A1", "name": "Steph Herreid / Little Yellow House", "number": "PV78733", "street": "*************", "state": "MT", "city": "Polson", "zip": "59860"}, {"uuid": "502E41E0-2EE9-42CA-B834-173F445190B0", "name": "Stephanie L Maroncelli/Funshine Preschoo", "number": "PV100232", "street": "********************", "state": "MT", "city": "Billings", "zip": "59105"}, {"uuid": "7A744704-3BEF-4F9B-A6F5-4051C34199EA", "name": "Stephanie Lind / Nine Mile Daycare", "number": "PV90802", "street": "***********", "state": "MT", "city": "Hardin", "zip": "59034"}, {"uuid": "61DAFD41-D611-4776-9AE8-B8319966D09F", "name": "Stephanie Lynn Johnson", "number": "PV107522", "street": "***************", "state": "MT", "city": "Billings", "zip": "59101"}, {"uuid": "ABC8A7A0-87B6-4F8A-8497-0A91585D4ACE", "name": "Stephanie Sharp / Kid Country Daycare", "number": "PV81293", "street": "*************", "state": "MT", "city": "Eureka", "zip": "59917"}, {"uuid": "C6332C46-B4BE-4710-B1D5-08DE446276C0", "name": "Stephine LaCoss / Lil Logger Child Care", "number": "PV102151", "street": "************", "state": "MT", "city": "Libby", "zip": "59923"}, {"uuid": "3A5668E6-03E4-4B17-BE5C-3EB85758D178", "name": "Stepping Stones Christian Preschool", "number": "PV109827", "street": "***************", "state": "MT", "city": "Bozeman", "zip": "59718"}, {"uuid": "E66EDFDA-68DC-4641-A706-71D035351FC7", "name": "Stone Child College / Faye Yazzie", "number": "PV110227", "street": "***********************", "state": "MT", "city": "Box Elder", "zip": "59521"}, {"uuid": "3270B604-528E-4869-9A5E-1D5503B07A87", "name": "Story Book Hollow, Inc / Joanne Kugler", "number": "PV92696", "street": "**************", "state": "MT", "city": "Billings", "zip": "59101"}, {"uuid": "04F0D9B0-EEB7-4768-99DD-6CD7457CF29B", "name": "Summer Schoer /Diapers 2 Denim", "number": "PV99776", "street": "*****************", "state": "MT", "city": "Billings", "zip": "59102"}, {"uuid": "6E7BA2E9-FBB0-43F8-9238-95B4F1213BE2", "name": "Summit Learning Tree", "number": "PV79309", "street": "***************", "state": "MT", "city": "Gardiner", "zip": "59030"}, {"uuid": "E09B5795-838E-4163-828A-24FEAB8BDFF4", "name": "Sunflower Academy Childcare", "number": "PV108940", "street": "************", "state": "MT", "city": "Billings", "zip": "59101"}, {"uuid": "65C9DEED-7C6A-4954-A120-C5AF852865CA", "name": "Sunflower Academy Sidekicks Infant Care", "number": "PV109561", "street": "*************", "state": "MT", "city": "Billings", "zip": "59101"}, {"uuid": "2FDFDB8C-C8BF-46B8-AB66-9D10F4CA036B", "name": "Sunflower Montessori School", "number": "PV106970", "street": "*********************", "state": "MT", "city": "Missoula", "zip": "59801"}, {"uuid": "F8B6E7CE-1E72-4322-9FCE-913B3DC5F63E", "name": "Sunrise Academy Youth Programs", "number": "PV109965", "street": "*********************", "state": "MT", "city": "Helena", "zip": "59601"}, {"uuid": "6EFFB550-FF9E-4C5E-AA03-DCBE6BE616AF", "name": "Sunshine Montessori/Wendy Tedford", "number": "PV108768", "street": "********************", "state": "MT", "city": "Great Falls", "zip": "59405"}, {"uuid": "177C97E5-28B2-484E-8675-ECE31EE4C1C8", "name": "Susan Bartole / Sue's Daycare", "number": "PV82352", "street": "*************", "state": "MT", "city": "Helena", "zip": "59602"}, {"uuid": "6071221F-E40F-47CE-B1A1-4F409CB058CC", "name": "Susan C Cox / Sue's Sunshine Daycare", "number": "PV100210", "street": "**************", "state": "MT", "city": "Sidney", "zip": "59270"}, {"uuid": "BDC1B7EF-5444-493A-B2FE-E21B699922F2", "name": "Susan Marie Casey", "number": "PV109675", "street": "*************", "state": "MT", "city": "Great Falls", "zip": "59405"}, {"uuid": "CD1A442C-F442-4A7D-A6BF-AE57453ACB76", "name": "Suzanne Chilcote / Grammys Playhouse", "number": "PV95276", "street": "********************", "state": "MT", "city": "Missoula", "zip": "59801"}, {"uuid": "7EB59E20-ECAE-4FEE-99CD-0F4B1E497BD0", "name": "Sweet Peas Daycare", "number": "PV109917", "street": "*****************", "state": "MT", "city": "Winnett", "zip": "59087"}, {"uuid": "3CE1A19E-3D68-4F5D-BA13-0571E499A5E3", "name": "T Erhart/Little Wild Flowers Child Care", "number": "PV110549", "street": "******************", "state": "MT", "city": "Billings", "zip": "59102"}, {"uuid": "825AE916-F927-4DCE-B531-6FF0F9A4F5C2", "name": "T Haycock / Little Feet Family Childcare", "number": "PV110450", "street": "************", "state": "MT", "city": "Miles City", "zip": "59301"}, {"uuid": "0B93E590-0DCB-405B-ADEA-FC0716F01D55", "name": "T Hewitt/Auntie's Childcare   Preschool", "number": "PV99930", "street": "****************", "state": "MT", "city": "Helena", "zip": "59602"}, {"uuid": "3787F129-F04B-4BCC-925C-B05A403EDDD6", "name": "Taliyah A Riojas", "number": "PV109563", "street": "***************", "state": "MT", "city": "Laurel", "zip": "59044"}, {"uuid": "AAF0C19D-04F3-4E79-B66F-FAD8465A704E", "name": "Tamera Benjamin/T - Day's Kids Daycare", "number": "PV106399", "street": "**************", "state": "MT", "city": "Cut Bank", "zip": "59427"}, {"uuid": "813BA4CB-8AE4-4D41-A833-43D4A36D0E7B", "name": "Tammi Russell / Wonder Years", "number": "PV88921", "street": "*****************", "state": "MT", "city": "Billings", "zip": "59101"}, {"uuid": "4843F077-E692-459D-A1C4-4B2C6FFF47D1", "name": "Tammy Godfrey/KidsVillle USA", "number": "PV104934", "street": "***********", "state": "MT", "city": "Victor", "zip": "59875"}, {"uuid": "3DB26ED9-95E5-4718-BFEC-584E8AA55C62", "name": "Tammy Peters / Country Bumpkins", "number": "PV76345", "street": "************", "state": "MT", "city": "Anaconda", "zip": "59711"}, {"uuid": "1D33C59F-29D8-4F50-89E8-83A7B9B69676", "name": "Tammy Rogers / Tammy's Daycare", "number": "PV97728", "street": "*************", "state": "MT", "city": "Butte", "zip": "59701"}, {"uuid": "4FA4827C-E29B-4CF3-934C-C67D32D73580", "name": "Tammy Sheppard/Angel Keepers", "number": "PV95354", "street": "******************", "state": "MT", "city": "Lolo", "zip": "59847"}, {"uuid": "A7663ADF-C7AE-4146-99E7-C15F6BFEE4D7", "name": "Tara  Losinski / Z's Magical Playhouse", "number": "PV97581", "street": "*******************", "state": "MT", "city": "Miles City", "zip": "59301"}, {"uuid": "69EFDCD2-091F-471A-A1DE-72E8BCA761B8", "name": "Taylor Joy Mann /Lambert Lion Cubs", "number": "PV107238", "street": "**************", "state": "MT", "city": "Lambert", "zip": "59243"}, {"uuid": "4B99CE5F-A1F6-4D02-957B-94DE7824D2AF", "name": "Teeny Steinys / Zendara Yarnell", "number": "PV108746", "street": "**********", "state": "MT", "city": "Livingston", "zip": "59047"}, {"uuid": "CFAB3C6D-9257-4427-BFCA-7CE2C3DED372", "name": "Tera Esslinger / From Cradle to Crayons", "number": "PV97309", "street": "***************", "state": "MT", "city": "Saint Ignatius", "zip": "59865"}, {"uuid": "EE8EE7B9-2439-46C1-9E1D-6C852C1D2B49", "name": "Teresa D Smith / Step By Step", "number": "PV76903", "street": "**************", "state": "MT", "city": "Kalispell", "zip": "59901"}, {"uuid": "6436921A-0316-4283-974B-EB53308EAB87", "name": "Teresa Seward", "number": "PV78116", "street": "**************", "state": "MT", "city": "Billings", "zip": "59102"}, {"uuid": "20DB0DBF-8321-4526-880D-68DF40D15567", "name": "Teresea Jones / Angel Keepers", "number": "PV98683", "street": "*********************", "state": "MT", "city": "Belgrade", "zip": "59714"}, {"uuid": "99F32D9A-50C5-4ACD-AB44-6F547496AFC2", "name": "Terri Redmond / Terri's Daycare", "number": "PV78048", "street": "*******************", "state": "MT", "city": "Billings", "zip": "59105"}, {"uuid": "F5111E42-76FA-4342-A25A-5D42DACC796F", "name": "The Birds Nest - Playschool", "number": "PV106377", "street": "***********************", "state": "MT", "city": "Kalispell", "zip": "59901"}, {"uuid": "95D037D3-F775-43E9-9A30-01E9663AD7CA", "name": "The Birds Nest Wonder School", "number": "PV109125", "street": "***********************", "state": "MT", "city": "Kalispell", "zip": "59901"}, {"uuid": "0420519C-2E4D-40E8-AD9C-1935CFE7214C", "name": "The Clubhouse/ Lacie Dahnke", "number": "PV108927", "street": "***************", "state": "MT", "city": "Butte", "zip": "59701"}, {"uuid": "A3BE358D-6D30-4D08-BED0-D089876AF332", "name": "The Creative Playhouse", "number": "PV80321", "street": "******************", "state": "MT", "city": "Missoula", "zip": "59804"}, {"uuid": "508BDC57-2BCB-49D9-B699-D87D1B532EB3", "name": "The Gathering Place", "number": "PV108544", "street": "*******************", "state": "MT", "city": "Bozeman", "zip": "59715"}, {"uuid": "BF43A2ED-0013-4084-8185-11369C2FCFCD", "name": "The Good Shepherd Preschool", "number": "PV106609", "street": "*************", "state": "MT", "city": "Missoula", "zip": "59803"}, {"uuid": "84A31449-6D91-46A7-9B1D-728CE8121E57", "name": "The Greenhouse", "number": "PV109082", "street": "****************", "state": "MT", "city": "Missoula", "zip": "59801"}, {"uuid": "6F469F75-7FEA-4C9E-980A-16BA5E27D57F", "name": "The Growing Tree", "number": "PV105846", "street": "*********************", "state": "MT", "city": "Missoula", "zip": "59801"}, {"uuid": "B05A9FF7-CD9F-4C0C-A5A8-98A5B9C7FE1C", "name": "The Hive / Ashley Levesque", "number": "PV109944", "street": "**********************", "state": "MT", "city": "Kalispell", "zip": "59901"}, {"uuid": "13E885B5-DF31-42A7-8248-F93BD41C350A", "name": "The Lashley Learning Express Daycare", "number": "PV109795", "street": "***************", "state": "MT", "city": "Great Falls", "zip": "59404"}, {"uuid": "68BAEFF1-6876-4A8F-99B7-BB617CEE9DA9", "name": "The Lashley Learning Express Daycare 2", "number": "PV110566", "street": "**************", "state": "MT", "city": "Great Falls", "zip": "59405"}, {"uuid": "8A3F5228-0B9A-4BA4-9EC4-3C3E5A489B81", "name": "The Learning Grove-Downtown", "number": "PV110155", "street": "**************", "state": "MT", "city": "Billings", "zip": "59101"}, {"uuid": "FE18BD37-9285-4727-AE99-9B1126FBF4AB", "name": "The Learning Grove-Heights", "number": "PV109520", "street": "****************", "state": "MT", "city": "Billings", "zip": "59105"}, {"uuid": "21621B7B-E5DE-46A5-B98D-108FB86A140C", "name": "The Learning Tree Preschool", "number": "PV110580", "street": "*************", "state": "MT", "city": "Kalispell", "zip": "59901"}, {"uuid": "D58BB1EB-FB2A-479D-B607-5EE95272E091", "name": "The Learning Zoo LLC / Michelle Fristo", "number": "PV104326", "street": "************", "state": "MT", "city": "Dillon", "zip": "59725"}, {"uuid": "78F6F622-4325-4401-BBA4-EB8B88AC664D", "name": "The Next Best Thing", "number": "PV93826", "street": "*********************", "state": "MT", "city": "Great Falls", "zip": "59404"}, {"uuid": "25316B65-12F0-4ABE-AC9C-E7AE45272A71", "name": "The Preschool on Broadway", "number": "PV110134", "street": "**************", "state": "MT", "city": "Townsend", "zip": "59644"}, {"uuid": "652CC9CE-DB06-4B00-ACB0-71278BCD3E6A", "name": "The Ranch at Rock Creek/ Kruger", "number": "PV108339", "street": "********************", "state": "MT", "city": "Philipsburg", "zip": "59858"}, {"uuid": "48B2AA1A-69F0-4FD9-ABB4-6D360B03BDB9", "name": "The Sandbox LLC", "number": "PV108266", "street": "*************", "state": "MT", "city": "Bozeman", "zip": "59715"}, {"uuid": "AC7B1F3C-EBE7-4C43-A0D5-EEB7CC0C0960", "name": "The Sunshine Academy 312", "number": "PV110348", "street": "************", "state": "MT", "city": "Billings", "zip": "59105"}, {"uuid": "736D4479-6835-4FFE-B3E1-3B886612519F", "name": "The Sunshine Academy/Sara Schreiner", "number": "PV88381", "street": "****************", "state": "MT", "city": "Laurel", "zip": "59044"}, {"uuid": "E665D233-CDE6-4A05-989C-5E7944CC9610", "name": "The Walk Preschool and Daycare", "number": "PV107606", "street": "**************", "state": "MT", "city": "Great Falls", "zip": "59401"}, {"uuid": "016AAACB-FC82-4C45-A76B-11570DDAAAF1", "name": "The WALK Preschool and Daycare @ Faith L", "number": "PV110225", "street": "*****************", "state": "MT", "city": "Great Falls", "zip": "59404"}, {"uuid": "C155C8FF-44CB-4576-95E2-91AFCC48B57A", "name": "The Wonder Years Daycare and Preschool", "number": "PV79855", "street": "**************", "state": "MT", "city": "Helena", "zip": "59601"}, {"uuid": "771C9E55-EC56-4BC3-8A58-861E2729F464", "name": "Theresa Brendal/Happy Kidz Daycare", "number": "PV77461", "street": "**************", "state": "MT", "city": "Missoula", "zip": "59808"}, {"uuid": "7ECA7ACA-24D9-430D-9D07-EBC353FBC504", "name": "Thomasina Racine/Tiny Hearts Day Care", "number": "PV110083", "street": "*****************", "state": "MT", "city": "Saint Ignatius", "zip": "59865"}, {"uuid": "8DA03F48-088E-447E-A7D0-3D06EFAA7E92", "name": "Threasa Novasio/Little Mountain Montesso", "number": "PV109489", "street": "*************", "state": "MT", "city": "Red Lodge", "zip": "59068"}, {"uuid": "E571983F-1F13-41EB-B51C-828AB4EC6079", "name": "Three Forks Public School Early Learning", "number": "PV110043", "street": "*************", "state": "MT", "city": "Three Forks", "zip": "59752"}, {"uuid": "F16B2D2E-038D-469E-B446-530FCBA54352", "name": "Tia Marie Keller /Tia's Little Explorers", "number": "PV105340", "street": "****************", "state": "MT", "city": "Eureka", "zip": "59917"}, {"uuid": "38DA80D4-AF08-4800-8F15-A1882B5B9D9D", "name": "Tiffany Horn / Just Because We Care", "number": "PV104942", "street": "************", "state": "MT", "city": "Polson", "zip": "59860"}, {"uuid": "DE24FC98-4B72-4869-B047-5888A902F324", "name": "Tiffany Kinder", "number": "PV82584", "street": "*******************", "state": "MT", "city": "Billings", "zip": "59106"}, {"uuid": "0201D1F6-EE74-4C67-B31D-CD1171B17919", "name": "Tiffany Stephens / Little Acorns 2", "number": "PV101304", "street": "****************", "state": "MT", "city": "Billings", "zip": "59101"}, {"uuid": "40949D04-1573-4D57-A799-7D9F0BA66C31", "name": "Time 4 Kidz Bozeman LLC", "number": "PV108590", "street": "**************************", "state": "MT", "city": "Bozeman", "zip": "59718"}, {"uuid": "2C35E8D7-7A66-41C3-AAF9-A04B12A69829", "name": "Tina Grande / Tina's Tiny Tots Day Care", "number": "PV79373", "street": "*****************", "state": "MT", "city": "Kalispell", "zip": "59901"}, {"uuid": "0FAA979E-6E7E-449F-A47C-7ADB86B5E209", "name": "Tina Hartman/Little Folks University", "number": "PV92575", "street": "*************", "state": "MT", "city": "Miles City", "zip": "59301"}, {"uuid": "5F43E0B4-9719-41D9-8ECC-2985E1254F76", "name": "Tiny Tots Academy LLC", "number": "PV110542", "street": "***************", "state": "MT", "city": "Missoula", "zip": "59801"}, {"uuid": "3EE93E12-159A-427A-ADA3-DA85107FA8B6", "name": "TLC Center BLC / Elizabeth Olson", "number": "PV107315", "street": "****************", "state": "MT", "city": "Great Falls", "zip": "59404"}, {"uuid": "3C24F71B-A602-4F6F-BA6F-AED365D3A3C2", "name": "TLC Center-MSU / Alexandra Albert", "number": "PV108971", "street": "**************", "state": "MT", "city": "Great Falls", "zip": "59405"}, {"uuid": "8DF01BED-7244-4F13-AC9E-C3D474F4EC57", "name": "Toby's House Crisis Nursery", "number": "PV109045", "street": "************", "state": "MT", "city": "Great Falls", "zip": "59401"}, {"uuid": "6D993E61-8B8B-4B30-A5EB-632F84E78DDC", "name": "Toddle Town Inc", "number": "PV108429", "street": "*****************", "state": "MT", "city": "Billings", "zip": "59102"}, {"uuid": "D481E11A-CAFF-4050-B080-21452BBBE143", "name": "Toni Moody / Mountain Peak Learning LLC", "number": "PV106942", "street": "****************", "state": "MT", "city": "Laurel", "zip": "59044"}, {"uuid": "B2B13A8F-EF7C-46A8-AD9F-2C81874CC95B", "name": "Tonya Boager / MC Learning Center", "number": "PV109647", "street": "*****************", "state": "MT", "city": "Miles City", "zip": "59301"}, {"uuid": "EBC3D389-57B0-41B5-B322-45833BBEE3A2", "name": "Tonya Yost / Tonkers Daycare", "number": "PV79692", "street": "***************", "state": "MT", "city": "Laurel", "zip": "59044"}, {"uuid": "40B33874-FC52-4954-8689-E893B10536A3", "name": "Tots 'n Dots Daycare LLC/Anna McCracken", "number": "PV110059", "street": "****************", "state": "MT", "city": "Colstrip", "zip": "59323"}, {"uuid": "CCC61185-906B-4CA8-86C6-6C9FB80B9151", "name": "Traci Osborne / Babyland at Cougar Cubs", "number": "PV101153", "street": "***********", "state": "MT", "city": "Columbus", "zip": "59019"}, {"uuid": "48EAACAC-8F87-41A4-AFA6-75DF7018675E", "name": "Traci Osborne / Cougar Cubs Child Care", "number": "PV108853", "street": "***************", "state": "MT", "city": "Columbus", "zip": "59019"}, {"uuid": "97CEEFEF-2A4A-4420-8FD6-6F76076ECD01", "name": "Tracy Holum / Tracy's Tots N Tykes", "number": "PV85598", "street": "**********", "state": "MT", "city": "Scobey", "zip": "59263"}, {"uuid": "264B23DE-0C45-4451-86E0-D9F8CE4FE9F1", "name": "Tracy Kathleen Ethel Wills", "number": "PV109660", "street": "********************", "state": "MT", "city": "Miles City", "zip": "59301"}, {"uuid": "96108A7D-2290-41DA-832B-36C3B8F6358F", "name": "Trinity Lutheran Child Care Center", "number": "PV76913", "street": "**************", "state": "MT", "city": "Kalispell", "zip": "59901"}, {"uuid": "E15C9884-E0CE-443D-A70A-725744FE5E8A", "name": "Trinity Lutheran Childcare", "number": "PV92954", "street": "*****************", "state": "MT", "city": "Billings", "zip": "59102"}, {"uuid": "EC6D4826-2E0F-4EF6-A8B5-F0A16380D57A", "name": "Twin Bridges Kid Country/ April Huss", "number": "PV85949", "street": "*************", "state": "MT", "city": "Twin Bridges", "zip": "59754"}, {"uuid": "6FFD18B0-E5C9-4F62-8FCA-B9552C55A313", "name": "Ursuline Day Care", "number": "PV75736", "street": "****************", "state": "MT", "city": "Great Falls", "zip": "59401"}, {"uuid": "3A19681B-29E2-4089-A048-2B27BA777A11", "name": "V Mitchell/Veronicas Lullabies and Laugh", "number": "PV109427", "street": "*************", "state": "MT", "city": "Billings", "zip": "59102"}, {"uuid": "A16280B0-A7B8-4C05-89E4-59C50D19D42A", "name": "Vandie Buckingham / Lil' Buckaroos", "number": "PV90329", "street": "**************", "state": "MT", "city": "Miles City", "zip": "59301"}, {"uuid": "72A3713E-9618-42BC-845E-A14AF52F1802", "name": "Victoria  Pauley / Yellow Bridge Road", "number": "PV106078", "street": "*************", "state": "MT", "city": "Bigfork", "zip": "59911"}, {"uuid": "5C7D5BFB-5CA3-4A26-B96F-6BBFD8E922D8", "name": "Victoria Kuglin / Meadowlark Preschool", "number": "PV80609", "street": "*************", "state": "MT", "city": "Missoula", "zip": "59801"}, {"uuid": "8071C181-AD3F-44E5-B81A-9AC025A81497", "name": "Wee Care Daycare", "number": "PV109517", "street": "****************************", "state": "MT", "city": "Havre", "zip": "59501"}, {"uuid": "2A1CABCB-7B06-4983-B2C1-5F42CDE6BAC8", "name": "Wee Disciples", "number": "PV79141", "street": "**************", "state": "MT", "city": "Great Falls", "zip": "59401"}, {"uuid": "B9769544-BB4D-4511-A1B3-24D0D7F63578", "name": "Whitefish Community School/Jessica Diehl", "number": "PV85360", "street": "************", "state": "MT", "city": "Whitefish", "zip": "59937"}, {"uuid": "64523EE7-C44C-4829-BE82-3E8345B8AF76", "name": "Wiggles to Giggles Preschool", "number": "PV110030", "street": "****************", "state": "MT", "city": "Billings", "zip": "59101"}, {"uuid": "418BE7C3-A9A9-466E-AF43-EB7CE16099A4", "name": "Wild Flowers Academy", "number": "PV106108", "street": "********", "state": "MT", "city": "Deer Lodge", "zip": "59722"}, {"uuid": "81BBE2BC-9292-4406-BF56-65C228181084", "name": "Wild Flowers Early Learning Center", "number": "PV84061", "street": "***************", "state": "MT", "city": "Deer Lodge", "zip": "59722"}, {"uuid": "8853D7CC-325C-4267-A9F7-EF2D2FC70604", "name": "Wild Rose Family Center, LLC", "number": "PV109473", "street": "********", "state": "MT", "city": "Ennis", "zip": "59729"}, {"uuid": "EE44D4D4-1B84-45A8-924F-3E88DB3B8A11", "name": "Wild Wonders Early Learning Program", "number": "PV93708", "street": "******************", "state": "MT", "city": "Missoula", "zip": "59808"}, {"uuid": "60A69364-44A3-474F-B867-55E8784FA6D9", "name": "Willow Louise Kramen", "number": "PV110294", "street": "*****************", "state": "MT", "city": "Missoula", "zip": "59801"}, {"uuid": "4D412723-3214-4583-B1E3-1ACDF02FDF8D", "name": "Winda Johnson / LIttle Cubs Daycare", "number": "PV78781", "street": "***************", "state": "MT", "city": "Billings", "zip": "59101"}, {"uuid": "BF6AF8D2-2753-43B6-9123-6A952B897475", "name": "Wolverton/406 Kids LLC", "number": "PV75422", "street": "********************", "state": "MT", "city": "Kalispell", "zip": "59901"}, {"uuid": "0EF808C4-7117-4B14-8BAC-F9FC687B3DF1", "name": "Wonder and Bloom Preschool", "number": "PV110586", "street": "*******************", "state": "MT", "city": "Kalispell", "zip": "59901"}, {"uuid": "1A670636-76EE-4678-9F20-D03A8B338420", "name": "Woodland Montessori School", "number": "PV76852", "street": "*************", "state": "MT", "city": "Kalispell", "zip": "59901"}, {"uuid": "7F56BB39-12C3-4FF1-9290-4BD763D31B74", "name": "YES Youth Empowerment Services", "number": "PV110236", "street": "**************", "state": "MT", "city": "Anaconda", "zip": "59711"}, {"uuid": "90BE43CA-7980-4B0F-BBF9-7121E431EB43", "name": "YMCA After School - Jeanette Rankin Elem", "number": "PV109804", "street": "***************", "state": "MT", "city": "Missoula", "zip": "59803"}, {"uuid": "3A570B0C-F610-4AD0-B2B9-AD9CFDF897A2", "name": "YMCA After School at Chief Charlo", "number": "PV108536", "street": "*******************", "state": "MT", "city": "Missoula", "zip": "59803"}, {"uuid": "62410A55-7E04-44AE-95E3-E80B784B968C", "name": "YMCA After School at CM Russell", "number": "PV108538", "street": "**********************", "state": "MT", "city": "Missoula", "zip": "59801"}, {"uuid": "8A43153B-4043-43A0-B909-74C50CB33392", "name": "YMCA After school at Lewis & Clark Elem", "number": "PV110469", "street": "****************", "state": "MT", "city": "Missoula", "zip": "59801"}, {"uuid": "05DE03DC-D4E3-4FB1-9967-204D9FC78433", "name": "YMCA After School at Paxson", "number": "PV77285", "street": "*************", "state": "MT", "city": "Missoula", "zip": "59801"}, {"uuid": "24B7686B-2F2D-49D6-BD28-F56320DF5948", "name": "YMCA Afterschool at Hellgate", "number": "PV101478", "street": "***************", "state": "MT", "city": "Missoula", "zip": "59808"}, {"uuid": "3893527E-D2E2-488A-9F22-CD2915FAD9DC", "name": "YMCA Development", "number": "PV77284", "street": "*****************", "state": "MT", "city": "Missoula", "zip": "59801"}, {"uuid": "B5F20BED-057A-4B45-8EB3-9118E7CCB65B", "name": "YMCA Learning Center", "number": "PV98603", "street": "******************", "state": "MT", "city": "Missoula", "zip": "59808"}, {"uuid": "1E163879-50B0-4493-BCAA-88F6FD87F2E6", "name": "Young Explorers / Shelly Fischer", "number": "PV76772", "street": "*****************", "state": "MT", "city": "Butte", "zip": "59701"}, {"uuid": "52C1EE54-8707-4B5B-9597-8097F2AAAD7A", "name": "Young Families Early Head Start, Inc", "number": "PV76304", "street": "************", "state": "MT", "city": "Billings", "zip": "59102"}, {"uuid": "BC3F1816-0E44-4279-97BF-42C351F38E06", "name": "Young Parents Education Center", "number": "PV75752", "street": "*******************", "state": "MT", "city": "Great Falls", "zip": "59401"}, {"uuid": "6213F201-CD45-4D3C-97DE-506613A3787B", "name": "Yvonne Nelson / Country Home Day Care", "number": "PV109705", "street": "****************", "state": "MT", "city": "Havre", "zip": "59501"}, {"uuid": "A4585133-4889-442D-8E1F-43FF016C3B87", "name": "Zoot Adventure Learning Academy", "number": "PV107862", "street": "*************************", "state": "MT", "city": "Bozeman", "zip": "59718"}]